$GNGGA,000000.00,3348.0573,S,15052.7805,E,4,18,0.6,30.0,M,46.9,M,,*59
$GNRMC,000000.00,A,3348.0573,S,15052.7805,E,107.0,119.0,010126,,*3F
$GNGGA,000000.10,3348.0548,S,15052.7786,E,4,18,0.6,30.0,M,46.9,M,,*54
$GNRMC,000000.10,A,3348.0548,S,15052.7786,E,107.0,125.8,010126,,*35
$GNGGA,000000.20,3348.0524,S,15052.7765,E,4,18,0.6,30.0,M,46.9,M,,*50
$GNRMC,000000.20,A,3348.0524,S,15052.7765,E,107.1,125.8,010126,,*30
$GNGGA,000000.30,3348.0500,S,15052.7744,E,4,18,0.6,30.0,M,46.9,M,,*54
$GNRMC,000000.30,A,3348.0500,S,15052.7744,E,107.1,125.8,010126,,*34
$GNGGA,000000.40,3348.0476,S,15052.7724,E,4,18,0.6,30.0,M,46.9,M,,*55
$GNRMC,000000.40,A,3348.0476,S,15052.7724,E,107.2,125.8,010126,,*36
$GNGGA,000000.50,3348.0452,S,15052.7703,E,4,18,0.6,30.0,M,46.9,M,,*57
$GNRMC,000000.50,A,3348.0452,S,15052.7703,E,107.2,125.8,010126,,*34
$GNGGA,000000.60,3348.0428,S,15052.7680,E,4,18,0.6,30.0,M,46.9,M,,*53
$GNRMC,000000.60,A,3348.0428,S,15052.7680,E,107.3,131.8,010126,,*34
$GNGGA,000000.70,3348.0406,S,15052.7656,E,4,18,0.6,30.0,M,46.9,M,,*55
$GNRMC,000000.70,A,3348.0406,S,15052.7656,E,107.3,131.8,010126,,*32
$GNGGA,000000.80,3348.0384,S,15052.7633,E,4,18,0.6,30.0,M,46.9,M,,*54
$GNRMC,000000.80,A,3348.0384,S,15052.7633,E,107.4,131.8,010126,,*34
$GNGGA,000000.90,3348.0362,S,15052.7609,E,4,18,0.6,30.0,M,46.9,M,,*54
$GNRMC,000000.90,A,3348.0362,S,15052.7609,E,107.4,131.8,010126,,*34
$GNGGA,000001.00,3348.0339,S,15052.7585,E,4,18,0.6,30.0,M,46.9,M,,*55
$GNRMC,000001.00,A,3348.0339,S,15052.7585,E,107.5,131.8,010126,,*34
$GNGGA,000001.10,3348.0318,S,15052.7560,E,4,18,0.6,30.0,M,46.9,M,,*5C
$GNRMC,000001.10,A,3348.0318,S,15052.7560,E,107.5,137.1,010126,,*32
$GNGGA,000001.20,3348.0297,S,15052.7534,E,4,18,0.6,30.0,M,46.9,M,,*58
$GNRMC,000001.20,A,3348.0297,S,15052.7534,E,107.6,137.1,010126,,*35
$GNGGA,000001.30,3348.0277,S,15052.7508,E,4,18,0.6,30.0,M,46.9,M,,*58
$GNRMC,000001.30,A,3348.0277,S,15052.7508,E,107.6,137.1,010126,,*35
$GNGGA,000001.40,3348.0257,S,15052.7481,E,4,18,0.6,30.0,M,46.9,M,,*5D
$GNRMC,000001.40,A,3348.0257,S,15052.7481,E,107.7,137.1,010126,,*31
$GNGGA,000001.50,3348.0236,S,15052.7455,E,4,18,0.6,30.0,M,46.9,M,,*52
$GNRMC,000001.50,A,3348.0236,S,15052.7455,E,107.7,137.1,010126,,*3E
$GNGGA,000001.60,3348.0216,S,15052.7429,E,4,18,0.6,30.0,M,46.9,M,,*58
$GNRMC,000001.60,A,3348.0216,S,15052.7429,E,107.7,137.1,010126,,*34
$GNGGA,000001.70,3348.0197,S,15052.7401,E,4,18,0.6,30.0,M,46.9,M,,*59
$GNRMC,000001.70,A,3348.0197,S,15052.7401,E,107.8,141.8,010126,,*32
$GNGGA,000001.80,3348.0178,S,15052.7373,E,4,18,0.6,30.0,M,46.9,M,,*55
$GNRMC,000001.80,A,3348.0178,S,15052.7373,E,107.8,141.8,010126,,*3E
$GNGGA,000001.90,3348.0160,S,15052.7344,E,4,18,0.6,30.0,M,46.9,M,,*59
$GNRMC,000001.90,A,3348.0160,S,15052.7344,E,107.9,141.8,010126,,*33
$GNGGA,000002.00,3348.0141,S,15052.7316,E,4,18,0.6,30.0,M,46.9,M,,*57
$GNRMC,000002.00,A,3348.0141,S,15052.7316,E,107.9,141.8,010126,,*3D
$GNGGA,000002.10,3348.0123,S,15052.7288,E,4,18,0.6,30.0,M,46.9,M,,*54
$GNRMC,000002.10,A,3348.0123,S,15052.7288,E,108.0,141.8,010126,,*38
$GNGGA,000002.20,3348.0104,S,15052.7260,E,4,18,0.6,30.0,M,46.9,M,,*54
$GNRMC,000002.20,A,3348.0104,S,15052.7260,E,108.0,141.8,010126,,*38
$GNGGA,000002.30,3348.0087,S,15052.7230,E,4,18,0.6,30.0,M,46.9,M,,*5A
$GNRMC,000002.30,A,3348.0087,S,15052.7230,E,108.0,145.9,010126,,*33
$GNGGA,000002.40,3348.0070,S,15052.7200,E,4,18,0.6,30.0,M,46.9,M,,*56
$GNRMC,000002.40,A,3348.0070,S,15052.7200,E,108.1,145.9,010126,,*3E
$GNGGA,000002.50,3348.0053,S,15052.7170,E,4,18,0.6,30.0,M,46.9,M,,*52
$GNRMC,000002.50,A,3348.0053,S,15052.7170,E,108.1,145.9,010126,,*3A
$GNGGA,000002.60,3348.0036,S,15052.7140,E,4,18,0.6,30.0,M,46.9,M,,*51
$GNRMC,000002.60,A,3348.0036,S,15052.7140,E,108.2,145.9,010126,,*3A
$GNGGA,000002.70,3348.0019,S,15052.7111,E,4,18,0.6,30.0,M,46.9,M,,*59
$GNRMC,000002.70,A,3348.0019,S,15052.7111,E,108.2,145.9,010126,,*32
$GNGGA,000002.80,3348.0003,S,15052.7081,E,4,18,0.6,30.0,M,46.9,M,,*55
$GNRMC,000002.80,A,3348.0003,S,15052.7081,E,108.2,145.9,010126,,*3E
$GNGGA,000002.90,3347.9986,S,15052.7050,E,4,18,0.6,30.0,M,46.9,M,,*5A
$GNRMC,000002.90,A,3347.9986,S,15052.7050,E,108.3,149.6,010126,,*33
$GNGGA,000003.00,3347.9971,S,15052.7019,E,4,18,0.6,30.0,M,46.9,M,,*57
$GNRMC,000003.00,A,3347.9971,S,15052.7019,E,108.3,149.6,010126,,*3E
$GNGGA,000003.10,3347.9956,S,15052.6988,E,4,18,0.6,30.0,M,46.9,M,,*53
$GNRMC,000003.10,A,3347.9956,S,15052.6988,E,108.3,149.6,010126,,*3A
$GNGGA,000003.20,3347.9941,S,15052.6957,E,4,18,0.6,30.0,M,46.9,M,,*54
$GNRMC,000003.20,A,3347.9941,S,15052.6957,E,108.4,149.6,010126,,*3A
$GNGGA,000003.30,3347.9925,S,15052.6925,E,4,18,0.6,30.0,M,46.9,M,,*52
$GNRMC,000003.30,A,3347.9925,S,15052.6925,E,108.4,149.6,010126,,*3C
$GNGGA,000003.40,3347.9910,S,15052.6894,E,4,18,0.6,30.0,M,46.9,M,,*58
$GNRMC,000003.40,A,3347.9910,S,15052.6894,E,108.4,149.6,010126,,*36
$GNGGA,000003.50,3347.9895,S,15052.6863,E,4,18,0.6,30.0,M,46.9,M,,*5D
$GNRMC,000003.50,A,3347.9895,S,15052.6863,E,108.5,149.6,010126,,*32
$GNGGA,000003.60,3347.9881,S,15052.6831,E,4,18,0.6,30.0,M,46.9,M,,*5C
$GNRMC,000003.60,A,3347.9881,S,15052.6831,E,108.5,152.8,010126,,*37
$GNGGA,000003.70,3347.9867,S,15052.6799,E,4,18,0.6,30.0,M,46.9,M,,*58
$GNRMC,000003.70,A,3347.9867,S,15052.6799,E,108.5,152.8,010126,,*33
$GNGGA,000003.80,3347.9853,S,15052.6766,E,4,18,0.6,30.0,M,46.9,M,,*50
$GNRMC,000003.80,A,3347.9853,S,15052.6766,E,108.6,152.8,010126,,*38
$GNGGA,000003.90,3347.9840,S,15052.6734,E,4,18,0.6,30.0,M,46.9,M,,*54
$GNRMC,000003.90,A,3347.9840,S,15052.6734,E,108.6,152.8,010126,,*3C
$GNGGA,000004.00,3347.9826,S,15052.6702,E,4,18,0.6,30.0,M,46.9,M,,*5F
$GNRMC,000004.00,A,3347.9826,S,15052.6702,E,108.6,152.8,010126,,*37
$GNGGA,000004.10,3347.9812,S,15052.6670,E,4,18,0.6,30.0,M,46.9,M,,*5D
$GNRMC,000004.10,A,3347.9812,S,15052.6670,E,108.6,152.8,010126,,*35
$GNGGA,000004.20,3347.9798,S,15052.6637,E,4,18,0.6,30.0,M,46.9,M,,*50
$GNRMC,000004.20,A,3347.9798,S,15052.6637,E,108.7,152.8,010126,,*39
$GNGGA,000004.30,3347.9786,S,15052.6604,E,4,18,0.6,30.0,M,46.9,M,,*5E
$GNRMC,000004.30,A,3347.9786,S,15052.6604,E,108.7,155.8,010126,,*30
$GNGGA,000004.40,3347.9773,S,15052.6571,E,4,18,0.6,30.0,M,46.9,M,,*52
$GNRMC,000004.40,A,3347.9773,S,15052.6571,E,108.7,155.8,010126,,*3C
$GNGGA,000004.50,3347.9761,S,15052.6538,E,4,18,0.6,30.0,M,46.9,M,,*5D
$GNRMC,000004.50,A,3347.9761,S,15052.6538,E,108.7,155.8,010126,,*33
$GNGGA,000004.60,3347.9749,S,15052.6505,E,4,18,0.6,30.0,M,46.9,M,,*5A
$GNRMC,000004.60,A,3347.9749,S,15052.6505,E,108.8,155.8,010126,,*3B
$GNGGA,000004.70,3347.9736,S,15052.6472,E,4,18,0.6,30.0,M,46.9,M,,*52
$GNRMC,000004.70,A,3347.9736,S,15052.6472,E,108.8,155.8,010126,,*33
$GNGGA,000004.80,3347.9724,S,15052.6439,E,4,18,0.6,30.0,M,46.9,M,,*51
$GNRMC,000004.80,A,3347.9724,S,15052.6439,E,108.8,155.8,010126,,*30
$GNGGA,000004.90,3347.9711,S,15052.6406,E,4,18,0.6,30.0,M,46.9,M,,*5A
$GNRMC,000004.90,A,3347.9711,S,15052.6406,E,108.8,155.8,010126,,*3B
$GNGGA,000005.00,3347.9700,S,15052.6372,E,4,18,0.6,30.0,M,46.9,M,,*56
$GNRMC,000005.00,A,3347.9700,S,15052.6372,E,108.8,158.5,010126,,*37
$GNGGA,000005.10,3347.9688,S,15052.6338,E,4,18,0.6,30.0,M,46.9,M,,*58
$GNRMC,000005.10,A,3347.9688,S,15052.6338,E,108.9,158.5,010126,,*38
$GNGGA,000005.20,3347.9677,S,15052.6304,E,4,18,0.6,30.0,M,46.9,M,,*54
$GNRMC,000005.20,A,3347.9677,S,15052.6304,E,108.9,158.5,010126,,*34
$GNGGA,000005.30,3347.9666,S,15052.6271,E,4,18,0.6,30.0,M,46.9,M,,*56
$GNRMC,000005.30,A,3347.9666,S,15052.6271,E,108.9,158.5,010126,,*36
$GNGGA,000005.40,3347.9655,S,15052.6237,E,4,18,0.6,30.0,M,46.9,M,,*53
$GNRMC,000005.40,A,3347.9655,S,15052.6237,E,108.9,158.5,010126,,*33
$GNGGA,000005.50,3347.9644,S,15052.6203,E,4,18,0.6,30.0,M,46.9,M,,*55
$GNRMC,000005.50,A,3347.9644,S,15052.6203,E,108.9,158.5,010126,,*35
$GNGGA,000005.60,3347.9633,S,15052.6169,E,4,18,0.6,30.0,M,46.9,M,,*59
$GNRMC,000005.60,A,3347.9633,S,15052.6169,E,108.9,158.5,010126,,*39
$GNGGA,000005.70,3347.9622,S,15052.6135,E,4,18,0.6,30.0,M,46.9,M,,*51
$GNRMC,000005.70,A,3347.9622,S,15052.6135,E,109.0,158.5,010126,,*39
$GNGGA,000005.80,3347.9612,S,15052.6101,E,4,18,0.6,30.0,M,46.9,M,,*5A
$GNRMC,000005.80,A,3347.9612,S,15052.6101,E,109.0,160.9,010126,,*35
$GNGGA,000005.90,3347.9602,S,15052.6067,E,4,18,0.6,30.0,M,46.9,M,,*5B
$GNRMC,000005.90,A,3347.9602,S,15052.6067,E,109.0,160.9,010126,,*34
$GNGGA,000006.00,3347.9592,S,15052.6032,E,4,18,0.6,30.0,M,46.9,M,,*5B
$GNRMC,000006.00,A,3347.9592,S,15052.6032,E,109.0,160.9,010126,,*34
$GNGGA,000006.10,3347.9582,S,15052.5998,E,4,18,0.6,30.0,M,46.9,M,,*51
$GNRMC,000006.10,A,3347.9582,S,15052.5998,E,109.0,160.9,010126,,*3E
$GNGGA,000006.20,3347.9572,S,15052.5963,E,4,18,0.6,30.0,M,46.9,M,,*59
$GNRMC,000006.20,A,3347.9572,S,15052.5963,E,109.0,160.9,010126,,*36
$GNGGA,000006.30,3347.9562,S,15052.5929,E,4,18,0.6,30.0,M,46.9,M,,*57
$GNRMC,000006.30,A,3347.9562,S,15052.5929,E,109.0,160.9,010126,,*38
$GNGGA,000006.40,3347.9552,S,15052.5894,E,4,18,0.6,30.0,M,46.9,M,,*54
$GNRMC,000006.40,A,3347.9552,S,15052.5894,E,109.0,160.9,010126,,*3B
$GNGGA,000006.50,3347.9543,S,15052.5860,E,4,18,0.6,30.0,M,46.9,M,,*5E
$GNRMC,000006.50,A,3347.9543,S,15052.5860,E,109.0,160.9,010126,,*31
$GNGGA,000006.60,3347.9533,S,15052.5825,E,4,18,0.6,30.0,M,46.9,M,,*5B
$GNRMC,000006.60,A,3347.9533,S,15052.5825,E,109.0,163.2,010126,,*3C
$GNGGA,000006.70,3347.9525,S,15052.5790,E,4,18,0.6,30.0,M,46.9,M,,*5C
$GNRMC,000006.70,A,3347.9525,S,15052.5790,E,109.0,163.2,010126,,*3B
$GNGGA,000006.80,3347.9516,S,15052.5756,E,4,18,0.6,30.0,M,46.9,M,,*59
$GNRMC,000006.80,A,3347.9516,S,15052.5756,E,109.0,163.2,010126,,*3E
$GNGGA,000006.90,3347.9507,S,15052.5721,E,4,18,0.6,30.0,M,46.9,M,,*58
$GNRMC,000006.90,A,3347.9507,S,15052.5721,E,109.0,163.2,010126,,*3F
$GNGGA,000007.00,3347.9499,S,15052.5686,E,4,18,0.6,30.0,M,46.9,M,,*5A
$GNRMC,000007.00,A,3347.9499,S,15052.5686,E,109.0,163.2,010126,,*3D
$GNGGA,000007.10,3347.9490,S,15052.5651,E,4,18,0.6,30.0,M,46.9,M,,*58
$GNRMC,000007.10,A,3347.9490,S,15052.5651,E,109.0,163.2,010126,,*3F
$GNGGA,000007.20,3347.9481,S,15052.5616,E,4,18,0.6,30.0,M,46.9,M,,*58
$GNRMC,000007.20,A,3347.9481,S,15052.5616,E,109.0,163.2,010126,,*3F
$GNGGA,000007.30,3347.9472,S,15052.5581,E,4,18,0.6,30.0,M,46.9,M,,*58
$GNRMC,000007.30,A,3347.9472,S,15052.5581,E,109.0,163.2,010126,,*3F
$GNGGA,000007.40,3347.9464,S,15052.5546,E,4,18,0.6,30.0,M,46.9,M,,*53
$GNRMC,000007.40,A,3347.9464,S,15052.5546,E,109.0,165.3,010126,,*33
$GNGGA,000007.50,3347.9456,S,15052.5511,E,4,18,0.6,30.0,M,46.9,M,,*51
$GNRMC,000007.50,A,3347.9456,S,15052.5511,E,109.0,165.3,010126,,*31
$GNGGA,000007.60,3347.9449,S,15052.5476,E,4,18,0.6,30.0,M,46.9,M,,*5C
$GNRMC,000007.60,A,3347.9449,S,15052.5476,E,109.0,165.3,010126,,*3C
$GNGGA,000007.70,3347.9441,S,15052.5440,E,4,18,0.6,30.0,M,46.9,M,,*50
$GNRMC,000007.70,A,3347.9441,S,15052.5440,E,109.0,165.3,010126,,*30
$GNGGA,000007.80,3347.9433,S,15052.5405,E,4,18,0.6,30.0,M,46.9,M,,*5B
$GNRMC,000007.80,A,3347.9433,S,15052.5405,E,109.0,165.3,010126,,*3B
$GNGGA,000007.90,3347.9426,S,15052.5370,E,4,18,0.6,30.0,M,46.9,M,,*5B
$GNRMC,000007.90,A,3347.9426,S,15052.5370,E,109.0,165.3,010126,,*3B
$GNGGA,000008.00,3347.9418,S,15052.5335,E,4,18,0.6,30.0,M,46.9,M,,*51
$GNRMC,000008.00,A,3347.9418,S,15052.5335,E,109.0,165.3,010126,,*31
$GNGGA,000008.10,3347.9410,S,15052.5299,E,4,18,0.6,30.0,M,46.9,M,,*5F
$GNRMC,000008.10,A,3347.9410,S,15052.5299,E,109.0,165.3,010126,,*3F
$GNGGA,000008.20,3347.9403,S,15052.5264,E,4,18,0.6,30.0,M,46.9,M,,*5C
$GNRMC,000008.20,A,3347.9403,S,15052.5264,E,109.0,165.3,010126,,*3C
$GNGGA,000008.30,3347.9396,S,15052.5229,E,4,18,0.6,30.0,M,46.9,M,,*5F
$GNRMC,000008.30,A,3347.9396,S,15052.5229,E,109.0,167.3,010126,,*3D
$GNGGA,000008.40,3347.9389,S,15052.5193,E,4,18,0.6,30.0,M,46.9,M,,*54
$GNRMC,000008.40,A,3347.9389,S,15052.5193,E,109.0,167.3,010126,,*36
$GNGGA,000008.50,3347.9383,S,15052.5158,E,4,18,0.6,30.0,M,46.9,M,,*58
$GNRMC,000008.50,A,3347.9383,S,15052.5158,E,109.0,167.3,010126,,*3A
$GNGGA,000008.60,3347.9376,S,15052.5122,E,4,18,0.6,30.0,M,46.9,M,,*5C
$GNRMC,000008.60,A,3347.9376,S,15052.5122,E,108.9,167.3,010126,,*36
$GNGGA,000008.70,3347.9369,S,15052.5087,E,4,18,0.6,30.0,M,46.9,M,,*5D
$GNRMC,000008.70,A,3347.9369,S,15052.5087,E,108.9,167.3,010126,,*37
$GNGGA,000008.80,3347.9363,S,15052.5051,E,4,18,0.6,30.0,M,46.9,M,,*53
$GNRMC,000008.80,A,3347.9363,S,15052.5051,E,108.9,167.3,010126,,*39
$GNGGA,000008.90,3347.9356,S,15052.5016,E,4,18,0.6,30.0,M,46.9,M,,*57
$GNRMC,000008.90,A,3347.9356,S,15052.5016,E,108.9,167.3,010126,,*3D
$GNGGA,000009.00,3347.9349,S,15052.4980,E,4,18,0.6,30.0,M,46.9,M,,*56
$GNRMC,000009.00,A,3347.9349,S,15052.4980,E,108.9,167.3,010126,,*3C
$GNGGA,000009.10,3347.9343,S,15052.4945,E,4,18,0.6,30.0,M,46.9,M,,*54
$GNRMC,000009.10,A,3347.9343,S,15052.4945,E,108.9,169.2,010126,,*31
$GNGGA,000009.20,3347.9337,S,15052.4909,E,4,18,0.6,30.0,M,46.9,M,,*5C
$GNRMC,000009.20,A,3347.9337,S,15052.4909,E,108.8,169.2,010126,,*38
$GNGGA,000009.30,3347.9332,S,15052.4873,E,4,18,0.6,30.0,M,46.9,M,,*54
$GNRMC,000009.30,A,3347.9332,S,15052.4873,E,108.8,169.2,010126,,*30
$GNGGA,000009.40,3347.9326,S,15052.4838,E,4,18,0.6,30.0,M,46.9,M,,*59
$GNRMC,000009.40,A,3347.9326,S,15052.4838,E,108.8,169.2,010126,,*3D
$GNGGA,000009.50,3347.9320,S,15052.4802,E,4,18,0.6,30.0,M,46.9,M,,*57
$GNRMC,000009.50,A,3347.9320,S,15052.4802,E,108.8,169.2,010126,,*33
$GNGGA,000009.60,3347.9315,S,15052.4766,E,4,18,0.6,30.0,M,46.9,M,,*5F
$GNRMC,000009.60,A,3347.9315,S,15052.4766,E,108.7,169.2,010126,,*34
$GNGGA,000009.70,3347.9309,S,15052.4731,E,4,18,0.6,30.0,M,46.9,M,,*51
$GNRMC,000009.70,A,3347.9309,S,15052.4731,E,108.7,169.2,010126,,*3A
$GNGGA,000009.80,3347.9303,S,15052.4695,E,4,18,0.6,30.0,M,46.9,M,,*5B
$GNRMC,000009.80,A,3347.9303,S,15052.4695,E,108.7,169.2,010126,,*30
$GNGGA,000009.90,3347.9298,S,15052.4659,E,4,18,0.6,30.0,M,46.9,M,,*59
$GNRMC,000009.90,A,3347.9298,S,15052.4659,E,108.7,169.2,010126,,*32
$GNGGA,000010.00,3347.9292,S,15052.4624,E,4,18,0.6,30.0,M,46.9,M,,*58
$GNRMC,000010.00,A,3347.9292,S,15052.4624,E,108.6,169.2,010126,,*32
$GNGGA,000010.10,3347.9287,S,15052.4588,E,4,18,0.6,30.0,M,46.9,M,,*58
$GNRMC,000010.10,A,3347.9287,S,15052.4588,E,108.6,171.0,010126,,*39
$GNGGA,000010.20,3347.9282,S,15052.4552,E,4,18,0.6,30.0,M,46.9,M,,*59
$GNRMC,000010.20,A,3347.9282,S,15052.4552,E,108.6,171.0,010126,,*38
$GNGGA,000010.30,3347.9278,S,15052.4516,E,4,18,0.6,30.0,M,46.9,M,,*5D
$GNRMC,000010.30,A,3347.9278,S,15052.4516,E,108.6,171.0,010126,,*3C
$GNGGA,000010.40,3347.9273,S,15052.4480,E,4,18,0.6,30.0,M,46.9,M,,*5F
$GNRMC,000010.40,A,3347.9273,S,15052.4480,E,108.5,171.0,010126,,*3D
$GNGGA,000010.50,3347.9268,S,15052.4444,E,4,18,0.6,30.0,M,46.9,M,,*5C
$GNRMC,000010.50,A,3347.9268,S,15052.4444,E,108.5,171.0,010126,,*3E
$GNGGA,000010.60,3347.9264,S,15052.4409,E,4,18,0.6,30.0,M,46.9,M,,*5A
$GNRMC,000010.60,A,3347.9264,S,15052.4409,E,108.5,171.0,010126,,*38
$GNGGA,000010.70,3347.9259,S,15052.4373,E,4,18,0.6,30.0,M,46.9,M,,*5F
$GNRMC,000010.70,A,3347.9259,S,15052.4373,E,108.4,171.0,010126,,*3C
$GNGGA,000010.80,3347.9254,S,15052.4337,E,4,18,0.6,30.0,M,46.9,M,,*5D
$GNRMC,000010.80,A,3347.9254,S,15052.4337,E,108.4,171.0,010126,,*3E
$GNGGA,000010.90,3347.9249,S,15052.4301,E,4,18,0.6,30.0,M,46.9,M,,*55
$GNRMC,000010.90,A,3347.9249,S,15052.4301,E,108.4,171.0,010126,,*36
$GNGGA,000011.00,3347.9245,S,15052.4265,E,4,18,0.6,30.0,M,46.9,M,,*52
$GNRMC,000011.00,A,3347.9245,S,15052.4265,E,108.3,172.7,010126,,*32
$GNGGA,000011.10,3347.9242,S,15052.4230,E,4,18,0.6,30.0,M,46.9,M,,*54
$GNRMC,000011.10,A,3347.9242,S,15052.4230,E,108.3,172.7,010126,,*34
$GNGGA,000011.20,3347.9238,S,15052.4194,E,4,18,0.6,30.0,M,46.9,M,,*57
$GNRMC,000011.20,A,3347.9238,S,15052.4194,E,108.3,172.7,010126,,*37
$GNGGA,000011.30,3347.9234,S,15052.4158,E,4,18,0.6,30.0,M,46.9,M,,*5A
$GNRMC,000011.30,A,3347.9234,S,15052.4158,E,108.2,172.7,010126,,*3B
$GNGGA,000011.40,3347.9230,S,15052.4122,E,4,18,0.6,30.0,M,46.9,M,,*54
$GNRMC,000011.40,A,3347.9230,S,15052.4122,E,108.2,172.7,010126,,*35
$GNGGA,000011.50,3347.9226,S,15052.4086,E,4,18,0.6,30.0,M,46.9,M,,*5D
$GNRMC,000011.50,A,3347.9226,S,15052.4086,E,108.2,172.7,010126,,*3C
$GNGGA,000011.60,3347.9222,S,15052.4050,E,4,18,0.6,30.0,M,46.9,M,,*51
$GNRMC,000011.60,A,3347.9222,S,15052.4050,E,108.1,172.7,010126,,*33
$GNGGA,000011.70,3347.9219,S,15052.4014,E,4,18,0.6,30.0,M,46.9,M,,*58
$GNRMC,000011.70,A,3347.9219,S,15052.4014,E,108.1,172.7,010126,,*3A
$GNGGA,000011.80,3347.9215,S,15052.3979,E,4,18,0.6,30.0,M,46.9,M,,*5E
$GNRMC,000011.80,A,3347.9215,S,15052.3979,E,108.0,172.7,010126,,*3D
$GNGGA,000011.90,3347.9211,S,15052.3943,E,4,18,0.6,30.0,M,46.9,M,,*52
$GNRMC,000011.90,A,3347.9211,S,15052.3943,E,108.0,174.4,010126,,*34
$GNGGA,000012.00,3347.9208,S,15052.3907,E,4,18,0.6,30.0,M,46.9,M,,*50
$GNRMC,000012.00,A,3347.9208,S,15052.3907,E,108.0,174.4,010126,,*36
$GNGGA,000012.10,3347.9205,S,15052.3871,E,4,18,0.6,30.0,M,46.9,M,,*5C
$GNRMC,000012.10,A,3347.9205,S,15052.3871,E,107.9,174.4,010126,,*3C
$GNGGA,000012.20,3347.9202,S,15052.3835,E,4,18,0.6,30.0,M,46.9,M,,*58
$GNRMC,000012.20,A,3347.9202,S,15052.3835,E,107.9,174.4,010126,,*38
$GNGGA,000012.30,3347.9199,S,15052.3799,E,4,18,0.6,30.0,M,46.9,M,,*51
$GNRMC,000012.30,A,3347.9199,S,15052.3799,E,107.8,174.4,010126,,*30
$GNGGA,000012.40,3347.9197,S,15052.3763,E,4,18,0.6,30.0,M,46.9,M,,*5D
$GNRMC,000012.40,A,3347.9197,S,15052.3763,E,107.8,174.4,010126,,*3C
$GNGGA,000012.50,3347.9194,S,15052.3727,E,4,18,0.6,30.0,M,46.9,M,,*5F
$GNRMC,000012.50,A,3347.9194,S,15052.3727,E,107.8,174.4,010126,,*3E
$GNGGA,000012.60,3347.9191,S,15052.3692,E,4,18,0.6,30.0,M,46.9,M,,*56
$GNRMC,000012.60,A,3347.9191,S,15052.3692,E,107.7,174.4,010126,,*38
$GNGGA,000012.70,3347.9188,S,15052.3656,E,4,18,0.6,30.0,M,46.9,M,,*57
$GNRMC,000012.70,A,3347.9188,S,15052.3656,E,107.7,174.4,010126,,*39
$GNGGA,000012.80,3347.9185,S,15052.3620,E,4,18,0.6,30.0,M,46.9,M,,*54
$GNRMC,000012.80,A,3347.9185,S,15052.3620,E,107.6,174.4,010126,,*3B
$GNGGA,000012.90,3347.9182,S,15052.3584,E,4,18,0.6,30.0,M,46.9,M,,*5F
$GNRMC,000012.90,A,3347.9182,S,15052.3584,E,107.6,176.0,010126,,*36
$GNGGA,000013.00,3347.9180,S,15052.3548,E,4,18,0.6,30.0,M,46.9,M,,*55
$GNRMC,000013.00,A,3347.9180,S,15052.3548,E,107.5,176.0,010126,,*3F
$GNGGA,000013.10,3347.9178,S,15052.3513,E,4,18,0.6,30.0,M,46.9,M,,*5D
$GNRMC,000013.10,A,3347.9178,S,15052.3513,E,107.5,176.0,010126,,*37
$GNGGA,000013.20,3347.9176,S,15052.3477,E,4,18,0.6,30.0,M,46.9,M,,*53
$GNRMC,000013.20,A,3347.9176,S,15052.3477,E,107.4,176.0,010126,,*38
$GNGGA,000013.30,3347.9174,S,15052.3441,E,4,18,0.6,30.0,M,46.9,M,,*55
$GNRMC,000013.30,A,3347.9174,S,15052.3441,E,107.4,176.0,010126,,*3E
$GNGGA,000013.40,3347.9172,S,15052.3405,E,4,18,0.6,30.0,M,46.9,M,,*54
$GNRMC,000013.40,A,3347.9172,S,15052.3405,E,107.3,176.0,010126,,*38
$GNGGA,000013.50,3347.9170,S,15052.3369,E,4,18,0.6,30.0,M,46.9,M,,*5A
$GNRMC,000013.50,A,3347.9170,S,15052.3369,E,107.3,176.0,010126,,*36
$GNGGA,000013.60,3347.9168,S,15052.3334,E,4,18,0.6,30.0,M,46.9,M,,*58
$GNRMC,000013.60,A,3347.9168,S,15052.3334,E,107.3,176.0,010126,,*34
$GNGGA,000013.70,3347.9166,S,15052.3298,E,4,18,0.6,30.0,M,46.9,M,,*50
$GNRMC,000013.70,A,3347.9166,S,15052.3298,E,107.2,176.0,010126,,*3D
$GNGGA,000013.80,3347.9164,S,15052.3262,E,4,18,0.6,30.0,M,46.9,M,,*58
$GNRMC,000013.80,A,3347.9164,S,15052.3262,E,107.2,176.0,010126,,*35
$GNGGA,000013.90,3347.9162,S,15052.3226,E,4,18,0.6,30.0,M,46.9,M,,*5F
$GNRMC,000013.90,A,3347.9162,S,15052.3226,E,107.1,177.6,010126,,*36
$GNGGA,000014.00,3347.9161,S,15052.3191,E,4,18,0.6,30.0,M,46.9,M,,*5D
$GNRMC,000014.00,A,3347.9161,S,15052.3191,E,107.1,177.6,010126,,*34
$GNGGA,000014.10,3347.9160,S,15052.3155,E,4,18,0.6,30.0,M,46.9,M,,*55
$GNRMC,000014.10,A,3347.9160,S,15052.3155,E,107.0,177.6,010126,,*3D
$GNGGA,000014.20,3347.9159,S,15052.3119,E,4,18,0.6,30.0,M,46.9,M,,*54
$GNRMC,000014.20,A,3347.9159,S,15052.3119,E,107.0,177.6,010126,,*3C
$GNGGA,000014.30,3347.9157,S,15052.3083,E,4,18,0.6,30.0,M,46.9,M,,*59
$GNRMC,000014.30,A,3347.9157,S,15052.3083,E,106.9,177.6,010126,,*39
$GNGGA,000014.40,3347.9156,S,15052.3048,E,4,18,0.6,30.0,M,46.9,M,,*58
$GNRMC,000014.40,A,3347.9156,S,15052.3048,E,106.9,177.6,010126,,*38
$GNGGA,000014.50,3347.9155,S,15052.3012,E,4,18,0.6,30.0,M,46.9,M,,*55
$GNRMC,000014.50,A,3347.9155,S,15052.3012,E,106.8,177.6,010126,,*34
$GNGGA,000014.60,3347.9154,S,15052.2976,E,4,18,0.6,30.0,M,46.9,M,,*5D
$GNRMC,000014.60,A,3347.9154,S,15052.2976,E,106.8,177.6,010126,,*3C
$GNGGA,000014.70,3347.9152,S,15052.2941,E,4,18,0.6,30.0,M,46.9,M,,*5E
$GNRMC,000014.70,A,3347.9152,S,15052.2941,E,106.7,177.6,010126,,*30
$GNGGA,000014.80,3347.9151,S,15052.2905,E,4,18,0.6,30.0,M,46.9,M,,*52
$GNRMC,000014.80,A,3347.9151,S,15052.2905,E,106.7,177.6,010126,,*3C
$GNGGA,000014.90,3347.9151,S,15052.2870,E,4,18,0.6,30.0,M,46.9,M,,*50
$GNRMC,000014.90,A,3347.9151,S,15052.2870,E,106.6,179.2,010126,,*35
$GNGGA,000015.00,3347.9150,S,15052.2834,E,4,18,0.6,30.0,M,46.9,M,,*59
$GNRMC,000015.00,A,3347.9150,S,15052.2834,E,106.6,179.2,010126,,*3C
$GNGGA,000015.10,3347.9150,S,15052.2798,E,4,18,0.6,30.0,M,46.9,M,,*51
$GNRMC,000015.10,A,3347.9150,S,15052.2798,E,106.5,179.2,010126,,*37
$GNGGA,000015.20,3347.9149,S,15052.2763,E,4,18,0.6,30.0,M,46.9,M,,*5E
$GNRMC,000015.20,A,3347.9149,S,15052.2763,E,106.5,179.2,010126,,*38
$GNGGA,000015.30,3347.9149,S,15052.2727,E,4,18,0.6,30.0,M,46.9,M,,*5F
$GNRMC,000015.30,A,3347.9149,S,15052.2727,E,106.4,179.2,010126,,*38
$GNGGA,000015.40,3347.9148,S,15052.2692,E,4,18,0.6,30.0,M,46.9,M,,*56
$GNRMC,000015.40,A,3347.9148,S,15052.2692,E,106.4,179.2,010126,,*31
$GNGGA,000015.50,3347.9148,S,15052.2656,E,4,18,0.6,30.0,M,46.9,M,,*5F
$GNRMC,000015.50,A,3347.9148,S,15052.2656,E,106.3,179.2,010126,,*3F
$GNGGA,000015.60,3347.9148,S,15052.2621,E,4,18,0.6,30.0,M,46.9,M,,*5C
$GNRMC,000015.60,A,3347.9148,S,15052.2621,E,106.3,179.2,010126,,*3C
$GNGGA,000015.70,3347.9147,S,15052.2585,E,4,18,0.6,30.0,M,46.9,M,,*5F
$GNRMC,000015.70,A,3347.9147,S,15052.2585,E,106.2,179.2,010126,,*3E
$GNGGA,000015.80,3347.9147,S,15052.2550,E,4,18,0.6,30.0,M,46.9,M,,*58
$GNRMC,000015.80,A,3347.9147,S,15052.2550,E,106.1,179.2,010126,,*3A
$GNGGA,000015.90,3347.9147,S,15052.2514,E,4,18,0.6,30.0,M,46.9,M,,*59
$GNRMC,000015.90,A,3347.9147,S,15052.2514,E,106.1,180.8,010126,,*37
$GNGGA,000016.00,3347.9147,S,15052.2479,E,4,18,0.6,30.0,M,46.9,M,,*59
$GNRMC,000016.00,A,3347.9147,S,15052.2479,E,106.0,180.8,010126,,*36
$GNGGA,000016.10,3347.9148,S,15052.2443,E,4,18,0.6,30.0,M,46.9,M,,*5E
$GNRMC,000016.10,A,3347.9148,S,15052.2443,E,106.0,180.8,010126,,*31
$GNGGA,000016.20,3347.9148,S,15052.2408,E,4,18,0.6,30.0,M,46.9,M,,*52
$GNRMC,000016.20,A,3347.9148,S,15052.2408,E,105.9,180.8,010126,,*37
$GNGGA,000016.30,3347.9149,S,15052.2373,E,4,18,0.6,30.0,M,46.9,M,,*59
$GNRMC,000016.30,A,3347.9149,S,15052.2373,E,105.9,180.8,010126,,*3C
$GNGGA,000016.40,3347.9149,S,15052.2337,E,4,18,0.6,30.0,M,46.9,M,,*5E
$GNRMC,000016.40,A,3347.9149,S,15052.2337,E,105.8,180.8,010126,,*3A
$GNGGA,000016.50,3347.9149,S,15052.2302,E,4,18,0.6,30.0,M,46.9,M,,*59
$GNRMC,000016.50,A,3347.9149,S,15052.2302,E,105.8,180.8,010126,,*3D
$GNGGA,000016.60,3347.9150,S,15052.2267,E,4,18,0.6,30.0,M,46.9,M,,*50
$GNRMC,000016.60,A,3347.9150,S,15052.2267,E,105.7,180.8,010126,,*3B
$GNGGA,000016.70,3347.9150,S,15052.2231,E,4,18,0.6,30.0,M,46.9,M,,*52
$GNRMC,000016.70,A,3347.9150,S,15052.2231,E,105.7,180.8,010126,,*39
$GNGGA,000016.80,3347.9151,S,15052.2196,E,4,18,0.6,30.0,M,46.9,M,,*52
$GNRMC,000016.80,A,3347.9151,S,15052.2196,E,105.6,180.8,010126,,*38
$GNGGA,000016.90,3347.9152,S,15052.2161,E,4,18,0.6,30.0,M,46.9,M,,*58
$GNRMC,000016.90,A,3347.9152,S,15052.2161,E,105.6,182.4,010126,,*3C
$GNGGA,000017.00,3347.9153,S,15052.2125,E,4,18,0.6,30.0,M,46.9,M,,*51
$GNRMC,000017.00,A,3347.9153,S,15052.2125,E,105.5,182.4,010126,,*36
$GNGGA,000017.10,3347.9154,S,15052.2090,E,4,18,0.6,30.0,M,46.9,M,,*58
$GNRMC,000017.10,A,3347.9154,S,15052.2090,E,105.5,182.4,010126,,*3F
$GNGGA,000017.20,3347.9155,S,15052.2055,E,4,18,0.6,30.0,M,46.9,M,,*53
$GNRMC,000017.20,A,3347.9155,S,15052.2055,E,105.4,182.4,010126,,*35
$GNGGA,000017.30,3347.9156,S,15052.2020,E,4,18,0.6,30.0,M,46.9,M,,*53
$GNRMC,000017.30,A,3347.9156,S,15052.2020,E,105.4,182.4,010126,,*35
$GNGGA,000017.40,3347.9158,S,15052.1985,E,4,18,0.6,30.0,M,46.9,M,,*5F
$GNRMC,000017.40,A,3347.9158,S,15052.1985,E,105.3,182.4,010126,,*3E
$GNGGA,000017.50,3347.9159,S,15052.1949,E,4,18,0.6,30.0,M,46.9,M,,*5F
$GNRMC,000017.50,A,3347.9159,S,15052.1949,E,105.3,182.4,010126,,*3E
$GNGGA,000017.60,3347.9160,S,15052.1914,E,4,18,0.6,30.0,M,46.9,M,,*5E
$GNRMC,000017.60,A,3347.9160,S,15052.1914,E,105.2,182.4,010126,,*3E
$GNGGA,000017.70,3347.9161,S,15052.1879,E,4,18,0.6,30.0,M,46.9,M,,*54
$GNRMC,000017.70,A,3347.9161,S,15052.1879,E,105.2,182.4,010126,,*34
$GNGGA,000017.80,3347.9163,S,15052.1844,E,4,18,0.6,30.0,M,46.9,M,,*57
$GNRMC,000017.80,A,3347.9163,S,15052.1844,E,105.1,182.4,010126,,*34
$GNGGA,000017.90,3347.9164,S,15052.1809,E,4,18,0.6,30.0,M,46.9,M,,*58
$GNRMC,000017.90,A,3347.9164,S,15052.1809,E,105.1,184.0,010126,,*39
$GNGGA,000018.00,3347.9166,S,15052.1774,E,4,18,0.6,30.0,M,46.9,M,,*59
$GNRMC,000018.00,A,3347.9166,S,15052.1774,E,105.1,184.0,010126,,*38
$GNGGA,000018.10,3347.9168,S,15052.1739,E,4,18,0.6,30.0,M,46.9,M,,*5F
$GNRMC,000018.10,A,3347.9168,S,15052.1739,E,105.0,184.0,010126,,*3F
$GNGGA,000018.20,3347.9170,S,15052.1704,E,4,18,0.6,30.0,M,46.9,M,,*5B
$GNRMC,000018.20,A,3347.9170,S,15052.1704,E,105.0,184.0,010126,,*3B
$GNGGA,000018.30,3347.9172,S,15052.1669,E,4,18,0.6,30.0,M,46.9,M,,*52
$GNRMC,000018.30,A,3347.9172,S,15052.1669,E,104.9,184.0,010126,,*3A
$GNGGA,000018.40,3347.9174,S,15052.1634,E,4,18,0.6,30.0,M,46.9,M,,*5B
$GNRMC,000018.40,A,3347.9174,S,15052.1634,E,104.9,184.0,010126,,*33
$GNGGA,000018.50,3347.9176,S,15052.1599,E,4,18,0.6,30.0,M,46.9,M,,*5C
$GNRMC,000018.50,A,3347.9176,S,15052.1599,E,104.8,184.0,010126,,*35
$GNGGA,000018.60,3347.9178,S,15052.1564,E,4,18,0.6,30.0,M,46.9,M,,*53
$GNRMC,000018.60,A,3347.9178,S,15052.1564,E,104.8,184.0,010126,,*3A
$GNGGA,000018.70,3347.9180,S,15052.1529,E,4,18,0.6,30.0,M,46.9,M,,*5C
$GNRMC,000018.70,A,3347.9180,S,15052.1529,E,104.7,184.0,010126,,*3A
$GNGGA,000018.80,3347.9182,S,15052.1494,E,4,18,0.6,30.0,M,46.9,M,,*56
$GNRMC,000018.80,A,3347.9182,S,15052.1494,E,104.7,184.0,010126,,*30
$GNGGA,000018.90,3347.9185,S,15052.1460,E,4,18,0.6,30.0,M,46.9,M,,*5B
$GNRMC,000018.90,A,3347.9185,S,15052.1460,E,104.6,185.6,010126,,*3B
$GNGGA,000019.00,3347.9188,S,15052.1425,E,4,18,0.6,30.0,M,46.9,M,,*5F
$GNRMC,000019.00,A,3347.9188,S,15052.1425,E,104.6,185.6,010126,,*3F
$GNGGA,000019.10,3347.9191,S,15052.1390,E,4,18,0.6,30.0,M,46.9,M,,*5F
$GNRMC,000019.10,A,3347.9191,S,15052.1390,E,104.6,185.6,010126,,*3F
$GNGGA,000019.20,3347.9193,S,15052.1355,E,4,18,0.6,30.0,M,46.9,M,,*57
$GNRMC,000019.20,A,3347.9193,S,15052.1355,E,104.5,185.6,010126,,*34
$GNGGA,000019.30,3347.9196,S,15052.1320,E,4,18,0.6,30.0,M,46.9,M,,*51
$GNRMC,000019.30,A,3347.9196,S,15052.1320,E,104.5,185.6,010126,,*32
$GNGGA,000019.40,3347.9199,S,15052.1286,E,4,18,0.6,30.0,M,46.9,M,,*54
$GNRMC,000019.40,A,3347.9199,S,15052.1286,E,104.4,185.6,010126,,*36
$GNGGA,000019.50,3347.9202,S,15052.1251,E,4,18,0.6,30.0,M,46.9,M,,*5E
$GNRMC,000019.50,A,3347.9202,S,15052.1251,E,104.4,185.6,010126,,*3C
$GNGGA,000019.60,3347.9205,S,15052.1216,E,4,18,0.6,30.0,M,46.9,M,,*59
$GNRMC,000019.60,A,3347.9205,S,15052.1216,E,104.3,185.6,010126,,*3C
$GNGGA,000019.70,3347.9208,S,15052.1182,E,4,18,0.6,30.0,M,46.9,M,,*5B
$GNRMC,000019.70,A,3347.9208,S,15052.1182,E,104.3,185.6,010126,,*3E
$GNGGA,000019.80,3347.9210,S,15052.1147,E,4,18,0.6,30.0,M,46.9,M,,*54
$GNRMC,000019.80,A,3347.9210,S,15052.1147,E,104.3,185.6,010126,,*31
$GNGGA,000019.90,3347.9214,S,15052.1112,E,4,18,0.6,30.0,M,46.9,M,,*51
$GNRMC,000019.90,A,3347.9214,S,15052.1112,E,104.2,187.3,010126,,*32
$GNGGA,000020.00,3347.9217,S,15052.1078,E,4,18,0.6,30.0,M,46.9,M,,*5C
$GNRMC,000020.00,A,3347.9217,S,15052.1078,E,104.2,187.3,010126,,*3F
$GNGGA,000020.10,3347.9221,S,15052.1043,E,4,18,0.6,30.0,M,46.9,M,,*50
$GNRMC,000020.10,A,3347.9221,S,15052.1043,E,104.2,187.3,010126,,*33
$GNGGA,000020.20,3347.9225,S,15052.1009,E,4,18,0.6,30.0,M,46.9,M,,*59
$GNRMC,000020.20,A,3347.9225,S,15052.1009,E,104.1,187.3,010126,,*39
$GNGGA,000020.30,3347.9228,S,15052.0974,E,4,18,0.6,30.0,M,46.9,M,,*57
$GNRMC,000020.30,A,3347.9228,S,15052.0974,E,104.1,187.3,010126,,*37
$GNGGA,000020.40,3347.9232,S,15052.0940,E,4,18,0.6,30.0,M,46.9,M,,*5C
$GNRMC,000020.40,A,3347.9232,S,15052.0940,E,104.0,187.3,010126,,*3D
$GNGGA,000020.50,3347.9236,S,15052.0905,E,4,18,0.6,30.0,M,46.9,M,,*58
$GNRMC,000020.50,A,3347.9236,S,15052.0905,E,104.0,187.3,010126,,*39
$GNGGA,000020.60,3347.9239,S,15052.0871,E,4,18,0.6,30.0,M,46.9,M,,*56
$GNRMC,000020.60,A,3347.9239,S,15052.0871,E,104.0,187.3,010126,,*37
$GNGGA,000020.70,3347.9243,S,15052.0836,E,4,18,0.6,30.0,M,46.9,M,,*59
$GNRMC,000020.70,A,3347.9243,S,15052.0836,E,103.9,187.3,010126,,*36
$GNGGA,000020.80,3347.9247,S,15052.0802,E,4,18,0.6,30.0,M,46.9,M,,*55
$GNRMC,000020.80,A,3347.9247,S,15052.0802,E,103.9,187.3,010126,,*3A
$GNGGA,000020.90,3347.9251,S,15052.0768,E,4,18,0.6,30.0,M,46.9,M,,*50
$GNRMC,000020.90,A,3347.9251,S,15052.0768,E,103.9,189.0,010126,,*32
$GNGGA,000021.00,3347.9255,S,15052.0733,E,4,18,0.6,30.0,M,46.9,M,,*52
$GNRMC,000021.00,A,3347.9255,S,15052.0733,E,103.8,189.0,010126,,*31
$GNGGA,000021.10,3347.9260,S,15052.0699,E,4,18,0.6,30.0,M,46.9,M,,*54
$GNRMC,000021.10,A,3347.9260,S,15052.0699,E,103.8,189.0,010126,,*37
$GNGGA,000021.20,3347.9264,S,15052.0665,E,4,18,0.6,30.0,M,46.9,M,,*50
$GNRMC,000021.20,A,3347.9264,S,15052.0665,E,103.8,189.0,010126,,*33
$GNGGA,000021.30,3347.9269,S,15052.0631,E,4,18,0.6,30.0,M,46.9,M,,*5D
$GNRMC,000021.30,A,3347.9269,S,15052.0631,E,103.8,189.0,010126,,*3E
$GNGGA,000021.40,3347.9273,S,15052.0596,E,4,18,0.6,30.0,M,46.9,M,,*5F
$GNRMC,000021.40,A,3347.9273,S,15052.0596,E,103.7,189.0,010126,,*33
$GNGGA,000021.50,3347.9278,S,15052.0562,E,4,18,0.6,30.0,M,46.9,M,,*5E
$GNRMC,000021.50,A,3347.9278,S,15052.0562,E,103.7,189.0,010126,,*32
$GNGGA,000021.60,3347.9282,S,15052.0528,E,4,18,0.6,30.0,M,46.9,M,,*56
$GNRMC,000021.60,A,3347.9282,S,15052.0528,E,103.7,189.0,010126,,*3A
$GNGGA,000021.70,3347.9287,S,15052.0494,E,4,18,0.6,30.0,M,46.9,M,,*54
$GNRMC,000021.70,A,3347.9287,S,15052.0494,E,103.6,189.0,010126,,*39
$GNGGA,000021.80,3347.9291,S,15052.0460,E,4,18,0.6,30.0,M,46.9,M,,*57
$GNRMC,000021.80,A,3347.9291,S,15052.0460,E,103.6,189.0,010126,,*3A
$GNGGA,000021.90,3347.9297,S,15052.0426,E,4,18,0.6,30.0,M,46.9,M,,*52
$GNRMC,000021.90,A,3347.9297,S,15052.0426,E,103.6,190.8,010126,,*3F
$GNGGA,000022.00,3347.9302,S,15052.0392,E,4,18,0.6,30.0,M,46.9,M,,*5D
$GNRMC,000022.00,A,3347.9302,S,15052.0392,E,103.6,190.8,010126,,*30
$GNGGA,000022.10,3347.9308,S,15052.0358,E,4,18,0.6,30.0,M,46.9,M,,*50
$GNRMC,000022.10,A,3347.9308,S,15052.0358,E,103.5,190.8,010126,,*3E
$GNGGA,000022.20,3347.9313,S,15052.0324,E,4,18,0.6,30.0,M,46.9,M,,*52
$GNRMC,000022.20,A,3347.9313,S,15052.0324,E,103.5,190.8,010126,,*3C
$GNGGA,000022.30,3347.9318,S,15052.0290,E,4,18,0.6,30.0,M,46.9,M,,*56
$GNRMC,000022.30,A,3347.9318,S,15052.0290,E,103.5,190.8,010126,,*38
$GNGGA,000022.40,3347.9324,S,15052.0256,E,4,18,0.6,30.0,M,46.9,M,,*54
$GNRMC,000022.40,A,3347.9324,S,15052.0256,E,103.5,190.8,010126,,*3A
$GNGGA,000022.50,3347.9329,S,15052.0222,E,4,18,0.6,30.0,M,46.9,M,,*5B
$GNRMC,000022.50,A,3347.9329,S,15052.0222,E,103.5,190.8,010126,,*35
$GNGGA,000022.60,3347.9335,S,15052.0188,E,4,18,0.6,30.0,M,46.9,M,,*56
$GNRMC,000022.60,A,3347.9335,S,15052.0188,E,103.4,190.8,010126,,*39
$GNGGA,000022.70,3347.9340,S,15052.0154,E,4,18,0.6,30.0,M,46.9,M,,*54
$GNRMC,000022.70,A,3347.9340,S,15052.0154,E,103.4,190.8,010126,,*3B
$GNGGA,000022.80,3347.9346,S,15052.0120,E,4,18,0.6,30.0,M,46.9,M,,*5E
$GNRMC,000022.80,A,3347.9346,S,15052.0120,E,103.4,192.7,010126,,*3C
$GNGGA,000022.90,3347.9352,S,15052.0086,E,4,18,0.6,30.0,M,46.9,M,,*57
$GNRMC,000022.90,A,3347.9352,S,15052.0086,E,103.4,192.7,010126,,*35
$GNGGA,000023.00,3347.9358,S,15052.0053,E,4,18,0.6,30.0,M,46.9,M,,*5D
$GNRMC,000023.00,A,3347.9358,S,15052.0053,E,103.4,192.7,010126,,*3F
$GNGGA,000023.10,3347.9365,S,15052.0019,E,4,18,0.6,30.0,M,46.9,M,,*5C
$GNRMC,000023.10,A,3347.9365,S,15052.0019,E,103.4,192.7,010126,,*3E
$GNGGA,000023.20,3347.9371,S,15051.9985,E,4,18,0.6,30.0,M,46.9,M,,*5C
$GNRMC,000023.20,A,3347.9371,S,15051.9985,E,103.3,192.7,010126,,*39
$GNGGA,000023.30,3347.9377,S,15051.9951,E,4,18,0.6,30.0,M,46.9,M,,*52
$GNRMC,000023.30,A,3347.9377,S,15051.9951,E,103.3,192.7,010126,,*37
$GNGGA,000023.40,3347.9383,S,15051.9918,E,4,18,0.6,30.0,M,46.9,M,,*53
$GNRMC,000023.40,A,3347.9383,S,15051.9918,E,103.3,192.7,010126,,*36
$GNGGA,000023.50,3347.9390,S,15051.9884,E,4,18,0.6,30.0,M,46.9,M,,*54
$GNRMC,000023.50,A,3347.9390,S,15051.9884,E,103.3,192.7,010126,,*31
$GNGGA,000023.60,3347.9396,S,15051.9850,E,4,18,0.6,30.0,M,46.9,M,,*58
$GNRMC,000023.60,A,3347.9396,S,15051.9850,E,103.3,192.7,010126,,*3D
$GNGGA,000023.70,3347.9402,S,15051.9817,E,4,18,0.6,30.0,M,46.9,M,,*50
$GNRMC,000023.70,A,3347.9402,S,15051.9817,E,103.3,194.7,010126,,*33
$GNGGA,000023.80,3347.9410,S,15051.9783,E,4,18,0.6,30.0,M,46.9,M,,*5E
$GNRMC,000023.80,A,3347.9410,S,15051.9783,E,103.3,194.7,010126,,*3D
$GNGGA,000023.90,3347.9417,S,15051.9750,E,4,18,0.6,30.0,M,46.9,M,,*56
$GNRMC,000023.90,A,3347.9417,S,15051.9750,E,103.3,194.7,010126,,*35
$GNGGA,000024.00,3347.9424,S,15051.9717,E,4,18,0.6,30.0,M,46.9,M,,*5B
$GNRMC,000024.00,A,3347.9424,S,15051.9717,E,103.3,194.7,010126,,*38
$GNGGA,000024.10,3347.9432,S,15051.9683,E,4,18,0.6,30.0,M,46.9,M,,*51
$GNRMC,000024.10,A,3347.9432,S,15051.9683,E,103.2,194.7,010126,,*33
$GNGGA,000024.20,3347.9439,S,15051.9650,E,4,18,0.6,30.0,M,46.9,M,,*57
$GNRMC,000024.20,A,3347.9439,S,15051.9650,E,103.2,194.7,010126,,*35
$GNGGA,000024.30,3347.9446,S,15051.9617,E,4,18,0.6,30.0,M,46.9,M,,*5D
$GNRMC,000024.30,A,3347.9446,S,15051.9617,E,103.2,194.7,010126,,*3F
$GNGGA,000024.40,3347.9453,S,15051.9583,E,4,18,0.6,30.0,M,46.9,M,,*50
$GNRMC,000024.40,A,3347.9453,S,15051.9583,E,103.2,194.7,010126,,*32
$GNGGA,000024.50,3347.9461,S,15051.9550,E,4,18,0.6,30.0,M,46.9,M,,*5E
$GNRMC,000024.50,A,3347.9461,S,15051.9550,E,103.2,194.7,010126,,*3C
$GNGGA,000024.60,3347.9468,S,15051.9517,E,4,18,0.6,30.0,M,46.9,M,,*57
$GNRMC,000024.60,A,3347.9468,S,15051.9517,E,103.2,196.8,010126,,*38
$GNGGA,000024.70,3347.9476,S,15051.9484,E,4,18,0.6,30.0,M,46.9,M,,*52
$GNRMC,000024.70,A,3347.9476,S,15051.9484,E,103.2,196.8,010126,,*3D
$GNGGA,000024.80,3347.9484,S,15051.9451,E,4,18,0.6,30.0,M,46.9,M,,*58
$GNRMC,000024.80,A,3347.9484,S,15051.9451,E,103.2,196.8,010126,,*37
$GNGGA,000024.90,3347.9493,S,15051.9418,E,4,18,0.6,30.0,M,46.9,M,,*52
$GNRMC,000024.90,A,3347.9493,S,15051.9418,E,103.2,196.8,010126,,*3D
$GNGGA,000025.00,3347.9501,S,15051.9385,E,4,18,0.6,30.0,M,46.9,M,,*53
$GNRMC,000025.00,A,3347.9501,S,15051.9385,E,103.2,196.8,010126,,*3C
$GNGGA,000025.10,3347.9509,S,15051.9352,E,4,18,0.6,30.0,M,46.9,M,,*50
$GNRMC,000025.10,A,3347.9509,S,15051.9352,E,103.2,196.8,010126,,*3F
$GNGGA,000025.20,3347.9518,S,15051.9318,E,4,18,0.6,30.0,M,46.9,M,,*5D
$GNRMC,000025.20,A,3347.9518,S,15051.9318,E,103.2,196.8,010126,,*32
$GNGGA,000025.30,3347.9526,S,15051.9285,E,4,18,0.6,30.0,M,46.9,M,,*54
$GNRMC,000025.30,A,3347.9526,S,15051.9285,E,103.2,196.8,010126,,*3B
$GNGGA,000025.40,3347.9534,S,15051.9252,E,4,18,0.6,30.0,M,46.9,M,,*5A
$GNRMC,000025.40,A,3347.9534,S,15051.9252,E,103.2,196.8,010126,,*35
$GNGGA,000025.50,3347.9543,S,15051.9220,E,4,18,0.6,30.0,M,46.9,M,,*5E
$GNRMC,000025.50,A,3347.9543,S,15051.9220,E,103.2,199.1,010126,,*37
$GNGGA,000025.60,3347.9552,S,15051.9187,E,4,18,0.6,30.0,M,46.9,M,,*53
$GNRMC,000025.60,A,3347.9552,S,15051.9187,E,103.2,199.1,010126,,*3A
$GNGGA,000025.70,3347.9561,S,15051.9154,E,4,18,0.6,30.0,M,46.9,M,,*5C
$GNRMC,000025.70,A,3347.9561,S,15051.9154,E,103.2,199.1,010126,,*35
$GNGGA,000025.80,3347.9571,S,15051.9122,E,4,18,0.6,30.0,M,46.9,M,,*53
$GNRMC,000025.80,A,3347.9571,S,15051.9122,E,103.3,199.1,010126,,*3B
$GNGGA,000025.90,3347.9580,S,15051.9089,E,4,18,0.6,30.0,M,46.9,M,,*5C
$GNRMC,000025.90,A,3347.9580,S,15051.9089,E,103.3,199.1,010126,,*34
$GNGGA,000026.00,3347.9589,S,15051.9057,E,4,18,0.6,30.0,M,46.9,M,,*5C
$GNRMC,000026.00,A,3347.9589,S,15051.9057,E,103.3,199.1,010126,,*34
$GNGGA,000026.10,3347.9599,S,15051.9024,E,4,18,0.6,30.0,M,46.9,M,,*58
$GNRMC,000026.10,A,3347.9599,S,15051.9024,E,103.3,199.1,010126,,*30
$GNGGA,000026.20,3347.9608,S,15051.8991,E,4,18,0.6,30.0,M,46.9,M,,*56
$GNRMC,000026.20,A,3347.9608,S,15051.8991,E,103.3,199.1,010126,,*3E
$GNGGA,000026.30,3347.9618,S,15051.8959,E,4,18,0.6,30.0,M,46.9,M,,*52
$GNRMC,000026.30,A,3347.9618,S,15051.8959,E,103.3,199.1,010126,,*3A
$GNGGA,000026.40,3347.9628,S,15051.8927,E,4,18,0.6,30.0,M,46.9,M,,*5F
$GNRMC,000026.40,A,3347.9628,S,15051.8927,E,103.3,201.5,010126,,*31
$GNGGA,000026.50,3347.9638,S,15051.8894,E,4,18,0.6,30.0,M,46.9,M,,*56
$GNRMC,000026.50,A,3347.9638,S,15051.8894,E,103.3,201.5,010126,,*38
$GNGGA,000026.60,3347.9649,S,15051.8862,E,4,18,0.6,30.0,M,46.9,M,,*5A
$GNRMC,000026.60,A,3347.9649,S,15051.8862,E,103.3,201.5,010126,,*34
$GNGGA,000026.70,3347.9659,S,15051.8830,E,4,18,0.6,30.0,M,46.9,M,,*5D
$GNRMC,000026.70,A,3347.9659,S,15051.8830,E,103.4,201.5,010126,,*34
$GNGGA,000026.80,3347.9670,S,15051.8798,E,4,18,0.6,30.0,M,46.9,M,,*54
$GNRMC,000026.80,A,3347.9670,S,15051.8798,E,103.4,201.5,010126,,*3D
$GNGGA,000026.90,3347.9680,S,15051.8766,E,4,18,0.6,30.0,M,46.9,M,,*5B
$GNRMC,000026.90,A,3347.9680,S,15051.8766,E,103.4,201.5,010126,,*32
$GNGGA,000027.00,3347.9691,S,15051.8734,E,4,18,0.6,30.0,M,46.9,M,,*54
$GNRMC,000027.00,A,3347.9691,S,15051.8734,E,103.4,201.5,010126,,*3D
$GNGGA,000027.10,3347.9702,S,15051.8702,E,4,18,0.6,30.0,M,46.9,M,,*5B
$GNRMC,000027.10,A,3347.9702,S,15051.8702,E,103.4,201.5,010126,,*32
$GNGGA,000027.20,3347.9713,S,15051.8670,E,4,18,0.6,30.0,M,46.9,M,,*5C
$GNRMC,000027.20,A,3347.9713,S,15051.8670,E,103.4,204.2,010126,,*37
$GNGGA,000027.30,3347.9725,S,15051.8639,E,4,18,0.6,30.0,M,46.9,M,,*55
$GNRMC,000027.30,A,3347.9725,S,15051.8639,E,103.5,204.2,010126,,*3F
$GNGGA,000027.40,3347.9737,S,15051.8607,E,4,18,0.6,30.0,M,46.9,M,,*5C
$GNRMC,000027.40,A,3347.9737,S,15051.8607,E,103.5,204.2,010126,,*36
$GNGGA,000027.50,3347.9748,S,15051.8575,E,4,18,0.6,30.0,M,46.9,M,,*53
$GNRMC,000027.50,A,3347.9748,S,15051.8575,E,103.5,204.2,010126,,*39
$GNGGA,000027.60,3347.9760,S,15051.8544,E,4,18,0.6,30.0,M,46.9,M,,*58
$GNRMC,000027.60,A,3347.9760,S,15051.8544,E,103.5,204.2,010126,,*32
$GNGGA,000027.70,3347.9772,S,15051.8512,E,4,18,0.6,30.0,M,46.9,M,,*59
$GNRMC,000027.70,A,3347.9772,S,15051.8512,E,103.5,204.2,010126,,*33
$GNGGA,000027.80,3347.9784,S,15051.8481,E,4,18,0.6,30.0,M,46.9,M,,*54
$GNRMC,000027.80,A,3347.9784,S,15051.8481,E,103.6,204.2,010126,,*3D
$GNGGA,000027.90,3347.9796,S,15051.8449,E,4,18,0.6,30.0,M,46.9,M,,*52
$GNRMC,000027.90,A,3347.9796,S,15051.8449,E,103.6,207.2,010126,,*38
$GNGGA,000028.00,3347.9809,S,15051.8419,E,4,18,0.6,30.0,M,46.9,M,,*58
$GNRMC,000028.00,A,3347.9809,S,15051.8419,E,103.6,207.2,010126,,*32
$GNGGA,000028.10,3347.9822,S,15051.8388,E,4,18,0.6,30.0,M,46.9,M,,*5F
$GNRMC,000028.10,A,3347.9822,S,15051.8388,E,103.6,207.2,010126,,*35
$GNGGA,000028.20,3347.9835,S,15051.8357,E,4,18,0.6,30.0,M,46.9,M,,*58
$GNRMC,000028.20,A,3347.9835,S,15051.8357,E,103.7,207.2,010126,,*33
$GNGGA,000028.30,3347.9848,S,15051.8326,E,4,18,0.6,30.0,M,46.9,M,,*55
$GNRMC,000028.30,A,3347.9848,S,15051.8326,E,103.7,207.2,010126,,*3E
$GNGGA,000028.40,3347.9861,S,15051.8295,E,4,18,0.6,30.0,M,46.9,M,,*50
$GNRMC,000028.40,A,3347.9861,S,15051.8295,E,103.7,207.2,010126,,*3B
$GNGGA,000028.50,3347.9874,S,15051.8264,E,4,18,0.6,30.0,M,46.9,M,,*5B
$GNRMC,000028.50,A,3347.9874,S,15051.8264,E,103.8,207.2,010126,,*3F
$GNGGA,000028.60,3347.9887,S,15051.8234,E,4,18,0.6,30.0,M,46.9,M,,*51
$GNRMC,000028.60,A,3347.9887,S,15051.8234,E,103.8,207.2,010126,,*35
$GNGGA,000028.70,3347.9902,S,15051.8203,E,4,18,0.6,30.0,M,46.9,M,,*58
$GNRMC,000028.70,A,3347.9902,S,15051.8203,E,103.8,210.4,010126,,*3C
$GNGGA,000028.80,3347.9916,S,15051.8174,E,4,18,0.6,30.0,M,46.9,M,,*51
$GNRMC,000028.80,A,3347.9916,S,15051.8174,E,103.8,210.4,010126,,*35
$GNGGA,000028.90,3347.9931,S,15051.8144,E,4,18,0.6,30.0,M,46.9,M,,*56
$GNRMC,000028.90,A,3347.9931,S,15051.8144,E,103.9,210.4,010126,,*33
$GNGGA,000029.00,3347.9945,S,15051.8114,E,4,18,0.6,30.0,M,46.9,M,,*58
$GNRMC,000029.00,A,3347.9945,S,15051.8114,E,103.9,210.4,010126,,*3D
$GNGGA,000029.10,3347.9960,S,15051.8084,E,4,18,0.6,30.0,M,46.9,M,,*56
$GNRMC,000029.10,A,3347.9960,S,15051.8084,E,103.9,210.4,010126,,*33
$GNGGA,000029.20,3347.9975,S,15051.8054,E,4,18,0.6,30.0,M,46.9,M,,*5C
$GNRMC,000029.20,A,3347.9975,S,15051.8054,E,104.0,210.4,010126,,*37
$GNGGA,000029.30,3347.9989,S,15051.8024,E,4,18,0.6,30.0,M,46.9,M,,*59
$GNRMC,000029.30,A,3347.9989,S,15051.8024,E,104.0,210.4,010126,,*32
$GNGGA,000029.40,3348.0005,S,15051.7995,E,4,18,0.6,30.0,M,46.9,M,,*59
$GNRMC,000029.40,A,3348.0005,S,15051.7995,E,104.0,214.1,010126,,*33
$GNGGA,000029.50,3348.0021,S,15051.7966,E,4,18,0.6,30.0,M,46.9,M,,*52
$GNRMC,000029.50,A,3348.0021,S,15051.7966,E,104.1,214.1,010126,,*39
$GNGGA,000029.60,3348.0038,S,15051.7937,E,4,18,0.6,30.0,M,46.9,M,,*5D
$GNRMC,000029.60,A,3348.0038,S,15051.7937,E,104.1,214.1,010126,,*36
$GNGGA,000029.70,3348.0054,S,15051.7909,E,4,18,0.6,30.0,M,46.9,M,,*5B
$GNRMC,000029.70,A,3348.0054,S,15051.7909,E,104.2,214.1,010126,,*33
$GNGGA,000029.80,3348.0070,S,15051.7880,E,4,18,0.6,30.0,M,46.9,M,,*52
$GNRMC,000029.80,A,3348.0070,S,15051.7880,E,104.2,214.1,010126,,*3A
$GNGGA,000029.90,3348.0086,S,15051.7851,E,4,18,0.6,30.0,M,46.9,M,,*56
$GNRMC,000029.90,A,3348.0086,S,15051.7851,E,104.2,214.1,010126,,*3E
$GNGGA,000030.00,3348.0103,S,15051.7822,E,4,18,0.6,30.0,M,46.9,M,,*5F
$GNRMC,000030.00,A,3348.0103,S,15051.7822,E,104.3,218.2,010126,,*39
$GNGGA,000030.10,3348.0121,S,15051.7795,E,4,18,0.6,30.0,M,46.9,M,,*5D
$GNRMC,000030.10,A,3348.0121,S,15051.7795,E,104.3,218.2,010126,,*3B
$GNGGA,000030.20,3348.0139,S,15051.7768,E,4,18,0.6,30.0,M,46.9,M,,*55
$GNRMC,000030.20,A,3348.0139,S,15051.7768,E,104.3,218.2,010126,,*33
$GNGGA,000030.30,3348.0157,S,15051.7740,E,4,18,0.6,30.0,M,46.9,M,,*56
$GNRMC,000030.30,A,3348.0157,S,15051.7740,E,104.4,218.2,010126,,*37
$GNGGA,000030.40,3348.0174,S,15051.7713,E,4,18,0.6,30.0,M,46.9,M,,*56
$GNRMC,000030.40,A,3348.0174,S,15051.7713,E,104.4,218.2,010126,,*37
$GNGGA,000030.50,3348.0192,S,15051.7685,E,4,18,0.6,30.0,M,46.9,M,,*51
$GNRMC,000030.50,A,3348.0192,S,15051.7685,E,104.5,218.2,010126,,*31
$GNGGA,000030.60,3348.0211,S,15051.7658,E,4,18,0.6,30.0,M,46.9,M,,*5A
$GNRMC,000030.60,A,3348.0211,S,15051.7658,E,104.5,222.9,010126,,*38
$GNGGA,000030.70,3348.0230,S,15051.7633,E,4,18,0.6,30.0,M,46.9,M,,*55
$GNRMC,000030.70,A,3348.0230,S,15051.7633,E,104.6,222.9,010126,,*34
$GNGGA,000030.80,3348.0250,S,15051.7607,E,4,18,0.6,30.0,M,46.9,M,,*5B
$GNRMC,000030.80,A,3348.0250,S,15051.7607,E,104.6,222.9,010126,,*3A
$GNGGA,000030.90,3348.0270,S,15051.7582,E,4,18,0.6,30.0,M,46.9,M,,*56
$GNRMC,000030.90,A,3348.0270,S,15051.7582,E,104.6,222.9,010126,,*37
$GNGGA,000031.00,3348.0290,S,15051.7556,E,4,18,0.6,30.0,M,46.9,M,,*59
$GNRMC,000031.00,A,3348.0290,S,15051.7556,E,104.7,222.9,010126,,*39
$GNGGA,000031.10,3348.0309,S,15051.7530,E,4,18,0.6,30.0,M,46.9,M,,*59
$GNRMC,000031.10,A,3348.0309,S,15051.7530,E,104.7,222.9,010126,,*39
$GNGGA,000031.20,3348.0330,S,15051.7506,E,4,18,0.6,30.0,M,46.9,M,,*55
$GNRMC,000031.20,A,3348.0330,S,15051.7506,E,104.8,228.2,010126,,*3B
$GNGGA,000031.30,3348.0352,S,15051.7482,E,4,18,0.6,30.0,M,46.9,M,,*5D
$GNRMC,000031.30,A,3348.0352,S,15051.7482,E,104.8,228.2,010126,,*33
$GNGGA,000031.40,3348.0373,S,15051.7459,E,4,18,0.6,30.0,M,46.9,M,,*5F
$GNRMC,000031.40,A,3348.0373,S,15051.7459,E,104.9,228.2,010126,,*30
$GNGGA,000031.50,3348.0395,S,15051.7436,E,4,18,0.6,30.0,M,46.9,M,,*5F
$GNRMC,000031.50,A,3348.0395,S,15051.7436,E,104.9,228.2,010126,,*30
$GNGGA,000031.60,3348.0417,S,15051.7412,E,4,18,0.6,30.0,M,46.9,M,,*57
$GNRMC,000031.60,A,3348.0417,S,15051.7412,E,105.0,228.2,010126,,*30
$GNGGA,000031.70,3348.0438,S,15051.7389,E,4,18,0.6,30.0,M,46.9,M,,*5E
$GNRMC,000031.70,A,3348.0438,S,15051.7389,E,105.0,234.2,010126,,*34
$GNGGA,000031.80,3348.0462,S,15051.7368,E,4,18,0.6,30.0,M,46.9,M,,*51
$GNRMC,000031.80,A,3348.0462,S,15051.7368,E,105.0,234.2,010126,,*3B
$GNGGA,000031.90,3348.0486,S,15051.7348,E,4,18,0.6,30.0,M,46.9,M,,*58
$GNRMC,000031.90,A,3348.0486,S,15051.7348,E,105.1,234.2,010126,,*33
$GNGGA,000032.00,3348.0509,S,15051.7327,E,4,18,0.6,30.0,M,46.9,M,,*5D
$GNRMC,000032.00,A,3348.0509,S,15051.7327,E,105.1,234.2,010126,,*36
$GNGGA,000032.10,3348.0533,S,15051.7307,E,4,18,0.6,30.0,M,46.9,M,,*57
$GNRMC,000032.10,A,3348.0533,S,15051.7307,E,105.2,234.2,010126,,*3F
$GNGGA,000032.20,3348.0557,S,15051.7286,E,4,18,0.6,30.0,M,46.9,M,,*5E
$GNRMC,000032.20,A,3348.0557,S,15051.7286,E,105.2,234.2,010126,,*36
$GNGGA,000032.30,3348.0582,S,15051.7269,E,4,18,0.6,30.0,M,46.9,M,,*56
$GNRMC,000032.30,A,3348.0582,S,15051.7269,E,105.3,241.0,010126,,*3F
$GNGGA,000032.40,3348.0608,S,15051.7252,E,4,18,0.6,30.0,M,46.9,M,,*58
$GNRMC,000032.40,A,3348.0608,S,15051.7252,E,105.3,241.0,010126,,*31
$GNGGA,000032.50,3348.0633,S,15051.7235,E,4,18,0.6,30.0,M,46.9,M,,*50
$GNRMC,000032.50,A,3348.0633,S,15051.7235,E,105.4,241.0,010126,,*3E
$GNGGA,000032.60,3348.0659,S,15051.7218,E,4,18,0.6,30.0,M,46.9,M,,*50
$GNRMC,000032.60,A,3348.0659,S,15051.7218,E,105.4,241.0,010126,,*3E
$GNGGA,000032.70,3348.0685,S,15051.7202,E,4,18,0.6,30.0,M,46.9,M,,*5B
$GNRMC,000032.70,A,3348.0685,S,15051.7202,E,105.5,248.6,010126,,*3B
$GNGGA,000032.80,3348.0712,S,15051.7189,E,4,18,0.6,30.0,M,46.9,M,,*5B
$GNRMC,000032.80,A,3348.0712,S,15051.7189,E,105.5,248.6,010126,,*3B
$GNGGA,000032.90,3348.0740,S,15051.7176,E,4,18,0.6,30.0,M,46.9,M,,*5D
$GNRMC,000032.90,A,3348.0740,S,15051.7176,E,105.6,248.6,010126,,*3E
$GNGGA,000033.00,3348.0767,S,15051.7163,E,4,18,0.6,30.0,M,46.9,M,,*54
$GNRMC,000033.00,A,3348.0767,S,15051.7163,E,105.6,248.6,010126,,*37
$GNGGA,000033.10,3348.0794,S,15051.7150,E,4,18,0.6,30.0,M,46.9,M,,*59
$GNRMC,000033.10,A,3348.0794,S,15051.7150,E,105.7,248.6,010126,,*3B
$GNGGA,000033.20,3348.0822,S,15051.7141,E,4,18,0.6,30.0,M,46.9,M,,*58
$GNRMC,000033.20,A,3348.0822,S,15051.7141,E,105.7,256.8,010126,,*3B
$GNGGA,000033.30,3348.0851,S,15051.7133,E,4,18,0.6,30.0,M,46.9,M,,*58
$GNRMC,000033.30,A,3348.0851,S,15051.7133,E,105.8,256.8,010126,,*34
$GNGGA,000033.40,3348.0879,S,15051.7125,E,4,18,0.6,30.0,M,46.9,M,,*52
$GNRMC,000033.40,A,3348.0879,S,15051.7125,E,105.8,256.8,010126,,*3E
$GNGGA,000033.50,3348.0908,S,15051.7117,E,4,18,0.6,30.0,M,46.9,M,,*55
$GNRMC,000033.50,A,3348.0908,S,15051.7117,E,105.9,256.8,010126,,*38
$GNGGA,000033.60,3348.0937,S,15051.7111,E,4,18,0.6,30.0,M,46.9,M,,*5C
$GNRMC,000033.60,A,3348.0937,S,15051.7111,E,105.9,265.6,010126,,*3F
$GNGGA,000033.70,3348.0966,S,15051.7108,E,4,18,0.6,30.0,M,46.9,M,,*51
$GNRMC,000033.70,A,3348.0966,S,15051.7108,E,106.0,265.6,010126,,*38
$GNGGA,000033.80,3348.0996,S,15051.7105,E,4,18,0.6,30.0,M,46.9,M,,*5C
$GNRMC,000033.80,A,3348.0996,S,15051.7105,E,106.0,265.6,010126,,*35
$GNGGA,000033.90,3348.1025,S,15051.7103,E,4,18,0.6,30.0,M,46.9,M,,*5B
$GNRMC,000033.90,A,3348.1025,S,15051.7103,E,106.1,265.6,010126,,*33
$GNGGA,000034.00,3348.1054,S,15051.7101,E,4,18,0.6,30.0,M,46.9,M,,*51
$GNRMC,000034.00,A,3348.1054,S,15051.7101,E,106.1,274.4,010126,,*3B
$GNGGA,000034.10,3348.1084,S,15051.7103,E,4,18,0.6,30.0,M,46.9,M,,*5F
$GNRMC,000034.10,A,3348.1084,S,15051.7103,E,106.2,274.4,010126,,*36
$GNGGA,000034.20,3348.1113,S,15051.7106,E,4,18,0.6,30.0,M,46.9,M,,*56
$GNRMC,000034.20,A,3348.1113,S,15051.7106,E,106.2,274.4,010126,,*3F
$GNGGA,000034.30,3348.1143,S,15051.7109,E,4,18,0.6,30.0,M,46.9,M,,*5D
$GNRMC,000034.30,A,3348.1143,S,15051.7109,E,106.3,274.4,010126,,*35
$GNGGA,000034.40,3348.1172,S,15051.7112,E,4,18,0.6,30.0,M,46.9,M,,*52
$GNRMC,000034.40,A,3348.1172,S,15051.7112,E,106.3,274.4,010126,,*3A
$GNGGA,000034.50,3348.1201,S,15051.7119,E,4,18,0.6,30.0,M,46.9,M,,*5F
$GNRMC,000034.50,A,3348.1201,S,15051.7119,E,106.4,283.2,010126,,*3E
$GNGGA,000034.60,3348.1229,S,15051.7127,E,4,18,0.6,30.0,M,46.9,M,,*5B
$GNRMC,000034.60,A,3348.1229,S,15051.7127,E,106.4,283.2,010126,,*3A
$GNGGA,000034.70,3348.1258,S,15051.7136,E,4,18,0.6,30.0,M,46.9,M,,*5C
$GNRMC,000034.70,A,3348.1258,S,15051.7136,E,106.5,283.2,010126,,*3C
$GNGGA,000034.80,3348.1287,S,15051.7144,E,4,18,0.6,30.0,M,46.9,M,,*54
$GNRMC,000034.80,A,3348.1287,S,15051.7144,E,106.6,283.2,010126,,*37
$GNGGA,000034.90,3348.1315,S,15051.7155,E,4,18,0.6,30.0,M,46.9,M,,*5F
$GNRMC,000034.90,A,3348.1315,S,15051.7155,E,106.6,291.4,010126,,*39
$GNGGA,000035.00,3348.1343,S,15051.7168,E,4,18,0.6,30.0,M,46.9,M,,*5A
$GNRMC,000035.00,A,3348.1343,S,15051.7168,E,106.7,291.4,010126,,*3D
$GNGGA,000035.10,3348.1370,S,15051.7181,E,4,18,0.6,30.0,M,46.9,M,,*5C
$GNRMC,000035.10,A,3348.1370,S,15051.7181,E,106.7,291.4,010126,,*3B
$GNGGA,000035.20,3348.1398,S,15051.7194,E,4,18,0.6,30.0,M,46.9,M,,*5D
$GNRMC,000035.20,A,3348.1398,S,15051.7194,E,106.8,291.4,010126,,*35
$GNGGA,000035.30,3348.1425,S,15051.7207,E,4,18,0.6,30.0,M,46.9,M,,*54
$GNRMC,000035.30,A,3348.1425,S,15051.7207,E,106.8,299.0,010126,,*30
$GNGGA,000035.40,3348.1451,S,15051.7225,E,4,18,0.6,30.0,M,46.9,M,,*50
$GNRMC,000035.40,A,3348.1451,S,15051.7225,E,106.9,299.0,010126,,*35
$GNGGA,000035.50,3348.1477,S,15051.7242,E,4,18,0.6,30.0,M,46.9,M,,*54
$GNRMC,000035.50,A,3348.1477,S,15051.7242,E,106.9,299.0,010126,,*31
$GNGGA,000035.60,3348.1503,S,15051.7259,E,4,18,0.6,30.0,M,46.9,M,,*5F
$GNRMC,000035.60,A,3348.1503,S,15051.7259,E,107.0,299.0,010126,,*32
$GNGGA,000035.70,3348.1529,S,15051.7277,E,4,18,0.6,30.0,M,46.9,M,,*5A
$GNRMC,000035.70,A,3348.1529,S,15051.7277,E,107.0,299.0,010126,,*37
$GNGGA,000035.80,3348.1554,S,15051.7296,E,4,18,0.6,30.0,M,46.9,M,,*50
$GNRMC,000035.80,A,3348.1554,S,15051.7296,E,107.1,305.8,010126,,*30
$GNGGA,000035.90,3348.1578,S,15051.7316,E,4,18,0.6,30.0,M,46.9,M,,*56
$GNRMC,000035.90,A,3348.1578,S,15051.7316,E,107.1,305.8,010126,,*36
$GNGGA,000036.00,3348.1602,S,15051.7337,E,4,18,0.6,30.0,M,46.9,M,,*51
$GNRMC,000036.00,A,3348.1602,S,15051.7337,E,107.2,305.8,010126,,*32
$GNGGA,000036.10,3348.1626,S,15051.7358,E,4,18,0.6,30.0,M,46.9,M,,*5F
$GNRMC,000036.10,A,3348.1626,S,15051.7358,E,107.2,305.8,010126,,*3C
$GNGGA,000036.20,3348.1651,S,15051.7379,E,4,18,0.6,30.0,M,46.9,M,,*5F
$GNRMC,000036.20,A,3348.1651,S,15051.7379,E,107.2,305.8,010126,,*3C
$GNGGA,000036.30,3348.1674,S,15051.7402,E,4,18,0.6,30.0,M,46.9,M,,*52
$GNRMC,000036.30,A,3348.1674,S,15051.7402,E,107.3,311.8,010126,,*35
$GNGGA,000036.40,3348.1696,S,15051.7426,E,4,18,0.6,30.0,M,46.9,M,,*5F
$GNRMC,000036.40,A,3348.1696,S,15051.7426,E,107.3,311.8,010126,,*38
$GNGGA,000036.50,3348.1718,S,15051.7450,E,4,18,0.6,30.0,M,46.9,M,,*58
$GNRMC,000036.50,A,3348.1718,S,15051.7450,E,107.4,311.8,010126,,*38
$GNGGA,000036.60,3348.1740,S,15051.7473,E,4,18,0.6,30.0,M,46.9,M,,*57
$GNRMC,000036.60,A,3348.1740,S,15051.7473,E,107.4,311.8,010126,,*37
$GNGGA,000036.70,3348.1763,S,15051.7497,E,4,18,0.6,30.0,M,46.9,M,,*5D
$GNRMC,000036.70,A,3348.1763,S,15051.7497,E,107.5,311.8,010126,,*3C
$GNGGA,000036.80,3348.1784,S,15051.7522,E,4,18,0.6,30.0,M,46.9,M,,*54
$GNRMC,000036.80,A,3348.1784,S,15051.7522,E,107.5,317.1,010126,,*3A
$GNGGA,000036.90,3348.1805,S,15051.7548,E,4,18,0.6,30.0,M,46.9,M,,*5F
$GNRMC,000036.90,A,3348.1805,S,15051.7548,E,107.6,317.1,010126,,*32
$GNGGA,000037.00,3348.1825,S,15051.7575,E,4,18,0.6,30.0,M,46.9,M,,*5B
$GNRMC,000037.00,A,3348.1825,S,15051.7575,E,107.6,317.1,010126,,*36
$GNGGA,000037.10,3348.1845,S,15051.7601,E,4,18,0.6,30.0,M,46.9,M,,*5C
$GNRMC,000037.10,A,3348.1845,S,15051.7601,E,107.7,317.1,010126,,*30
$GNGGA,000037.20,3348.1866,S,15051.7627,E,4,18,0.6,30.0,M,46.9,M,,*5A
$GNRMC,000037.20,A,3348.1866,S,15051.7627,E,107.7,317.1,010126,,*36
$GNGGA,000037.30,3348.1886,S,15051.7654,E,4,18,0.6,30.0,M,46.9,M,,*51
$GNRMC,000037.30,A,3348.1886,S,15051.7654,E,107.8,317.1,010126,,*32
$GNGGA,000037.40,3348.1905,S,15051.7681,E,4,18,0.6,30.0,M,46.9,M,,*54
$GNRMC,000037.40,A,3348.1905,S,15051.7681,E,107.8,321.8,010126,,*3B
$GNGGA,000037.50,3348.1923,S,15051.7710,E,4,18,0.6,30.0,M,46.9,M,,*58
$GNRMC,000037.50,A,3348.1923,S,15051.7710,E,107.8,321.8,010126,,*37
$GNGGA,000037.60,3348.1942,S,15051.7738,E,4,18,0.6,30.0,M,46.9,M,,*56
$GNRMC,000037.60,A,3348.1942,S,15051.7738,E,107.9,321.8,010126,,*38
$GNGGA,000037.70,3348.1961,S,15051.7766,E,4,18,0.6,30.0,M,46.9,M,,*5D
$GNRMC,000037.70,A,3348.1961,S,15051.7766,E,107.9,321.8,010126,,*33
$GNGGA,000037.80,3348.1979,S,15051.7795,E,4,18,0.6,30.0,M,46.9,M,,*57
$GNRMC,000037.80,A,3348.1979,S,15051.7795,E,108.0,321.8,010126,,*3F
$GNGGA,000037.90,3348.1998,S,15051.7823,E,4,18,0.6,30.0,M,46.9,M,,*5B
$GNRMC,000037.90,A,3348.1998,S,15051.7823,E,108.0,321.8,010126,,*33
$GNGGA,000038.00,3348.2015,S,15051.7852,E,4,18,0.6,30.0,M,46.9,M,,*54
$GNRMC,000038.00,A,3348.2015,S,15051.7852,E,108.0,325.9,010126,,*39
$GNGGA,000038.10,3348.2032,S,15051.7882,E,4,18,0.6,30.0,M,46.9,M,,*5D
$GNRMC,000038.10,A,3348.2032,S,15051.7882,E,108.1,325.9,010126,,*31
$GNGGA,000038.20,3348.2048,S,15051.7912,E,4,18,0.6,30.0,M,46.9,M,,*5B
$GNRMC,000038.20,A,3348.2048,S,15051.7912,E,108.1,325.9,010126,,*37
$GNGGA,000038.30,3348.2065,S,15051.7942,E,4,18,0.6,30.0,M,46.9,M,,*50
$GNRMC,000038.30,A,3348.2065,S,15051.7942,E,108.2,325.9,010126,,*3F
$GNGGA,000038.40,3348.2082,S,15051.7972,E,4,18,0.6,30.0,M,46.9,M,,*5D
$GNRMC,000038.40,A,3348.2082,S,15051.7972,E,108.2,325.9,010126,,*32
$GNGGA,000038.50,3348.2099,S,15051.8002,E,4,18,0.6,30.0,M,46.9,M,,*57
$GNRMC,000038.50,A,3348.2099,S,15051.8002,E,108.2,325.9,010126,,*38
$GNGGA,000038.60,3348.2115,S,15051.8033,E,4,18,0.6,30.0,M,46.9,M,,*53
$GNRMC,000038.60,A,3348.2115,S,15051.8033,E,108.3,329.6,010126,,*3E
$GNGGA,000038.70,3348.2130,S,15051.8064,E,4,18,0.6,30.0,M,46.9,M,,*57
$GNRMC,000038.70,A,3348.2130,S,15051.8064,E,108.3,329.6,010126,,*3A
$GNGGA,000038.80,3348.2145,S,15051.8095,E,4,18,0.6,30.0,M,46.9,M,,*54
$GNRMC,000038.80,A,3348.2145,S,15051.8095,E,108.3,329.6,010126,,*39
$GNGGA,000038.90,3348.2161,S,15051.8126,E,4,18,0.6,30.0,M,46.9,M,,*5A
$GNRMC,000038.90,A,3348.2161,S,15051.8126,E,108.4,329.6,010126,,*30
$GNGGA,000039.00,3348.2176,S,15051.8157,E,4,18,0.6,30.0,M,46.9,M,,*52
$GNRMC,000039.00,A,3348.2176,S,15051.8157,E,108.4,329.6,010126,,*38
$GNGGA,000039.10,3348.2191,S,15051.8189,E,4,18,0.6,30.0,M,46.9,M,,*59
$GNRMC,000039.10,A,3348.2191,S,15051.8189,E,108.4,329.6,010126,,*33
$GNGGA,000039.20,3348.2206,S,15051.8220,E,4,18,0.6,30.0,M,46.9,M,,*57
$GNRMC,000039.20,A,3348.2206,S,15051.8220,E,108.5,329.6,010126,,*3C
$GNGGA,000039.30,3348.2220,S,15051.8252,E,4,18,0.6,30.0,M,46.9,M,,*57
$GNRMC,000039.30,A,3348.2220,S,15051.8252,E,108.5,332.8,010126,,*38
$GNGGA,000039.40,3348.2234,S,15051.8284,E,4,18,0.6,30.0,M,46.9,M,,*5E
$GNRMC,000039.40,A,3348.2234,S,15051.8284,E,108.5,332.8,010126,,*31
$GNGGA,000039.50,3348.2248,S,15051.8316,E,4,18,0.6,30.0,M,46.9,M,,*5E
$GNRMC,000039.50,A,3348.2248,S,15051.8316,E,108.6,332.8,010126,,*32
$GNGGA,000039.60,3348.2262,S,15051.8349,E,4,18,0.6,30.0,M,46.9,M,,*5F
$GNRMC,000039.60,A,3348.2262,S,15051.8349,E,108.6,332.8,010126,,*33
$GNGGA,000039.70,3348.2275,S,15051.8381,E,4,18,0.6,30.0,M,46.9,M,,*5C
$GNRMC,000039.70,A,3348.2275,S,15051.8381,E,108.6,332.8,010126,,*30
$GNGGA,000039.80,3348.2289,S,15051.8413,E,4,18,0.6,30.0,M,46.9,M,,*5C
$GNRMC,000039.80,A,3348.2289,S,15051.8413,E,108.6,332.8,010126,,*30
$GNGGA,000039.90,3348.2303,S,15051.8445,E,4,18,0.6,30.0,M,46.9,M,,*5D
$GNRMC,000039.90,A,3348.2303,S,15051.8445,E,108.7,332.8,010126,,*30
$GNGGA,000040.00,3348.2315,S,15051.8478,E,4,18,0.6,30.0,M,46.9,M,,*53
$GNRMC,000040.00,A,3348.2315,S,15051.8478,E,108.7,335.8,010126,,*39
$GNGGA,000040.10,3348.2328,S,15051.8512,E,4,18,0.6,30.0,M,46.9,M,,*51
$GNRMC,000040.10,A,3348.2328,S,15051.8512,E,108.7,335.8,010126,,*3B
$GNGGA,000040.20,3348.2340,S,15051.8545,E,4,18,0.6,30.0,M,46.9,M,,*5E
$GNRMC,000040.20,A,3348.2340,S,15051.8545,E,108.7,335.8,010126,,*34
$GNGGA,000040.30,3348.2353,S,15051.8578,E,4,18,0.6,30.0,M,46.9,M,,*53
$GNRMC,000040.30,A,3348.2353,S,15051.8578,E,108.8,335.8,010126,,*36
$GNGGA,000040.40,3348.2365,S,15051.8611,E,4,18,0.6,30.0,M,46.9,M,,*5D
$GNRMC,000040.40,A,3348.2365,S,15051.8611,E,108.8,335.8,010126,,*38
$GNGGA,000040.50,3348.2377,S,15051.8644,E,4,18,0.6,30.0,M,46.9,M,,*5F
$GNRMC,000040.50,A,3348.2377,S,15051.8644,E,108.8,335.8,010126,,*3A
$GNGGA,000040.60,3348.2390,S,15051.8677,E,4,18,0.6,30.0,M,46.9,M,,*55
$GNRMC,000040.60,A,3348.2390,S,15051.8677,E,108.8,335.8,010126,,*30
$GNGGA,000040.70,3348.2401,S,15051.8711,E,4,18,0.6,30.0,M,46.9,M,,*5A
$GNRMC,000040.70,A,3348.2401,S,15051.8711,E,108.9,338.5,010126,,*3E
$GNGGA,000040.80,3348.2413,S,15051.8745,E,4,18,0.6,30.0,M,46.9,M,,*57
$GNRMC,000040.80,A,3348.2413,S,15051.8745,E,108.9,338.5,010126,,*33
$GNGGA,000040.90,3348.2424,S,15051.8778,E,4,18,0.6,30.0,M,46.9,M,,*5C
$GNRMC,000040.90,A,3348.2424,S,15051.8778,E,108.9,338.5,010126,,*38
$GNGGA,000041.00,3348.2435,S,15051.8812,E,4,18,0.6,30.0,M,46.9,M,,*57
$GNRMC,000041.00,A,3348.2435,S,15051.8812,E,108.9,338.5,010126,,*33
$GNGGA,000041.10,3348.2446,S,15051.8846,E,4,18,0.6,30.0,M,46.9,M,,*53
$GNRMC,000041.10,A,3348.2446,S,15051.8846,E,108.9,338.5,010126,,*37
$GNGGA,000041.20,3348.2457,S,15051.8880,E,4,18,0.6,30.0,M,46.9,M,,*5A
$GNRMC,000041.20,A,3348.2457,S,15051.8880,E,108.9,338.5,010126,,*3E
$GNGGA,000041.30,3348.2468,S,15051.8914,E,4,18,0.6,30.0,M,46.9,M,,*5B
$GNRMC,000041.30,A,3348.2468,S,15051.8914,E,108.9,338.5,010126,,*3F
$GNGGA,000041.40,3348.2479,S,15051.8948,E,4,18,0.6,30.0,M,46.9,M,,*55
$GNRMC,000041.40,A,3348.2479,S,15051.8948,E,109.0,338.5,010126,,*39
$GNGGA,000041.50,3348.2489,S,15051.8982,E,4,18,0.6,30.0,M,46.9,M,,*5D
$GNRMC,000041.50,A,3348.2489,S,15051.8982,E,109.0,340.9,010126,,*32
$GNGGA,000041.60,3348.2499,S,15051.9016,E,4,18,0.6,30.0,M,46.9,M,,*5A
$GNRMC,000041.60,A,3348.2499,S,15051.9016,E,109.0,340.9,010126,,*35
$GNGGA,000041.70,3348.2509,S,15051.9051,E,4,18,0.6,30.0,M,46.9,M,,*50
$GNRMC,000041.70,A,3348.2509,S,15051.9051,E,109.0,340.9,010126,,*3F
$GNGGA,000041.80,3348.2519,S,15051.9085,E,4,18,0.6,30.0,M,46.9,M,,*57
$GNRMC,000041.80,A,3348.2519,S,15051.9085,E,109.0,340.9,010126,,*38
$GNGGA,000041.90,3348.2529,S,15051.9120,E,4,18,0.6,30.0,M,46.9,M,,*5B
$GNRMC,000041.90,A,3348.2529,S,15051.9120,E,109.0,340.9,010126,,*34
$GNGGA,000042.00,3348.2539,S,15051.9154,E,4,18,0.6,30.0,M,46.9,M,,*53
$GNRMC,000042.00,A,3348.2539,S,15051.9154,E,109.0,340.9,010126,,*3C
$GNGGA,000042.10,3348.2548,S,15051.9189,E,4,18,0.6,30.0,M,46.9,M,,*54
$GNRMC,000042.10,A,3348.2548,S,15051.9189,E,109.0,340.9,010126,,*3B
$GNGGA,000042.20,3348.2558,S,15051.9223,E,4,18,0.6,30.0,M,46.9,M,,*55
$GNRMC,000042.20,A,3348.2558,S,15051.9223,E,109.0,340.9,010126,,*3A
$GNGGA,000042.30,3348.2567,S,15051.9258,E,4,18,0.6,30.0,M,46.9,M,,*54
$GNRMC,000042.30,A,3348.2567,S,15051.9258,E,109.0,343.2,010126,,*33
$GNGGA,000042.40,3348.2576,S,15051.9293,E,4,18,0.6,30.0,M,46.9,M,,*54
$GNRMC,000042.40,A,3348.2576,S,15051.9293,E,109.0,343.2,010126,,*33
$GNGGA,000042.50,3348.2585,S,15051.9327,E,4,18,0.6,30.0,M,46.9,M,,*57
$GNRMC,000042.50,A,3348.2585,S,15051.9327,E,109.0,343.2,010126,,*30
$GNGGA,000042.60,3348.2594,S,15051.9362,E,4,18,0.6,30.0,M,46.9,M,,*55
$GNRMC,000042.60,A,3348.2594,S,15051.9362,E,109.0,343.2,010126,,*32
$GNGGA,000042.70,3348.2602,S,15051.9397,E,4,18,0.6,30.0,M,46.9,M,,*52
$GNRMC,000042.70,A,3348.2602,S,15051.9397,E,109.0,343.2,010126,,*35
$GNGGA,000042.80,3348.2611,S,15051.9432,E,4,18,0.6,30.0,M,46.9,M,,*57
$GNRMC,000042.80,A,3348.2611,S,15051.9432,E,109.0,343.2,010126,,*30
$GNGGA,000042.90,3348.2620,S,15051.9467,E,4,18,0.6,30.0,M,46.9,M,,*54
$GNRMC,000042.90,A,3348.2620,S,15051.9467,E,109.0,343.2,010126,,*33
$GNGGA,000043.00,3348.2628,S,15051.9502,E,4,18,0.6,30.0,M,46.9,M,,*56
$GNRMC,000043.00,A,3348.2628,S,15051.9502,E,109.0,343.2,010126,,*31
$GNGGA,000043.10,3348.2637,S,15051.9537,E,4,18,0.6,30.0,M,46.9,M,,*5F
$GNRMC,000043.10,A,3348.2637,S,15051.9537,E,109.0,345.3,010126,,*3F
$GNGGA,000043.20,3348.2644,S,15051.9572,E,4,18,0.6,30.0,M,46.9,M,,*59
$GNRMC,000043.20,A,3348.2644,S,15051.9572,E,109.0,345.3,010126,,*39
$GNGGA,000043.30,3348.2652,S,15051.9607,E,4,18,0.6,30.0,M,46.9,M,,*5E
$GNRMC,000043.30,A,3348.2652,S,15051.9607,E,109.0,345.3,010126,,*3E
$GNGGA,000043.40,3348.2660,S,15051.9643,E,4,18,0.6,30.0,M,46.9,M,,*58
$GNRMC,000043.40,A,3348.2660,S,15051.9643,E,109.0,345.3,010126,,*38
$GNGGA,000043.50,3348.2667,S,15051.9678,E,4,18,0.6,30.0,M,46.9,M,,*56
$GNRMC,000043.50,A,3348.2667,S,15051.9678,E,109.0,345.3,010126,,*36
$GNGGA,000043.60,3348.2675,S,15051.9713,E,4,18,0.6,30.0,M,46.9,M,,*5A
$GNRMC,000043.60,A,3348.2675,S,15051.9713,E,109.0,345.3,010126,,*3A
$GNGGA,000043.70,3348.2683,S,15051.9748,E,4,18,0.6,30.0,M,46.9,M,,*5C
$GNRMC,000043.70,A,3348.2683,S,15051.9748,E,109.0,345.3,010126,,*3C
$GNGGA,000043.80,3348.2690,S,15051.9784,E,4,18,0.6,30.0,M,46.9,M,,*51
$GNRMC,000043.80,A,3348.2690,S,15051.9784,E,109.0,345.3,010126,,*31
$GNGGA,000043.90,3348.2698,S,15051.9819,E,4,18,0.6,30.0,M,46.9,M,,*53
$GNRMC,000043.90,A,3348.2698,S,15051.9819,E,109.0,345.3,010126,,*33
$GNGGA,000044.00,3348.2705,S,15051.9854,E,4,18,0.6,30.0,M,46.9,M,,*51
$GNRMC,000044.00,A,3348.2705,S,15051.9854,E,109.0,347.3,010126,,*33
$GNGGA,000044.10,3348.2711,S,15051.9890,E,4,18,0.6,30.0,M,46.9,M,,*5D
$GNRMC,000044.10,A,3348.2711,S,15051.9890,E,109.0,347.3,010126,,*3F
$GNGGA,000044.20,3348.2718,S,15051.9925,E,4,18,0.6,30.0,M,46.9,M,,*58
$GNRMC,000044.20,A,3348.2718,S,15051.9925,E,109.0,347.3,010126,,*3A
$GNGGA,000044.30,3348.2725,S,15051.9961,E,4,18,0.6,30.0,M,46.9,M,,*57
$GNRMC,000044.30,A,3348.2725,S,15051.9961,E,108.9,347.3,010126,,*3D
$GNGGA,000044.40,3348.2731,S,15051.9996,E,4,18,0.6,30.0,M,46.9,M,,*5D
$GNRMC,000044.40,A,3348.2731,S,15051.9996,E,108.9,347.3,010126,,*37
$GNGGA,000044.50,3348.2738,S,15052.0032,E,4,18,0.6,30.0,M,46.9,M,,*58
$GNRMC,000044.50,A,3348.2738,S,15052.0032,E,108.9,347.3,010126,,*32
$GNGGA,000044.60,3348.2744,S,15052.0067,E,4,18,0.6,30.0,M,46.9,M,,*50
$GNRMC,000044.60,A,3348.2744,S,15052.0067,E,108.9,347.3,010126,,*3A
$GNGGA,000044.70,3348.2751,S,15052.0103,E,4,18,0.6,30.0,M,46.9,M,,*56
$GNRMC,000044.70,A,3348.2751,S,15052.0103,E,108.9,347.3,010126,,*3C
$GNGGA,000044.80,3348.2758,S,15052.0138,E,4,18,0.6,30.0,M,46.9,M,,*58
$GNRMC,000044.80,A,3348.2758,S,15052.0138,E,108.9,349.2,010126,,*3D
$GNGGA,000044.90,3348.2763,S,15052.0174,E,4,18,0.6,30.0,M,46.9,M,,*59
$GNRMC,000044.90,A,3348.2763,S,15052.0174,E,108.8,349.2,010126,,*3D
$GNGGA,000045.00,3348.2769,S,15052.0210,E,4,18,0.6,30.0,M,46.9,M,,*5A
$GNRMC,000045.00,A,3348.2769,S,15052.0210,E,108.8,349.2,010126,,*3E
$GNGGA,000045.10,3348.2775,S,15052.0245,E,4,18,0.6,30.0,M,46.9,M,,*56
$GNRMC,000045.10,A,3348.2775,S,15052.0245,E,108.8,349.2,010126,,*32
$GNGGA,000045.20,3348.2780,S,15052.0281,E,4,18,0.6,30.0,M,46.9,M,,*57
$GNRMC,000045.20,A,3348.2780,S,15052.0281,E,108.8,349.2,010126,,*33
$GNGGA,000045.30,3348.2786,S,15052.0317,E,4,18,0.6,30.0,M,46.9,M,,*5E
$GNRMC,000045.30,A,3348.2786,S,15052.0317,E,108.7,349.2,010126,,*35
$GNGGA,000045.40,3348.2792,S,15052.0353,E,4,18,0.6,30.0,M,46.9,M,,*5C
$GNRMC,000045.40,A,3348.2792,S,15052.0353,E,108.7,349.2,010126,,*37
$GNGGA,000045.50,3348.2797,S,15052.0388,E,4,18,0.6,30.0,M,46.9,M,,*5E
$GNRMC,000045.50,A,3348.2797,S,15052.0388,E,108.7,349.2,010126,,*35
$GNGGA,000045.60,3348.2803,S,15052.0424,E,4,18,0.6,30.0,M,46.9,M,,*5E
$GNRMC,000045.60,A,3348.2803,S,15052.0424,E,108.7,349.2,010126,,*35
$GNGGA,000045.70,3348.2809,S,15052.0460,E,4,18,0.6,30.0,M,46.9,M,,*55
$GNRMC,000045.70,A,3348.2809,S,15052.0460,E,108.6,351.0,010126,,*34
$GNGGA,000045.80,3348.2813,S,15052.0495,E,4,18,0.6,30.0,M,46.9,M,,*5B
$GNRMC,000045.80,A,3348.2813,S,15052.0495,E,108.6,351.0,010126,,*3A
$GNGGA,000045.90,3348.2818,S,15052.0531,E,4,18,0.6,30.0,M,46.9,M,,*5E
$GNRMC,000045.90,A,3348.2818,S,15052.0531,E,108.6,351.0,010126,,*3F
$GNGGA,000046.00,3348.2823,S,15052.0567,E,4,18,0.6,30.0,M,46.9,M,,*5F
$GNRMC,000046.00,A,3348.2823,S,15052.0567,E,108.6,351.0,010126,,*3E
$GNGGA,000046.10,3348.2827,S,15052.0603,E,4,18,0.6,30.0,M,46.9,M,,*5B
$GNRMC,000046.10,A,3348.2827,S,15052.0603,E,108.5,351.0,010126,,*39
$GNGGA,000046.20,3348.2832,S,15052.0639,E,4,18,0.6,30.0,M,46.9,M,,*55
$GNRMC,000046.20,A,3348.2832,S,15052.0639,E,108.5,351.0,010126,,*37
$GNGGA,000046.30,3348.2837,S,15052.0674,E,4,18,0.6,30.0,M,46.9,M,,*58
$GNRMC,000046.30,A,3348.2837,S,15052.0674,E,108.5,351.0,010126,,*3A
$GNGGA,000046.40,3348.2842,S,15052.0710,E,4,18,0.6,30.0,M,46.9,M,,*5E
$GNRMC,000046.40,A,3348.2842,S,15052.0710,E,108.4,351.0,010126,,*3D
$GNGGA,000046.50,3348.2846,S,15052.0746,E,4,18,0.6,30.0,M,46.9,M,,*58
$GNRMC,000046.50,A,3348.2846,S,15052.0746,E,108.4,351.0,010126,,*3B
$GNGGA,000046.60,3348.2851,S,15052.0782,E,4,18,0.6,30.0,M,46.9,M,,*55
$GNRMC,000046.60,A,3348.2851,S,15052.0782,E,108.4,351.0,010126,,*36
$GNGGA,000046.70,3348.2855,S,15052.0818,E,4,18,0.6,30.0,M,46.9,M,,*5C
$GNRMC,000046.70,A,3348.2855,S,15052.0818,E,108.3,352.7,010126,,*3C
$GNGGA,000046.80,3348.2859,S,15052.0854,E,4,18,0.6,30.0,M,46.9,M,,*57
$GNRMC,000046.80,A,3348.2859,S,15052.0854,E,108.3,352.7,010126,,*37
$GNGGA,000046.90,3348.2863,S,15052.0889,E,4,18,0.6,30.0,M,46.9,M,,*5F
$GNRMC,000046.90,A,3348.2863,S,15052.0889,E,108.3,352.7,010126,,*3F
$GNGGA,000047.00,3348.2866,S,15052.0925,E,4,18,0.6,30.0,M,46.9,M,,*55
$GNRMC,000047.00,A,3348.2866,S,15052.0925,E,108.2,352.7,010126,,*34
$GNGGA,000047.10,3348.2870,S,15052.0961,E,4,18,0.6,30.0,M,46.9,M,,*53
$GNRMC,000047.10,A,3348.2870,S,15052.0961,E,108.2,352.7,010126,,*32
$GNGGA,000047.20,3348.2874,S,15052.0997,E,4,18,0.6,30.0,M,46.9,M,,*5D
$GNRMC,000047.20,A,3348.2874,S,15052.0997,E,108.2,352.7,010126,,*3C
$GNGGA,000047.30,3348.2878,S,15052.1033,E,4,18,0.6,30.0,M,46.9,M,,*56
$GNRMC,000047.30,A,3348.2878,S,15052.1033,E,108.1,352.7,010126,,*34
$GNGGA,000047.40,3348.2882,S,15052.1069,E,4,18,0.6,30.0,M,46.9,M,,*5B
$GNRMC,000047.40,A,3348.2882,S,15052.1069,E,108.1,352.7,010126,,*39
$GNGGA,000047.50,3348.2885,S,15052.1105,E,4,18,0.6,30.0,M,46.9,M,,*56
$GNRMC,000047.50,A,3348.2885,S,15052.1105,E,108.0,352.7,010126,,*35
$GNGGA,000047.60,3348.2889,S,15052.1140,E,4,18,0.6,30.0,M,46.9,M,,*58
$GNRMC,000047.60,A,3348.2889,S,15052.1140,E,108.0,354.4,010126,,*3E
$GNGGA,000047.70,3348.2892,S,15052.1176,E,4,18,0.6,30.0,M,46.9,M,,*56
$GNRMC,000047.70,A,3348.2892,S,15052.1176,E,108.0,354.4,010126,,*30
$GNGGA,000047.80,3348.2895,S,15052.1212,E,4,18,0.6,30.0,M,46.9,M,,*5F
$GNRMC,000047.80,A,3348.2895,S,15052.1212,E,107.9,354.4,010126,,*3F
$GNGGA,000047.90,3348.2898,S,15052.1248,E,4,18,0.6,30.0,M,46.9,M,,*5C
$GNRMC,000047.90,A,3348.2898,S,15052.1248,E,107.9,354.4,010126,,*3C
$GNGGA,000048.00,3348.2901,S,15052.1284,E,4,18,0.6,30.0,M,46.9,M,,*5B
$GNRMC,000048.00,A,3348.2901,S,15052.1284,E,107.8,354.4,010126,,*3A
$GNGGA,000048.10,3348.2904,S,15052.1320,E,4,18,0.6,30.0,M,46.9,M,,*50
$GNRMC,000048.10,A,3348.2904,S,15052.1320,E,107.8,354.4,010126,,*31
$GNGGA,000048.20,3348.2907,S,15052.1356,E,4,18,0.6,30.0,M,46.9,M,,*51
$GNRMC,000048.20,A,3348.2907,S,15052.1356,E,107.8,354.4,010126,,*30
$GNGGA,000048.30,3348.2910,S,15052.1391,E,4,18,0.6,30.0,M,46.9,M,,*5D
$GNRMC,000048.30,A,3348.2910,S,15052.1391,E,107.7,354.4,010126,,*33
$GNGGA,000048.40,3348.2912,S,15052.1427,E,4,18,0.6,30.0,M,46.9,M,,*52
$GNRMC,000048.40,A,3348.2912,S,15052.1427,E,107.7,354.4,010126,,*3C
$GNGGA,000048.50,3348.2915,S,15052.1463,E,4,18,0.6,30.0,M,46.9,M,,*54
$GNRMC,000048.50,A,3348.2915,S,15052.1463,E,107.6,354.4,010126,,*3B
$GNGGA,000048.60,3348.2918,S,15052.1499,E,4,18,0.6,30.0,M,46.9,M,,*5F
$GNRMC,000048.60,A,3348.2918,S,15052.1499,E,107.6,356.0,010126,,*36
$GNGGA,000048.70,3348.2920,S,15052.1535,E,4,18,0.6,30.0,M,46.9,M,,*52
$GNRMC,000048.70,A,3348.2920,S,15052.1535,E,107.5,356.0,010126,,*38
$GNGGA,000048.80,3348.2922,S,15052.1571,E,4,18,0.6,30.0,M,46.9,M,,*5F
$GNRMC,000048.80,A,3348.2922,S,15052.1571,E,107.5,356.0,010126,,*35
$GNGGA,000048.90,3348.2924,S,15052.1606,E,4,18,0.6,30.0,M,46.9,M,,*5B
$GNRMC,000048.90,A,3348.2924,S,15052.1606,E,107.4,356.0,010126,,*30
$GNGGA,000049.00,3348.2926,S,15052.1642,E,4,18,0.6,30.0,M,46.9,M,,*51
$GNRMC,000049.00,A,3348.2926,S,15052.1642,E,107.4,356.0,010126,,*3A
$GNGGA,000049.10,3348.2928,S,15052.1678,E,4,18,0.6,30.0,M,46.9,M,,*57
$GNRMC,000049.10,A,3348.2928,S,15052.1678,E,107.3,356.0,010126,,*3B
$GNGGA,000049.20,3348.2930,S,15052.1714,E,4,18,0.6,30.0,M,46.9,M,,*56
$GNRMC,000049.20,A,3348.2930,S,15052.1714,E,107.3,356.0,010126,,*3A
$GNGGA,000049.30,3348.2932,S,15052.1750,E,4,18,0.6,30.0,M,46.9,M,,*55
$GNRMC,000049.30,A,3348.2932,S,15052.1750,E,107.3,356.0,010126,,*39
$GNGGA,000049.40,3348.2934,S,15052.1785,E,4,18,0.6,30.0,M,46.9,M,,*5C
$GNRMC,000049.40,A,3348.2934,S,15052.1785,E,107.2,356.0,010126,,*31
$GNGGA,000049.50,3348.2936,S,15052.1821,E,4,18,0.6,30.0,M,46.9,M,,*5E
$GNRMC,000049.50,A,3348.2936,S,15052.1821,E,107.2,356.0,010126,,*33
$GNGGA,000049.60,3348.2938,S,15052.1857,E,4,18,0.6,30.0,M,46.9,M,,*52
$GNRMC,000049.60,A,3348.2938,S,15052.1857,E,107.1,357.6,010126,,*3B
$GNGGA,000049.70,3348.2939,S,15052.1893,E,4,18,0.6,30.0,M,46.9,M,,*5A
$GNRMC,000049.70,A,3348.2939,S,15052.1893,E,107.1,357.6,010126,,*33
$GNGGA,000049.80,3348.2940,S,15052.1928,E,4,18,0.6,30.0,M,46.9,M,,*5A
$GNRMC,000049.80,A,3348.2940,S,15052.1928,E,107.0,357.6,010126,,*32
$GNGGA,000049.90,3348.2942,S,15052.1964,E,4,18,0.6,30.0,M,46.9,M,,*51
$GNRMC,000049.90,A,3348.2942,S,15052.1964,E,107.0,357.6,010126,,*39
$GNGGA,000050.00,3348.2943,S,15052.2000,E,4,18,0.6,30.0,M,46.9,M,,*59
$GNRMC,000050.00,A,3348.2943,S,15052.2000,E,106.9,357.6,010126,,*39
$GNGGA,000050.10,3348.2944,S,15052.2035,E,4,18,0.6,30.0,M,46.9,M,,*59
$GNRMC,000050.10,A,3348.2944,S,15052.2035,E,106.9,357.6,010126,,*39
$GNGGA,000050.20,3348.2945,S,15052.2071,E,4,18,0.6,30.0,M,46.9,M,,*5B
$GNRMC,000050.20,A,3348.2945,S,15052.2071,E,106.8,357.6,010126,,*3A
$GNGGA,000050.30,3348.2946,S,15052.2107,E,4,18,0.6,30.0,M,46.9,M,,*59
$GNRMC,000050.30,A,3348.2946,S,15052.2107,E,106.8,357.6,010126,,*38
$GNGGA,000050.40,3348.2948,S,15052.2142,E,4,18,0.6,30.0,M,46.9,M,,*51
$GNRMC,000050.40,A,3348.2948,S,15052.2142,E,106.7,357.6,010126,,*3F
$GNGGA,000050.50,3348.2949,S,15052.2178,E,4,18,0.6,30.0,M,46.9,M,,*58
$GNRMC,000050.50,A,3348.2949,S,15052.2178,E,106.7,357.6,010126,,*36
$GNGGA,000050.60,3348.2950,S,15052.2214,E,4,18,0.6,30.0,M,46.9,M,,*5A
$GNRMC,000050.60,A,3348.2950,S,15052.2214,E,106.6,359.2,010126,,*3F
$GNGGA,000050.70,3348.2950,S,15052.2249,E,4,18,0.6,30.0,M,46.9,M,,*53
$GNRMC,000050.70,A,3348.2950,S,15052.2249,E,106.6,359.2,010126,,*36
$GNGGA,000050.80,3348.2950,S,15052.2285,E,4,18,0.6,30.0,M,46.9,M,,*5C
$GNRMC,000050.80,A,3348.2950,S,15052.2285,E,106.5,359.2,010126,,*3A
$GNGGA,000050.90,3348.2951,S,15052.2320,E,4,18,0.6,30.0,M,46.9,M,,*52
$GNRMC,000050.90,A,3348.2951,S,15052.2320,E,106.5,359.2,010126,,*34
$GNGGA,000051.00,3348.2951,S,15052.2356,E,4,18,0.6,30.0,M,46.9,M,,*5B
$GNRMC,000051.00,A,3348.2951,S,15052.2356,E,106.4,359.2,010126,,*3C
$GNGGA,000051.10,3348.2952,S,15052.2391,E,4,18,0.6,30.0,M,46.9,M,,*52
$GNRMC,000051.10,A,3348.2952,S,15052.2391,E,106.3,359.2,010126,,*32
$GNGGA,000051.20,3348.2952,S,15052.2427,E,4,18,0.6,30.0,M,46.9,M,,*5B
$GNRMC,000051.20,A,3348.2952,S,15052.2427,E,106.3,359.2,010126,,*3B
$GNGGA,000051.30,3348.2952,S,15052.2462,E,4,18,0.6,30.0,M,46.9,M,,*5B
$GNRMC,000051.30,A,3348.2952,S,15052.2462,E,106.2,359.2,010126,,*3A
$GNGGA,000051.40,3348.2953,S,15052.2498,E,4,18,0.6,30.0,M,46.9,M,,*58
$GNRMC,000051.40,A,3348.2953,S,15052.2498,E,106.2,359.2,010126,,*39
$GNGGA,000051.50,3348.2953,S,15052.2533,E,4,18,0.6,30.0,M,46.9,M,,*59
$GNRMC,000051.50,A,3348.2953,S,15052.2533,E,106.1,359.2,010126,,*3B
$GNGGA,000051.60,3348.2953,S,15052.2569,E,4,18,0.6,30.0,M,46.9,M,,*55
$GNRMC,000051.60,A,3348.2953,S,15052.2569,E,106.1,000.8,010126,,*32
$GNGGA,000051.70,3348.2953,S,15052.2604,E,4,18,0.6,30.0,M,46.9,M,,*5C
$GNRMC,000051.70,A,3348.2953,S,15052.2604,E,106.0,000.8,010126,,*3A
$GNGGA,000051.80,3348.2952,S,15052.2640,E,4,18,0.6,30.0,M,46.9,M,,*52
$GNRMC,000051.80,A,3348.2952,S,15052.2640,E,106.0,000.8,010126,,*34
$GNGGA,000051.90,3348.2952,S,15052.2675,E,4,18,0.6,30.0,M,46.9,M,,*55
$GNRMC,000051.90,A,3348.2952,S,15052.2675,E,105.9,000.8,010126,,*39
$GNGGA,000052.00,3348.2951,S,15052.2711,E,4,18,0.6,30.0,M,46.9,M,,*5F
$GNRMC,000052.00,A,3348.2951,S,15052.2711,E,105.9,000.8,010126,,*33
$GNGGA,000052.10,3348.2951,S,15052.2746,E,4,18,0.6,30.0,M,46.9,M,,*5C
$GNRMC,000052.10,A,3348.2951,S,15052.2746,E,105.8,000.8,010126,,*31
$GNGGA,000052.20,3348.2950,S,15052.2781,E,4,18,0.6,30.0,M,46.9,M,,*55
$GNRMC,000052.20,A,3348.2950,S,15052.2781,E,105.8,000.8,010126,,*38
$GNGGA,000052.30,3348.2950,S,15052.2817,E,4,18,0.6,30.0,M,46.9,M,,*54
$GNRMC,000052.30,A,3348.2950,S,15052.2817,E,105.7,000.8,010126,,*36
$GNGGA,000052.40,3348.2950,S,15052.2852,E,4,18,0.6,30.0,M,46.9,M,,*52
$GNRMC,000052.40,A,3348.2950,S,15052.2852,E,105.7,000.8,010126,,*30
$GNGGA,000052.50,3348.2949,S,15052.2887,E,4,18,0.6,30.0,M,46.9,M,,*53
$GNRMC,000052.50,A,3348.2949,S,15052.2887,E,105.6,000.8,010126,,*30
$GNGGA,000052.60,3348.2948,S,15052.2922,E,4,18,0.6,30.0,M,46.9,M,,*5F
$GNRMC,000052.60,A,3348.2948,S,15052.2922,E,105.6,002.4,010126,,*32
$GNGGA,000052.70,3348.2947,S,15052.2958,E,4,18,0.6,30.0,M,46.9,M,,*5C
$GNRMC,000052.70,A,3348.2947,S,15052.2958,E,105.5,002.4,010126,,*32
$GNGGA,000052.80,3348.2946,S,15052.2993,E,4,18,0.6,30.0,M,46.9,M,,*55
$GNRMC,000052.80,A,3348.2946,S,15052.2993,E,105.5,002.4,010126,,*3B
$GNGGA,000052.90,3348.2945,S,15052.3028,E,4,18,0.6,30.0,M,46.9,M,,*5F
$GNRMC,000052.90,A,3348.2945,S,15052.3028,E,105.4,002.4,010126,,*30
$GNGGA,000053.00,3348.2943,S,15052.3063,E,4,18,0.6,30.0,M,46.9,M,,*5E
$GNRMC,000053.00,A,3348.2943,S,15052.3063,E,105.4,002.4,010126,,*31
$GNGGA,000053.10,3348.2942,S,15052.3098,E,4,18,0.6,30.0,M,46.9,M,,*5A
$GNRMC,000053.10,A,3348.2942,S,15052.3098,E,105.3,002.4,010126,,*32
$GNGGA,000053.20,3348.2941,S,15052.3134,E,4,18,0.6,30.0,M,46.9,M,,*5D
$GNRMC,000053.20,A,3348.2941,S,15052.3134,E,105.3,002.4,010126,,*35
$GNGGA,000053.30,3348.2940,S,15052.3169,E,4,18,0.6,30.0,M,46.9,M,,*55
$GNRMC,000053.30,A,3348.2940,S,15052.3169,E,105.2,002.4,010126,,*3C
$GNGGA,000053.40,3348.2939,S,15052.3204,E,4,18,0.6,30.0,M,46.9,M,,*54
$GNRMC,000053.40,A,3348.2939,S,15052.3204,E,105.2,002.4,010126,,*3D
$GNGGA,000053.50,3348.2937,S,15052.3239,E,4,18,0.6,30.0,M,46.9,M,,*55
$GNRMC,000053.50,A,3348.2937,S,15052.3239,E,105.1,002.4,010126,,*3F
$GNGGA,000053.60,3348.2936,S,15052.3274,E,4,18,0.6,30.0,M,46.9,M,,*5E
$GNRMC,000053.60,A,3348.2936,S,15052.3274,E,105.1,004.0,010126,,*36
$GNGGA,000053.70,3348.2934,S,15052.3309,E,4,18,0.6,30.0,M,46.9,M,,*56
$GNRMC,000053.70,A,3348.2934,S,15052.3309,E,105.0,004.0,010126,,*3F
$GNGGA,000053.80,3348.2932,S,15052.3344,E,4,18,0.6,30.0,M,46.9,M,,*56
$GNRMC,000053.80,A,3348.2932,S,15052.3344,E,105.0,004.0,010126,,*3F
$GNGGA,000053.90,3348.2930,S,15052.3379,E,4,18,0.6,30.0,M,46.9,M,,*5B
$GNRMC,000053.90,A,3348.2930,S,15052.3379,E,105.0,004.0,010126,,*32
$GNGGA,000054.00,3348.2927,S,15052.3414,E,4,18,0.6,30.0,M,46.9,M,,*5F
$GNRMC,000054.00,A,3348.2927,S,15052.3414,E,104.9,004.0,010126,,*3E
$GNGGA,000054.10,3348.2925,S,15052.3449,E,4,18,0.6,30.0,M,46.9,M,,*54
$GNRMC,000054.10,A,3348.2925,S,15052.3449,E,104.9,004.0,010126,,*35
$GNGGA,000054.20,3348.2923,S,15052.3484,E,4,18,0.6,30.0,M,46.9,M,,*50
$GNRMC,000054.20,A,3348.2923,S,15052.3484,E,104.8,004.0,010126,,*30
$GNGGA,000054.30,3348.2921,S,15052.3519,E,4,18,0.6,30.0,M,46.9,M,,*56
$GNRMC,000054.30,A,3348.2921,S,15052.3519,E,104.8,004.0,010126,,*36
$GNGGA,000054.40,3348.2919,S,15052.3554,E,4,18,0.6,30.0,M,46.9,M,,*53
$GNRMC,000054.40,A,3348.2919,S,15052.3554,E,104.7,004.0,010126,,*3C
$GNGGA,000054.50,3348.2917,S,15052.3589,E,4,18,0.6,30.0,M,46.9,M,,*5C
$GNRMC,000054.50,A,3348.2917,S,15052.3589,E,104.7,004.0,010126,,*33
$GNGGA,000054.60,3348.2915,S,15052.3624,E,4,18,0.6,30.0,M,46.9,M,,*59
$GNRMC,000054.60,A,3348.2915,S,15052.3624,E,104.6,005.6,010126,,*30
$GNGGA,000054.70,3348.2912,S,15052.3658,E,4,18,0.6,30.0,M,46.9,M,,*54
$GNRMC,000054.70,A,3348.2912,S,15052.3658,E,104.6,005.6,010126,,*3D
$GNGGA,000054.80,3348.2909,S,15052.3693,E,4,18,0.6,30.0,M,46.9,M,,*56
$GNRMC,000054.80,A,3348.2909,S,15052.3693,E,104.6,005.6,010126,,*3F
$GNGGA,000054.90,3348.2906,S,15052.3728,E,4,18,0.6,30.0,M,46.9,M,,*59
$GNRMC,000054.90,A,3348.2906,S,15052.3728,E,104.5,005.6,010126,,*33
$GNGGA,000055.00,3348.2904,S,15052.3763,E,4,18,0.6,30.0,M,46.9,M,,*5C
$GNRMC,000055.00,A,3348.2904,S,15052.3763,E,104.5,005.6,010126,,*36
$GNGGA,000055.10,3348.2901,S,15052.3797,E,4,18,0.6,30.0,M,46.9,M,,*53
$GNRMC,000055.10,A,3348.2901,S,15052.3797,E,104.4,005.6,010126,,*38
$GNGGA,000055.20,3348.2898,S,15052.3832,E,4,18,0.6,30.0,M,46.9,M,,*51
$GNRMC,000055.20,A,3348.2898,S,15052.3832,E,104.4,005.6,010126,,*3A
$GNGGA,000055.30,3348.2895,S,15052.3867,E,4,18,0.6,30.0,M,46.9,M,,*5D
$GNRMC,000055.30,A,3348.2895,S,15052.3867,E,104.3,005.6,010126,,*31
$GNGGA,000055.40,3348.2892,S,15052.3901,E,4,18,0.6,30.0,M,46.9,M,,*5C
$GNRMC,000055.40,A,3348.2892,S,15052.3901,E,104.3,005.6,010126,,*30
$GNGGA,000055.50,3348.2889,S,15052.3936,E,4,18,0.6,30.0,M,46.9,M,,*53
$GNRMC,000055.50,A,3348.2889,S,15052.3936,E,104.3,005.6,010126,,*3F
$GNGGA,000055.60,3348.2886,S,15052.3971,E,4,18,0.6,30.0,M,46.9,M,,*5C
$GNRMC,000055.60,A,3348.2886,S,15052.3971,E,104.2,007.3,010126,,*36
$GNGGA,000055.70,3348.2882,S,15052.4005,E,4,18,0.6,30.0,M,46.9,M,,*54
$GNRMC,000055.70,A,3348.2882,S,15052.4005,E,104.2,007.3,010126,,*3E
$GNGGA,000055.80,3348.2879,S,15052.4040,E,4,18,0.6,30.0,M,46.9,M,,*5E
$GNRMC,000055.80,A,3348.2879,S,15052.4040,E,104.2,007.3,010126,,*34
$GNGGA,000055.90,3348.2875,S,15052.4074,E,4,18,0.6,30.0,M,46.9,M,,*54
$GNRMC,000055.90,A,3348.2875,S,15052.4074,E,104.1,007.3,010126,,*3D
$GNGGA,000056.00,3348.2871,S,15052.4109,E,4,18,0.6,30.0,M,46.9,M,,*51
$GNRMC,000056.00,A,3348.2871,S,15052.4109,E,104.1,007.3,010126,,*38
$GNGGA,000056.10,3348.2868,S,15052.4143,E,4,18,0.6,30.0,M,46.9,M,,*56
$GNRMC,000056.10,A,3348.2868,S,15052.4143,E,104.0,007.3,010126,,*3E
$GNGGA,000056.20,3348.2864,S,15052.4178,E,4,18,0.6,30.0,M,46.9,M,,*51
$GNRMC,000056.20,A,3348.2864,S,15052.4178,E,104.0,007.3,010126,,*39
$GNGGA,000056.30,3348.2860,S,15052.4212,E,4,18,0.6,30.0,M,46.9,M,,*5B
$GNRMC,000056.30,A,3348.2860,S,15052.4212,E,104.0,007.3,010126,,*33
$GNGGA,000056.40,3348.2857,S,15052.4247,E,4,18,0.6,30.0,M,46.9,M,,*58
$GNRMC,000056.40,A,3348.2857,S,15052.4247,E,103.9,007.3,010126,,*3E
$GNGGA,000056.50,3348.2853,S,15052.4281,E,4,18,0.6,30.0,M,46.9,M,,*57
$GNRMC,000056.50,A,3348.2853,S,15052.4281,E,103.9,007.3,010126,,*31
$GNGGA,000056.60,3348.2849,S,15052.4315,E,4,18,0.6,30.0,M,46.9,M,,*53
$GNRMC,000056.60,A,3348.2849,S,15052.4315,E,103.9,009.0,010126,,*38
$GNGGA,000056.70,3348.2844,S,15052.4350,E,4,18,0.6,30.0,M,46.9,M,,*5E
$GNRMC,000056.70,A,3348.2844,S,15052.4350,E,103.8,009.0,010126,,*34
$GNGGA,000056.80,3348.2840,S,15052.4384,E,4,18,0.6,30.0,M,46.9,M,,*5C
$GNRMC,000056.80,A,3348.2840,S,15052.4384,E,103.8,009.0,010126,,*36
$GNGGA,000056.90,3348.2835,S,15052.4418,E,4,18,0.6,30.0,M,46.9,M,,*5D
$GNRMC,000056.90,A,3348.2835,S,15052.4418,E,103.8,009.0,010126,,*37
$GNGGA,000057.00,3348.2831,S,15052.4453,E,4,18,0.6,30.0,M,46.9,M,,*5E
$GNRMC,000057.00,A,3348.2831,S,15052.4453,E,103.8,009.0,010126,,*34
$GNGGA,000057.10,3348.2826,S,15052.4487,E,4,18,0.6,30.0,M,46.9,M,,*50
$GNRMC,000057.10,A,3348.2826,S,15052.4487,E,103.7,009.0,010126,,*35
$GNGGA,000057.20,3348.2822,S,15052.4521,E,4,18,0.6,30.0,M,46.9,M,,*5A
$GNRMC,000057.20,A,3348.2822,S,15052.4521,E,103.7,009.0,010126,,*3F
$GNGGA,000057.30,3348.2817,S,15052.4555,E,4,18,0.6,30.0,M,46.9,M,,*5E
$GNRMC,000057.30,A,3348.2817,S,15052.4555,E,103.7,009.0,010126,,*3B
$GNGGA,000057.40,3348.2813,S,15052.4589,E,4,18,0.6,30.0,M,46.9,M,,*5C
$GNRMC,000057.40,A,3348.2813,S,15052.4589,E,103.6,009.0,010126,,*38
$GNGGA,000057.50,3348.2808,S,15052.4624,E,4,18,0.6,30.0,M,46.9,M,,*53
$GNRMC,000057.50,A,3348.2808,S,15052.4624,E,103.6,010.8,010126,,*37
$GNGGA,000057.60,3348.2803,S,15052.4658,E,4,18,0.6,30.0,M,46.9,M,,*50
$GNRMC,000057.60,A,3348.2803,S,15052.4658,E,103.6,010.8,010126,,*34
$GNGGA,000057.70,3348.2797,S,15052.4692,E,4,18,0.6,30.0,M,46.9,M,,*55
$GNRMC,000057.70,A,3348.2797,S,15052.4692,E,103.6,010.8,010126,,*31
$GNGGA,000057.80,3348.2792,S,15052.4726,E,4,18,0.6,30.0,M,46.9,M,,*51
$GNRMC,000057.80,A,3348.2792,S,15052.4726,E,103.5,010.8,010126,,*36
$GNGGA,000057.90,3348.2787,S,15052.4760,E,4,18,0.6,30.0,M,46.9,M,,*56
$GNRMC,000057.90,A,3348.2787,S,15052.4760,E,103.5,010.8,010126,,*31
$GNGGA,000058.00,3348.2781,S,15052.4794,E,4,18,0.6,30.0,M,46.9,M,,*5D
$GNRMC,000058.00,A,3348.2781,S,15052.4794,E,103.5,010.8,010126,,*3A
$GNGGA,000058.10,3348.2776,S,15052.4827,E,4,18,0.6,30.0,M,46.9,M,,*53
$GNRMC,000058.10,A,3348.2776,S,15052.4827,E,103.5,010.8,010126,,*34
$GNGGA,000058.20,3348.2770,S,15052.4861,E,4,18,0.6,30.0,M,46.9,M,,*54
$GNRMC,000058.20,A,3348.2770,S,15052.4861,E,103.5,010.8,010126,,*33
$GNGGA,000058.30,3348.2765,S,15052.4895,E,4,18,0.6,30.0,M,46.9,M,,*5A
$GNRMC,000058.30,A,3348.2765,S,15052.4895,E,103.4,010.8,010126,,*3C
$GNGGA,000058.40,3348.2760,S,15052.4929,E,4,18,0.6,30.0,M,46.9,M,,*5E
$GNRMC,000058.40,A,3348.2760,S,15052.4929,E,103.4,010.8,010126,,*38
$GNGGA,000058.50,3348.2754,S,15052.4963,E,4,18,0.6,30.0,M,46.9,M,,*56
$GNRMC,000058.50,A,3348.2754,S,15052.4963,E,103.4,012.7,010126,,*3D
$GNGGA,000058.60,3348.2747,S,15052.4997,E,4,18,0.6,30.0,M,46.9,M,,*5C
$GNRMC,000058.60,A,3348.2747,S,15052.4997,E,103.4,012.7,010126,,*37
$GNGGA,000058.70,3348.2741,S,15052.5031,E,4,18,0.6,30.0,M,46.9,M,,*5F
$GNRMC,000058.70,A,3348.2741,S,15052.5031,E,103.4,012.7,010126,,*34
$GNGGA,000058.80,3348.2735,S,15052.5064,E,4,18,0.6,30.0,M,46.9,M,,*53
$GNRMC,000058.80,A,3348.2735,S,15052.5064,E,103.4,012.7,010126,,*38
$GNGGA,000058.90,3348.2729,S,15052.5098,E,4,18,0.6,30.0,M,46.9,M,,*5C
$GNRMC,000058.90,A,3348.2729,S,15052.5098,E,103.3,012.7,010126,,*30
$GNGGA,000059.00,3348.2722,S,15052.5132,E,4,18,0.6,30.0,M,46.9,M,,*5E
$GNRMC,000059.00,A,3348.2722,S,15052.5132,E,103.3,012.7,010126,,*32
$GNGGA,000059.10,3348.2716,S,15052.5165,E,4,18,0.6,30.0,M,46.9,M,,*5A
$GNRMC,000059.10,A,3348.2716,S,15052.5165,E,103.3,012.7,010126,,*36
$GNGGA,000059.20,3348.2710,S,15052.5199,E,4,18,0.6,30.0,M,46.9,M,,*5C
$GNRMC,000059.20,A,3348.2710,S,15052.5199,E,103.3,012.7,010126,,*30
$GNGGA,000059.30,3348.2703,S,15052.5233,E,4,18,0.6,30.0,M,46.9,M,,*5C
$GNRMC,000059.30,A,3348.2703,S,15052.5233,E,103.3,012.7,010126,,*30
$GNGGA,000059.40,3348.2697,S,15052.5266,E,4,18,0.6,30.0,M,46.9,M,,*57
$GNRMC,000059.40,A,3348.2697,S,15052.5266,E,103.3,014.7,010126,,*3D
$GNGGA,000059.50,3348.2690,S,15052.5300,E,4,18,0.6,30.0,M,46.9,M,,*50
$GNRMC,000059.50,A,3348.2690,S,15052.5300,E,103.3,014.7,010126,,*3A
$GNGGA,000059.60,3348.2682,S,15052.5333,E,4,18,0.6,30.0,M,46.9,M,,*50
$GNRMC,000059.60,A,3348.2682,S,15052.5333,E,103.3,014.7,010126,,*3A
$GNGGA,000059.70,3348.2675,S,15052.5366,E,4,18,0.6,30.0,M,46.9,M,,*59
$GNRMC,000059.70,A,3348.2675,S,15052.5366,E,103.3,014.7,010126,,*33
$GNGGA,000059.80,3348.2668,S,15052.5400,E,4,18,0.6,30.0,M,46.9,M,,*5D
$GNRMC,000059.80,A,3348.2668,S,15052.5400,E,103.2,014.7,010126,,*36
$GNGGA,000059.90,3348.2661,S,15052.5433,E,4,18,0.6,30.0,M,46.9,M,,*55
$GNRMC,000059.90,A,3348.2661,S,15052.5433,E,103.2,014.7,010126,,*3E
