$GNGGA,000000.00,3348.0801,S,15052.7933,E,4,18,0.6,30.0,M,46.9,M,,*55
$GNRMC,000000.00,A,3348.0801,S,15052.7933,E,097.2,111.4,010126,,*35
$GNGGA,000000.10,3348.0776,S,15052.7921,E,4,18,0.6,30.0,M,46.9,M,,*58
$GNRMC,000000.10,A,3348.0776,S,15052.7921,E,097.3,111.4,010126,,*39
$GNGGA,000000.20,3348.0751,S,15052.7909,E,4,18,0.6,30.0,M,46.9,M,,*54
$GNRMC,000000.20,A,3348.0751,S,15052.7909,E,097.3,111.4,010126,,*35
$GNGGA,000000.30,3348.0726,S,15052.7897,E,4,18,0.6,30.0,M,46.9,M,,*53
$GNRMC,000000.30,A,3348.0726,S,15052.7897,E,097.4,111.4,010126,,*35
$GNGGA,000000.40,3348.0701,S,15052.7886,E,4,18,0.6,30.0,M,46.9,M,,*51
$GNRMC,000000.40,A,3348.0701,S,15052.7886,E,097.4,111.4,010126,,*37
$GNGGA,000000.50,3348.0676,S,15052.7873,E,4,18,0.6,30.0,M,46.9,M,,*5B
$GNRMC,000000.50,A,3348.0676,S,15052.7873,E,097.5,119.0,010126,,*30
$GNGGA,000000.60,3348.0652,S,15052.7857,E,4,18,0.6,30.0,M,46.9,M,,*58
$GNRMC,000000.60,A,3348.0652,S,15052.7857,E,097.5,119.0,010126,,*33
$GNGGA,000000.70,3348.0629,S,15052.7842,E,4,18,0.6,30.0,M,46.9,M,,*51
$GNRMC,000000.70,A,3348.0629,S,15052.7842,E,097.6,119.0,010126,,*39
$GNGGA,000000.80,3348.0605,S,15052.7826,E,4,18,0.6,30.0,M,46.9,M,,*52
$GNRMC,000000.80,A,3348.0605,S,15052.7826,E,097.6,119.0,010126,,*3A
$GNGGA,000000.90,3348.0581,S,15052.7810,E,4,18,0.6,30.0,M,46.9,M,,*59
$GNRMC,000000.90,A,3348.0581,S,15052.7810,E,097.7,119.0,010126,,*30
$GNGGA,000001.00,3348.0557,S,15052.7794,E,4,18,0.6,30.0,M,46.9,M,,*59
$GNRMC,000001.00,A,3348.0557,S,15052.7794,E,097.7,119.0,010126,,*30
$GNGGA,000001.10,3348.0535,S,15052.7775,E,4,18,0.6,30.0,M,46.9,M,,*53
$GNRMC,000001.10,A,3348.0535,S,15052.7775,E,097.7,125.8,010126,,*3D
$GNGGA,000001.20,3348.0513,S,15052.7756,E,4,18,0.6,30.0,M,46.9,M,,*55
$GNRMC,000001.20,A,3348.0513,S,15052.7756,E,097.8,125.8,010126,,*34
$GNGGA,000001.30,3348.0491,S,15052.7737,E,4,18,0.6,30.0,M,46.9,M,,*58
$GNRMC,000001.30,A,3348.0491,S,15052.7737,E,097.8,125.8,010126,,*39
$GNGGA,000001.40,3348.0469,S,15052.7718,E,4,18,0.6,30.0,M,46.9,M,,*55
$GNRMC,000001.40,A,3348.0469,S,15052.7718,E,097.9,125.8,010126,,*35
$GNGGA,000001.50,3348.0447,S,15052.7699,E,4,18,0.6,30.0,M,46.9,M,,*50
$GNRMC,000001.50,A,3348.0447,S,15052.7699,E,097.9,125.8,010126,,*30
$GNGGA,000001.60,3348.0426,S,15052.7678,E,4,18,0.6,30.0,M,46.9,M,,*5B
$GNRMC,000001.60,A,3348.0426,S,15052.7678,E,098.0,131.8,010126,,*38
$GNGGA,000001.70,3348.0406,S,15052.7656,E,4,18,0.6,30.0,M,46.9,M,,*54
$GNRMC,000001.70,A,3348.0406,S,15052.7656,E,098.0,131.8,010126,,*37
$GNGGA,000001.80,3348.0386,S,15052.7634,E,4,18,0.6,30.0,M,46.9,M,,*50
$GNRMC,000001.80,A,3348.0386,S,15052.7634,E,098.1,131.8,010126,,*32
$GNGGA,000001.90,3348.0365,S,15052.7613,E,4,18,0.6,30.0,M,46.9,M,,*59
$GNRMC,000001.90,A,3348.0365,S,15052.7613,E,098.1,131.8,010126,,*3B
$GNGGA,000002.00,3348.0345,S,15052.7591,E,4,18,0.6,30.0,M,46.9,M,,*58
$GNRMC,000002.00,A,3348.0345,S,15052.7591,E,098.1,131.8,010126,,*3A
$GNGGA,000002.10,3348.0325,S,15052.7569,E,4,18,0.6,30.0,M,46.9,M,,*58
$GNRMC,000002.10,A,3348.0325,S,15052.7569,E,098.2,131.8,010126,,*39
$GNGGA,000002.20,3348.0306,S,15052.7545,E,4,18,0.6,30.0,M,46.9,M,,*54
$GNRMC,000002.20,A,3348.0306,S,15052.7545,E,098.2,137.1,010126,,*3A
$GNGGA,000002.30,3348.0287,S,15052.7521,E,4,18,0.6,30.0,M,46.9,M,,*5F
$GNRMC,000002.30,A,3348.0287,S,15052.7521,E,098.3,137.1,010126,,*30
$GNGGA,000002.40,3348.0269,S,15052.7497,E,4,18,0.6,30.0,M,46.9,M,,*54
$GNRMC,000002.40,A,3348.0269,S,15052.7497,E,098.3,137.1,010126,,*3B
$GNGGA,000002.50,3348.0250,S,15052.7473,E,4,18,0.6,30.0,M,46.9,M,,*55
$GNRMC,000002.50,A,3348.0250,S,15052.7473,E,098.3,137.1,010126,,*3A
$GNGGA,000002.60,3348.0232,S,15052.7449,E,4,18,0.6,30.0,M,46.9,M,,*5B
$GNRMC,000002.60,A,3348.0232,S,15052.7449,E,098.4,137.1,010126,,*33
$GNGGA,000002.70,3348.0213,S,15052.7425,E,4,18,0.6,30.0,M,46.9,M,,*53
$GNRMC,000002.70,A,3348.0213,S,15052.7425,E,098.4,137.1,010126,,*3B
$GNGGA,000002.80,3348.0196,S,15052.7400,E,4,18,0.6,30.0,M,46.9,M,,*55
$GNRMC,000002.80,A,3348.0196,S,15052.7400,E,098.5,141.8,010126,,*34
$GNGGA,000002.90,3348.0179,S,15052.7374,E,4,18,0.6,30.0,M,46.9,M,,*51
$GNRMC,000002.90,A,3348.0179,S,15052.7374,E,098.5,141.8,010126,,*30
$GNGGA,000003.00,3348.0162,S,15052.7348,E,4,18,0.6,30.0,M,46.9,M,,*5C
$GNRMC,000003.00,A,3348.0162,S,15052.7348,E,098.5,141.8,010126,,*3D
$GNGGA,000003.10,3348.0145,S,15052.7322,E,4,18,0.6,30.0,M,46.9,M,,*54
$GNRMC,000003.10,A,3348.0145,S,15052.7322,E,098.6,141.8,010126,,*36
$GNGGA,000003.20,3348.0128,S,15052.7296,E,4,18,0.6,30.0,M,46.9,M,,*52
$GNRMC,000003.20,A,3348.0128,S,15052.7296,E,098.6,141.8,010126,,*30
$GNGGA,000003.30,3348.0111,S,15052.7270,E,4,18,0.6,30.0,M,46.9,M,,*51
$GNRMC,000003.30,A,3348.0111,S,15052.7270,E,098.7,141.8,010126,,*32
$GNGGA,000003.40,3348.0095,S,15052.7244,E,4,18,0.6,30.0,M,46.9,M,,*5C
$GNRMC,000003.40,A,3348.0095,S,15052.7244,E,098.7,145.9,010126,,*3A
$GNGGA,000003.50,3348.0079,S,15052.7217,E,4,18,0.6,30.0,M,46.9,M,,*59
$GNRMC,000003.50,A,3348.0079,S,15052.7217,E,098.7,145.9,010126,,*3F
$GNGGA,000003.60,3348.0064,S,15052.7189,E,4,18,0.6,30.0,M,46.9,M,,*52
$GNRMC,000003.60,A,3348.0064,S,15052.7189,E,098.8,145.9,010126,,*3B
$GNGGA,000003.70,3348.0048,S,15052.7162,E,4,18,0.6,30.0,M,46.9,M,,*58
$GNRMC,000003.70,A,3348.0048,S,15052.7162,E,098.8,145.9,010126,,*31
$GNGGA,000003.80,3348.0033,S,15052.7135,E,4,18,0.6,30.0,M,46.9,M,,*59
$GNRMC,000003.80,A,3348.0033,S,15052.7135,E,098.8,145.9,010126,,*30
$GNGGA,000003.90,3348.0018,S,15052.7108,E,4,18,0.6,30.0,M,46.9,M,,*5F
$GNRMC,000003.90,A,3348.0018,S,15052.7108,E,098.9,145.9,010126,,*37
$GNGGA,000004.00,3348.0002,S,15052.7080,E,4,18,0.6,30.0,M,46.9,M,,*5B
$GNRMC,000004.00,A,3348.0002,S,15052.7080,E,098.9,145.9,010126,,*33
$GNGGA,000004.10,3347.9987,S,15052.7052,E,4,18,0.6,30.0,M,46.9,M,,*57
$GNRMC,000004.10,A,3347.9987,S,15052.7052,E,098.9,149.6,010126,,*3C
$GNGGA,000004.20,3347.9974,S,15052.7024,E,4,18,0.6,30.0,M,46.9,M,,*59
$GNRMC,000004.20,A,3347.9974,S,15052.7024,E,099.0,149.6,010126,,*3A
$GNGGA,000004.30,3347.9960,S,15052.6995,E,4,18,0.6,30.0,M,46.9,M,,*5F
$GNRMC,000004.30,A,3347.9960,S,15052.6995,E,099.0,149.6,010126,,*3C
$GNGGA,000004.40,3347.9946,S,15052.6967,E,4,18,0.6,30.0,M,46.9,M,,*51
$GNRMC,000004.40,A,3347.9946,S,15052.6967,E,099.0,149.6,010126,,*32
$GNGGA,000004.50,3347.9932,S,15052.6938,E,4,18,0.6,30.0,M,46.9,M,,*59
$GNRMC,000004.50,A,3347.9932,S,15052.6938,E,099.1,149.6,010126,,*3B
$GNGGA,000004.60,3347.9918,S,15052.6910,E,4,18,0.6,30.0,M,46.9,M,,*58
$GNRMC,000004.60,A,3347.9918,S,15052.6910,E,099.1,149.6,010126,,*3A
$GNGGA,000004.70,3347.9904,S,15052.6881,E,4,18,0.6,30.0,M,46.9,M,,*5D
$GNRMC,000004.70,A,3347.9904,S,15052.6881,E,099.1,149.6,010126,,*3F
$GNGGA,000004.80,3347.9890,S,15052.6853,E,4,18,0.6,30.0,M,46.9,M,,*51
$GNRMC,000004.80,A,3347.9890,S,15052.6853,E,099.1,152.8,010126,,*37
$GNGGA,000004.90,3347.9878,S,15052.6823,E,4,18,0.6,30.0,M,46.9,M,,*51
$GNRMC,000004.90,A,3347.9878,S,15052.6823,E,099.2,152.8,010126,,*34
$GNGGA,000005.00,3347.9865,S,15052.6794,E,4,18,0.6,30.0,M,46.9,M,,*56
$GNRMC,000005.00,A,3347.9865,S,15052.6794,E,099.2,152.8,010126,,*33
$GNGGA,000005.10,3347.9852,S,15052.6764,E,4,18,0.6,30.0,M,46.9,M,,*5C
$GNRMC,000005.10,A,3347.9852,S,15052.6764,E,099.2,152.8,010126,,*39
$GNGGA,000005.20,3347.9840,S,15052.6735,E,4,18,0.6,30.0,M,46.9,M,,*58
$GNRMC,000005.20,A,3347.9840,S,15052.6735,E,099.3,152.8,010126,,*3C
$GNGGA,000005.30,3347.9827,S,15052.6705,E,4,18,0.6,30.0,M,46.9,M,,*5B
$GNRMC,000005.30,A,3347.9827,S,15052.6705,E,099.3,152.8,010126,,*3F
$GNGGA,000005.40,3347.9815,S,15052.6676,E,4,18,0.6,30.0,M,46.9,M,,*58
$GNRMC,000005.40,A,3347.9815,S,15052.6676,E,099.3,152.8,010126,,*3C
$GNGGA,000005.50,3347.9802,S,15052.6646,E,4,18,0.6,30.0,M,46.9,M,,*5C
$GNRMC,000005.50,A,3347.9802,S,15052.6646,E,099.3,152.8,010126,,*38
$GNGGA,000005.60,3347.9790,S,15052.6616,E,4,18,0.6,30.0,M,46.9,M,,*5E
$GNRMC,000005.60,A,3347.9790,S,15052.6616,E,099.4,155.8,010126,,*3A
$GNGGA,000005.70,3347.9779,S,15052.6586,E,4,18,0.6,30.0,M,46.9,M,,*52
$GNRMC,000005.70,A,3347.9779,S,15052.6586,E,099.4,155.8,010126,,*36
$GNGGA,000005.80,3347.9767,S,15052.6556,E,4,18,0.6,30.0,M,46.9,M,,*5F
$GNRMC,000005.80,A,3347.9767,S,15052.6556,E,099.4,155.8,010126,,*3B
$GNGGA,000005.90,3347.9756,S,15052.6526,E,4,18,0.6,30.0,M,46.9,M,,*5B
$GNRMC,000005.90,A,3347.9756,S,15052.6526,E,099.4,155.8,010126,,*3F
$GNGGA,000006.00,3347.9745,S,15052.6495,E,4,18,0.6,30.0,M,46.9,M,,*5A
$GNRMC,000006.00,A,3347.9745,S,15052.6495,E,099.4,155.8,010126,,*3E
$GNGGA,000006.10,3347.9734,S,15052.6465,E,4,18,0.6,30.0,M,46.9,M,,*52
$GNRMC,000006.10,A,3347.9734,S,15052.6465,E,099.5,155.8,010126,,*37
$GNGGA,000006.20,3347.9722,S,15052.6435,E,4,18,0.6,30.0,M,46.9,M,,*53
$GNRMC,000006.20,A,3347.9722,S,15052.6435,E,099.5,155.8,010126,,*36
$GNGGA,000006.30,3347.9711,S,15052.6404,E,4,18,0.6,30.0,M,46.9,M,,*50
$GNRMC,000006.30,A,3347.9711,S,15052.6404,E,099.5,155.8,010126,,*35
$GNGGA,000006.40,3347.9700,S,15052.6374,E,4,18,0.6,30.0,M,46.9,M,,*57
$GNRMC,000006.40,A,3347.9700,S,15052.6374,E,099.5,158.5,010126,,*32
$GNGGA,000006.50,3347.9690,S,15052.6343,E,4,18,0.6,30.0,M,46.9,M,,*5A
$GNRMC,000006.50,A,3347.9690,S,15052.6343,E,099.5,158.5,010126,,*3F
$GNGGA,000006.60,3347.9680,S,15052.6312,E,4,18,0.6,30.0,M,46.9,M,,*5C
$GNRMC,000006.60,A,3347.9680,S,15052.6312,E,099.6,158.5,010126,,*3A
$GNGGA,000006.70,3347.9670,S,15052.6281,E,4,18,0.6,30.0,M,46.9,M,,*59
$GNRMC,000006.70,A,3347.9670,S,15052.6281,E,099.6,158.5,010126,,*3F
$GNGGA,000006.80,3347.9660,S,15052.6250,E,4,18,0.6,30.0,M,46.9,M,,*5B
$GNRMC,000006.80,A,3347.9660,S,15052.6250,E,099.6,158.5,010126,,*3D
$GNGGA,000006.90,3347.9649,S,15052.6219,E,4,18,0.6,30.0,M,46.9,M,,*5C
$GNRMC,000006.90,A,3347.9649,S,15052.6219,E,099.6,158.5,010126,,*3A
$GNGGA,000007.00,3347.9639,S,15052.6188,E,4,18,0.6,30.0,M,46.9,M,,*58
$GNRMC,000007.00,A,3347.9639,S,15052.6188,E,099.6,158.5,010126,,*3E
$GNGGA,000007.10,3347.9629,S,15052.6157,E,4,18,0.6,30.0,M,46.9,M,,*5A
$GNRMC,000007.10,A,3347.9629,S,15052.6157,E,099.6,158.5,010126,,*3C
$GNGGA,000007.20,3347.9619,S,15052.6126,E,4,18,0.6,30.0,M,46.9,M,,*5C
$GNRMC,000007.20,A,3347.9619,S,15052.6126,E,099.6,160.9,010126,,*3D
$GNGGA,000007.30,3347.9610,S,15052.6095,E,4,18,0.6,30.0,M,46.9,M,,*5D
$GNRMC,000007.30,A,3347.9610,S,15052.6095,E,099.6,160.9,010126,,*3C
$GNGGA,000007.40,3347.9601,S,15052.6063,E,4,18,0.6,30.0,M,46.9,M,,*53
$GNRMC,000007.40,A,3347.9601,S,15052.6063,E,099.7,160.9,010126,,*33
$GNGGA,000007.50,3347.9592,S,15052.6032,E,4,18,0.6,30.0,M,46.9,M,,*5F
$GNRMC,000007.50,A,3347.9592,S,15052.6032,E,099.7,160.9,010126,,*3F
$GNGGA,000007.60,3347.9583,S,15052.6000,E,4,18,0.6,30.0,M,46.9,M,,*5D
$GNRMC,000007.60,A,3347.9583,S,15052.6000,E,099.7,160.9,010126,,*3D
$GNGGA,000007.70,3347.9574,S,15052.5969,E,4,18,0.6,30.0,M,46.9,M,,*51
$GNRMC,000007.70,A,3347.9574,S,15052.5969,E,099.7,160.9,010126,,*31
$GNGGA,000007.80,3347.9565,S,15052.5937,E,4,18,0.6,30.0,M,46.9,M,,*55
$GNRMC,000007.80,A,3347.9565,S,15052.5937,E,099.7,160.9,010126,,*35
$GNGGA,000007.90,3347.9556,S,15052.5906,E,4,18,0.6,30.0,M,46.9,M,,*56
$GNRMC,000007.90,A,3347.9556,S,15052.5906,E,099.7,160.9,010126,,*36
$GNGGA,000008.00,3347.9547,S,15052.5874,E,4,18,0.6,30.0,M,46.9,M,,*54
$GNRMC,000008.00,A,3347.9547,S,15052.5874,E,099.7,160.9,010126,,*34
$GNGGA,000008.10,3347.9538,S,15052.5843,E,4,18,0.6,30.0,M,46.9,M,,*59
$GNRMC,000008.10,A,3347.9538,S,15052.5843,E,099.7,163.2,010126,,*31
$GNGGA,000008.20,3347.9530,S,15052.5811,E,4,18,0.6,30.0,M,46.9,M,,*55
$GNRMC,000008.20,A,3347.9530,S,15052.5811,E,099.7,163.2,010126,,*3D
$GNGGA,000008.30,3347.9522,S,15052.5779,E,4,18,0.6,30.0,M,46.9,M,,*56
$GNRMC,000008.30,A,3347.9522,S,15052.5779,E,099.7,163.2,010126,,*3E
$GNGGA,000008.40,3347.9514,S,15052.5747,E,4,18,0.6,30.0,M,46.9,M,,*59
$GNRMC,000008.40,A,3347.9514,S,15052.5747,E,099.7,163.2,010126,,*31
$GNGGA,000008.50,3347.9506,S,15052.5715,E,4,18,0.6,30.0,M,46.9,M,,*5C
$GNRMC,000008.50,A,3347.9506,S,15052.5715,E,099.7,163.2,010126,,*34
$GNGGA,000008.60,3347.9498,S,15052.5683,E,4,18,0.6,30.0,M,46.9,M,,*57
$GNRMC,000008.60,A,3347.9498,S,15052.5683,E,099.7,163.2,010126,,*3F
$GNGGA,000008.70,3347.9490,S,15052.5652,E,4,18,0.6,30.0,M,46.9,M,,*52
$GNRMC,000008.70,A,3347.9490,S,15052.5652,E,099.7,163.2,010126,,*3A
$GNGGA,000008.80,3347.9482,S,15052.5620,E,4,18,0.6,30.0,M,46.9,M,,*5B
$GNRMC,000008.80,A,3347.9482,S,15052.5620,E,099.7,163.2,010126,,*33
$GNGGA,000008.90,3347.9474,S,15052.5588,E,4,18,0.6,30.0,M,46.9,M,,*52
$GNRMC,000008.90,A,3347.9474,S,15052.5588,E,099.7,163.2,010126,,*3A
$GNGGA,000009.00,3347.9466,S,15052.5556,E,4,18,0.6,30.0,M,46.9,M,,*5A
$GNRMC,000009.00,A,3347.9466,S,15052.5556,E,099.7,165.3,010126,,*35
$GNGGA,000009.10,3347.9459,S,15052.5524,E,4,18,0.6,30.0,M,46.9,M,,*52
$GNRMC,000009.10,A,3347.9459,S,15052.5524,E,099.7,165.3,010126,,*3D
$GNGGA,000009.20,3347.9452,S,15052.5491,E,4,18,0.6,30.0,M,46.9,M,,*55
$GNRMC,000009.20,A,3347.9452,S,15052.5491,E,099.7,165.3,010126,,*3A
$GNGGA,000009.30,3347.9445,S,15052.5459,E,4,18,0.6,30.0,M,46.9,M,,*56
$GNRMC,000009.30,A,3347.9445,S,15052.5459,E,099.7,165.3,010126,,*39
$GNGGA,000009.40,3347.9438,S,15052.5427,E,4,18,0.6,30.0,M,46.9,M,,*52
$GNRMC,000009.40,A,3347.9438,S,15052.5427,E,099.7,165.3,010126,,*3D
$GNGGA,000009.50,3347.9431,S,15052.5395,E,4,18,0.6,30.0,M,46.9,M,,*54
$GNRMC,000009.50,A,3347.9431,S,15052.5395,E,099.7,165.3,010126,,*3B
$GNGGA,000009.60,3347.9424,S,15052.5362,E,4,18,0.6,30.0,M,46.9,M,,*5B
$GNRMC,000009.60,A,3347.9424,S,15052.5362,E,099.7,165.3,010126,,*34
$GNGGA,000009.70,3347.9417,S,15052.5330,E,4,18,0.6,30.0,M,46.9,M,,*5D
$GNRMC,000009.70,A,3347.9417,S,15052.5330,E,099.7,165.3,010126,,*32
$GNGGA,000009.80,3347.9410,S,15052.5298,E,4,18,0.6,30.0,M,46.9,M,,*56
$GNRMC,000009.80,A,3347.9410,S,15052.5298,E,099.7,165.3,010126,,*39
$GNGGA,000009.90,3347.9403,S,15052.5266,E,4,18,0.6,30.0,M,46.9,M,,*54
$GNRMC,000009.90,A,3347.9403,S,15052.5266,E,099.7,165.3,010126,,*3B
$GNGGA,000010.00,3347.9397,S,15052.5233,E,4,18,0.6,30.0,M,46.9,M,,*5F
$GNRMC,000010.00,A,3347.9397,S,15052.5233,E,099.6,167.3,010126,,*33
$GNGGA,000010.10,3347.9391,S,15052.5201,E,4,18,0.6,30.0,M,46.9,M,,*59
$GNRMC,000010.10,A,3347.9391,S,15052.5201,E,099.6,167.3,010126,,*35
$GNGGA,000010.20,3347.9385,S,15052.5168,E,4,18,0.6,30.0,M,46.9,M,,*53
$GNRMC,000010.20,A,3347.9385,S,15052.5168,E,099.6,167.3,010126,,*3F
$GNGGA,000010.30,3347.9379,S,15052.5136,E,4,18,0.6,30.0,M,46.9,M,,*5A
$GNRMC,000010.30,A,3347.9379,S,15052.5136,E,099.6,167.3,010126,,*36
$GNGGA,000010.40,3347.9373,S,15052.5104,E,4,18,0.6,30.0,M,46.9,M,,*56
$GNRMC,000010.40,A,3347.9373,S,15052.5104,E,099.6,167.3,010126,,*3A
$GNGGA,000010.50,3347.9366,S,15052.5071,E,4,18,0.6,30.0,M,46.9,M,,*50
$GNRMC,000010.50,A,3347.9366,S,15052.5071,E,099.6,167.3,010126,,*3C
$GNGGA,000010.60,3347.9360,S,15052.5039,E,4,18,0.6,30.0,M,46.9,M,,*59
$GNRMC,000010.60,A,3347.9360,S,15052.5039,E,099.6,167.3,010126,,*35
$GNGGA,000010.70,3347.9354,S,15052.5006,E,4,18,0.6,30.0,M,46.9,M,,*53
$GNRMC,000010.70,A,3347.9354,S,15052.5006,E,099.6,167.3,010126,,*3F
$GNGGA,000010.80,3347.9348,S,15052.4974,E,4,18,0.6,30.0,M,46.9,M,,*5C
$GNRMC,000010.80,A,3347.9348,S,15052.4974,E,099.5,167.3,010126,,*33
$GNGGA,000010.90,3347.9342,S,15052.4941,E,4,18,0.6,30.0,M,46.9,M,,*51
$GNRMC,000010.90,A,3347.9342,S,15052.4941,E,099.5,169.2,010126,,*31
$GNGGA,000011.00,3347.9337,S,15052.4909,E,4,18,0.6,30.0,M,46.9,M,,*57
$GNRMC,000011.00,A,3347.9337,S,15052.4909,E,099.5,169.2,010126,,*37
$GNGGA,000011.10,3347.9332,S,15052.4876,E,4,18,0.6,30.0,M,46.9,M,,*5A
$GNRMC,000011.10,A,3347.9332,S,15052.4876,E,099.5,169.2,010126,,*3A
$GNGGA,000011.20,3347.9327,S,15052.4843,E,4,18,0.6,30.0,M,46.9,M,,*5B
$GNRMC,000011.20,A,3347.9327,S,15052.4843,E,099.5,169.2,010126,,*3B
$GNGGA,000011.30,3347.9322,S,15052.4811,E,4,18,0.6,30.0,M,46.9,M,,*58
$GNRMC,000011.30,A,3347.9322,S,15052.4811,E,099.4,169.2,010126,,*39
$GNGGA,000011.40,3347.9316,S,15052.4778,E,4,18,0.6,30.0,M,46.9,M,,*58
$GNRMC,000011.40,A,3347.9316,S,15052.4778,E,099.4,169.2,010126,,*39
$GNGGA,000011.50,3347.9311,S,15052.4745,E,4,18,0.6,30.0,M,46.9,M,,*50
$GNRMC,000011.50,A,3347.9311,S,15052.4745,E,099.4,169.2,010126,,*31
$GNGGA,000011.60,3347.9306,S,15052.4713,E,4,18,0.6,30.0,M,46.9,M,,*56
$GNRMC,000011.60,A,3347.9306,S,15052.4713,E,099.4,169.2,010126,,*37
$GNGGA,000011.70,3347.9301,S,15052.4680,E,4,18,0.6,30.0,M,46.9,M,,*5B
$GNRMC,000011.70,A,3347.9301,S,15052.4680,E,099.4,169.2,010126,,*3A
$GNGGA,000011.80,3347.9296,S,15052.4648,E,4,18,0.6,30.0,M,46.9,M,,*5F
$GNRMC,000011.80,A,3347.9296,S,15052.4648,E,099.3,169.2,010126,,*39
$GNGGA,000011.90,3347.9291,S,15052.4615,E,4,18,0.6,30.0,M,46.9,M,,*51
$GNRMC,000011.90,A,3347.9291,S,15052.4615,E,099.3,171.0,010126,,*3C
$GNGGA,000012.00,3347.9286,S,15052.4582,E,4,18,0.6,30.0,M,46.9,M,,*50
$GNRMC,000012.00,A,3347.9286,S,15052.4582,E,099.3,171.0,010126,,*3D
$GNGGA,000012.10,3347.9282,S,15052.4549,E,4,18,0.6,30.0,M,46.9,M,,*52
$GNRMC,000012.10,A,3347.9282,S,15052.4549,E,099.3,171.0,010126,,*3F
$GNGGA,000012.20,3347.9278,S,15052.4517,E,4,18,0.6,30.0,M,46.9,M,,*5F
$GNRMC,000012.20,A,3347.9278,S,15052.4517,E,099.2,171.0,010126,,*33
$GNGGA,000012.30,3347.9273,S,15052.4484,E,4,18,0.6,30.0,M,46.9,M,,*5E
$GNRMC,000012.30,A,3347.9273,S,15052.4484,E,099.2,171.0,010126,,*32
$GNGGA,000012.40,3347.9269,S,15052.4451,E,4,18,0.6,30.0,M,46.9,M,,*5A
$GNRMC,000012.40,A,3347.9269,S,15052.4451,E,099.2,171.0,010126,,*36
$GNGGA,000012.50,3347.9265,S,15052.4418,E,4,18,0.6,30.0,M,46.9,M,,*5A
$GNRMC,000012.50,A,3347.9265,S,15052.4418,E,099.2,171.0,010126,,*36
$GNGGA,000012.60,3347.9261,S,15052.4386,E,4,18,0.6,30.0,M,46.9,M,,*5D
$GNRMC,000012.60,A,3347.9261,S,15052.4386,E,099.1,171.0,010126,,*32
$GNGGA,000012.70,3347.9256,S,15052.4353,E,4,18,0.6,30.0,M,46.9,M,,*50
$GNRMC,000012.70,A,3347.9256,S,15052.4353,E,099.1,171.0,010126,,*3F
$GNGGA,000012.80,3347.9252,S,15052.4320,E,4,18,0.6,30.0,M,46.9,M,,*5F
$GNRMC,000012.80,A,3347.9252,S,15052.4320,E,099.1,171.0,010126,,*30
$GNGGA,000012.90,3347.9248,S,15052.4288,E,4,18,0.6,30.0,M,46.9,M,,*56
$GNRMC,000012.90,A,3347.9248,S,15052.4288,E,099.0,172.7,010126,,*3C
$GNGGA,000013.00,3347.9244,S,15052.4255,E,4,18,0.6,30.0,M,46.9,M,,*52
$GNRMC,000013.00,A,3347.9244,S,15052.4255,E,099.0,172.7,010126,,*38
$GNGGA,000013.10,3347.9241,S,15052.4222,E,4,18,0.6,30.0,M,46.9,M,,*56
$GNRMC,000013.10,A,3347.9241,S,15052.4222,E,099.0,172.7,010126,,*3C
$GNGGA,000013.20,3347.9237,S,15052.4189,E,4,18,0.6,30.0,M,46.9,M,,*56
$GNRMC,000013.20,A,3347.9237,S,15052.4189,E,098.9,172.7,010126,,*34
$GNGGA,000013.30,3347.9234,S,15052.4156,E,4,18,0.6,30.0,M,46.9,M,,*56
$GNRMC,000013.30,A,3347.9234,S,15052.4156,E,098.9,172.7,010126,,*34
$GNGGA,000013.40,3347.9230,S,15052.4124,E,4,18,0.6,30.0,M,46.9,M,,*50
$GNRMC,000013.40,A,3347.9230,S,15052.4124,E,098.9,172.7,010126,,*32
$GNGGA,000013.50,3347.9227,S,15052.4091,E,4,18,0.6,30.0,M,46.9,M,,*58
$GNRMC,000013.50,A,3347.9227,S,15052.4091,E,098.8,172.7,010126,,*3B
$GNGGA,000013.60,3347.9223,S,15052.4058,E,4,18,0.6,30.0,M,46.9,M,,*5A
$GNRMC,000013.60,A,3347.9223,S,15052.4058,E,098.8,172.7,010126,,*39
$GNGGA,000013.70,3347.9220,S,15052.4025,E,4,18,0.6,30.0,M,46.9,M,,*52
$GNRMC,000013.70,A,3347.9220,S,15052.4025,E,098.8,172.7,010126,,*31
$GNGGA,000013.80,3347.9216,S,15052.3993,E,4,18,0.6,30.0,M,46.9,M,,*5B
$GNRMC,000013.80,A,3347.9216,S,15052.3993,E,098.7,172.7,010126,,*37
$GNGGA,000013.90,3347.9213,S,15052.3960,E,4,18,0.6,30.0,M,46.9,M,,*53
$GNRMC,000013.90,A,3347.9213,S,15052.3960,E,098.7,172.7,010126,,*3F
$GNGGA,000014.00,3347.9210,S,15052.3927,E,4,18,0.6,30.0,M,46.9,M,,*5D
$GNRMC,000014.00,A,3347.9210,S,15052.3927,E,098.7,174.4,010126,,*34
$GNGGA,000014.10,3347.9207,S,15052.3894,E,4,18,0.6,30.0,M,46.9,M,,*53
$GNRMC,000014.10,A,3347.9207,S,15052.3894,E,098.6,174.4,010126,,*3B
$GNGGA,000014.20,3347.9205,S,15052.3862,E,4,18,0.6,30.0,M,46.9,M,,*5B
$GNRMC,000014.20,A,3347.9205,S,15052.3862,E,098.6,174.4,010126,,*33
$GNGGA,000014.30,3347.9202,S,15052.3829,E,4,18,0.6,30.0,M,46.9,M,,*52
$GNRMC,000014.30,A,3347.9202,S,15052.3829,E,098.5,174.4,010126,,*39
$GNGGA,000014.40,3347.9199,S,15052.3796,E,4,18,0.6,30.0,M,46.9,M,,*5F
$GNRMC,000014.40,A,3347.9199,S,15052.3796,E,098.5,174.4,010126,,*34
$GNGGA,000014.50,3347.9197,S,15052.3763,E,4,18,0.6,30.0,M,46.9,M,,*5A
$GNRMC,000014.50,A,3347.9197,S,15052.3763,E,098.5,174.4,010126,,*31
$GNGGA,000014.60,3347.9194,S,15052.3731,E,4,18,0.6,30.0,M,46.9,M,,*5D
$GNRMC,000014.60,A,3347.9194,S,15052.3731,E,098.4,174.4,010126,,*37
$GNGGA,000014.70,3347.9191,S,15052.3698,E,4,18,0.6,30.0,M,46.9,M,,*5B
$GNRMC,000014.70,A,3347.9191,S,15052.3698,E,098.4,174.4,010126,,*31
$GNGGA,000014.80,3347.9189,S,15052.3665,E,4,18,0.6,30.0,M,46.9,M,,*5F
$GNRMC,000014.80,A,3347.9189,S,15052.3665,E,098.4,174.4,010126,,*35
$GNGGA,000014.90,3347.9186,S,15052.3632,E,4,18,0.6,30.0,M,46.9,M,,*53
$GNRMC,000014.90,A,3347.9186,S,15052.3632,E,098.3,174.4,010126,,*3E
$GNGGA,000015.00,3347.9183,S,15052.3600,E,4,18,0.6,30.0,M,46.9,M,,*5F
$GNRMC,000015.00,A,3347.9183,S,15052.3600,E,098.3,176.0,010126,,*34
$GNGGA,000015.10,3347.9181,S,15052.3567,E,4,18,0.6,30.0,M,46.9,M,,*5E
$GNRMC,000015.10,A,3347.9181,S,15052.3567,E,098.2,176.0,010126,,*34
$GNGGA,000015.20,3347.9179,S,15052.3534,E,4,18,0.6,30.0,M,46.9,M,,*5C
$GNRMC,000015.20,A,3347.9179,S,15052.3534,E,098.2,176.0,010126,,*36
$GNGGA,000015.30,3347.9178,S,15052.3502,E,4,18,0.6,30.0,M,46.9,M,,*59
$GNRMC,000015.30,A,3347.9178,S,15052.3502,E,098.1,176.0,010126,,*30
$GNGGA,000015.40,3347.9176,S,15052.3469,E,4,18,0.6,30.0,M,46.9,M,,*5C
$GNRMC,000015.40,A,3347.9176,S,15052.3469,E,098.1,176.0,010126,,*35
$GNGGA,000015.50,3347.9174,S,15052.3436,E,4,18,0.6,30.0,M,46.9,M,,*55
$GNRMC,000015.50,A,3347.9174,S,15052.3436,E,098.1,176.0,010126,,*3C
$GNGGA,000015.60,3347.9172,S,15052.3403,E,4,18,0.6,30.0,M,46.9,M,,*56
$GNRMC,000015.60,A,3347.9172,S,15052.3403,E,098.0,176.0,010126,,*3E
$GNGGA,000015.70,3347.9170,S,15052.3371,E,4,18,0.6,30.0,M,46.9,M,,*57
$GNRMC,000015.70,A,3347.9170,S,15052.3371,E,098.0,176.0,010126,,*3F
$GNGGA,000015.80,3347.9168,S,15052.3338,E,4,18,0.6,30.0,M,46.9,M,,*5C
$GNRMC,000015.80,A,3347.9168,S,15052.3338,E,097.9,176.0,010126,,*32
$GNGGA,000015.90,3347.9166,S,15052.3306,E,4,18,0.6,30.0,M,46.9,M,,*5E
$GNRMC,000015.90,A,3347.9166,S,15052.3306,E,097.9,176.0,010126,,*30
$GNGGA,000016.00,3347.9164,S,15052.3273,E,4,18,0.6,30.0,M,46.9,M,,*55
$GNRMC,000016.00,A,3347.9164,S,15052.3273,E,097.8,176.0,010126,,*3A
$GNGGA,000016.10,3347.9163,S,15052.3240,E,4,18,0.6,30.0,M,46.9,M,,*53
$GNRMC,000016.10,A,3347.9163,S,15052.3240,E,097.8,177.6,010126,,*3B
$GNGGA,000016.20,3347.9162,S,15052.3208,E,4,18,0.6,30.0,M,46.9,M,,*5D
$GNRMC,000016.20,A,3347.9162,S,15052.3208,E,097.8,177.6,010126,,*35
$GNGGA,000016.30,3347.9160,S,15052.3175,E,4,18,0.6,30.0,M,46.9,M,,*57
$GNRMC,000016.30,A,3347.9160,S,15052.3175,E,097.7,177.6,010126,,*30
$GNGGA,000016.40,3347.9159,S,15052.3142,E,4,18,0.6,30.0,M,46.9,M,,*5E
$GNRMC,000016.40,A,3347.9159,S,15052.3142,E,097.7,177.6,010126,,*39
$GNGGA,000016.50,3347.9158,S,15052.3110,E,4,18,0.6,30.0,M,46.9,M,,*59
$GNRMC,000016.50,A,3347.9158,S,15052.3110,E,097.6,177.6,010126,,*3F
$GNGGA,000016.60,3347.9157,S,15052.3077,E,4,18,0.6,30.0,M,46.9,M,,*55
$GNRMC,000016.60,A,3347.9157,S,15052.3077,E,097.6,177.6,010126,,*33
$GNGGA,000016.70,3347.9156,S,15052.3045,E,4,18,0.6,30.0,M,46.9,M,,*54
$GNRMC,000016.70,A,3347.9156,S,15052.3045,E,097.5,177.6,010126,,*31
$GNGGA,000016.80,3347.9155,S,15052.3012,E,4,18,0.6,30.0,M,46.9,M,,*5A
$GNRMC,000016.80,A,3347.9155,S,15052.3012,E,097.5,177.6,010126,,*3F
$GNGGA,000016.90,3347.9154,S,15052.2980,E,4,18,0.6,30.0,M,46.9,M,,*59
$GNRMC,000016.90,A,3347.9154,S,15052.2980,E,097.4,177.6,010126,,*3D
$GNGGA,000017.00,3347.9153,S,15052.2947,E,4,18,0.6,30.0,M,46.9,M,,*5D
$GNRMC,000017.00,A,3347.9153,S,15052.2947,E,097.4,177.6,010126,,*39
$GNGGA,000017.10,3347.9151,S,15052.2915,E,4,18,0.6,30.0,M,46.9,M,,*59
$GNRMC,000017.10,A,3347.9151,S,15052.2915,E,097.3,177.6,010126,,*3A
$GNGGA,000017.20,3347.9151,S,15052.2882,E,4,18,0.6,30.0,M,46.9,M,,*55
$GNRMC,000017.20,A,3347.9151,S,15052.2882,E,097.3,179.2,010126,,*3C
$GNGGA,000017.30,3347.9150,S,15052.2850,E,4,18,0.6,30.0,M,46.9,M,,*5A
$GNRMC,000017.30,A,3347.9150,S,15052.2850,E,097.3,179.2,010126,,*33
$GNGGA,000017.40,3347.9150,S,15052.2817,E,4,18,0.6,30.0,M,46.9,M,,*5E
$GNRMC,000017.40,A,3347.9150,S,15052.2817,E,097.2,179.2,010126,,*36
$GNGGA,000017.50,3347.9150,S,15052.2785,E,4,18,0.6,30.0,M,46.9,M,,*5B
$GNRMC,000017.50,A,3347.9150,S,15052.2785,E,097.2,179.2,010126,,*33
$GNGGA,000017.60,3347.9149,S,15052.2752,E,4,18,0.6,30.0,M,46.9,M,,*5A
$GNRMC,000017.60,A,3347.9149,S,15052.2752,E,097.1,179.2,010126,,*31
$GNGGA,000017.70,3347.9149,S,15052.2720,E,4,18,0.6,30.0,M,46.9,M,,*5E
$GNRMC,000017.70,A,3347.9149,S,15052.2720,E,097.1,179.2,010126,,*35
$GNGGA,000017.80,3347.9148,S,15052.2687,E,4,18,0.6,30.0,M,46.9,M,,*5C
$GNRMC,000017.80,A,3347.9148,S,15052.2687,E,097.0,179.2,010126,,*36
$GNGGA,000017.90,3347.9148,S,15052.2655,E,4,18,0.6,30.0,M,46.9,M,,*52
$GNRMC,000017.90,A,3347.9148,S,15052.2655,E,097.0,179.2,010126,,*38
$GNGGA,000018.00,3347.9148,S,15052.2623,E,4,18,0.6,30.0,M,46.9,M,,*55
$GNRMC,000018.00,A,3347.9148,S,15052.2623,E,096.9,179.2,010126,,*37
$GNGGA,000018.10,3347.9147,S,15052.2590,E,4,18,0.6,30.0,M,46.9,M,,*50
$GNRMC,000018.10,A,3347.9147,S,15052.2590,E,096.9,179.2,010126,,*32
$GNGGA,000018.20,3347.9147,S,15052.2558,E,4,18,0.6,30.0,M,46.9,M,,*57
$GNRMC,000018.20,A,3347.9147,S,15052.2558,E,096.8,179.2,010126,,*34
$GNGGA,000018.30,3347.9147,S,15052.2525,E,4,18,0.6,30.0,M,46.9,M,,*5C
$GNRMC,000018.30,A,3347.9147,S,15052.2525,E,096.8,180.8,010126,,*33
$GNGGA,000018.40,3347.9147,S,15052.2493,E,4,18,0.6,30.0,M,46.9,M,,*57
$GNRMC,000018.40,A,3347.9147,S,15052.2493,E,096.7,180.8,010126,,*37
$GNGGA,000018.50,3347.9148,S,15052.2461,E,4,18,0.6,30.0,M,46.9,M,,*54
$GNRMC,000018.50,A,3347.9148,S,15052.2461,E,096.7,180.8,010126,,*34
$GNGGA,000018.60,3347.9148,S,15052.2428,E,4,18,0.6,30.0,M,46.9,M,,*5A
$GNRMC,000018.60,A,3347.9148,S,15052.2428,E,096.6,180.8,010126,,*3B
$GNGGA,000018.70,3347.9148,S,15052.2396,E,4,18,0.6,30.0,M,46.9,M,,*59
$GNRMC,000018.70,A,3347.9148,S,15052.2396,E,096.6,180.8,010126,,*38
$GNGGA,000018.80,3347.9149,S,15052.2364,E,4,18,0.6,30.0,M,46.9,M,,*5A
$GNRMC,000018.80,A,3347.9149,S,15052.2364,E,096.5,180.8,010126,,*38
$GNGGA,000018.90,3347.9149,S,15052.2332,E,4,18,0.6,30.0,M,46.9,M,,*58
$GNRMC,000018.90,A,3347.9149,S,15052.2332,E,096.5,180.8,010126,,*3A
$GNGGA,000019.00,3347.9150,S,15052.2299,E,4,18,0.6,30.0,M,46.9,M,,*58
$GNRMC,000019.00,A,3347.9150,S,15052.2299,E,096.5,180.8,010126,,*3A
$GNGGA,000019.10,3347.9150,S,15052.2267,E,4,18,0.6,30.0,M,46.9,M,,*58
$GNRMC,000019.10,A,3347.9150,S,15052.2267,E,096.4,180.8,010126,,*3B
$GNGGA,000019.20,3347.9150,S,15052.2235,E,4,18,0.6,30.0,M,46.9,M,,*5C
$GNRMC,000019.20,A,3347.9150,S,15052.2235,E,096.4,180.8,010126,,*3F
$GNGGA,000019.30,3347.9151,S,15052.2203,E,4,18,0.6,30.0,M,46.9,M,,*59
$GNRMC,000019.30,A,3347.9151,S,15052.2203,E,096.3,180.8,010126,,*3D
$GNGGA,000019.40,3347.9151,S,15052.2171,E,4,18,0.6,30.0,M,46.9,M,,*58
$GNRMC,000019.40,A,3347.9151,S,15052.2171,E,096.3,182.4,010126,,*32
$GNGGA,000019.50,3347.9152,S,15052.2139,E,4,18,0.6,30.0,M,46.9,M,,*56
$GNRMC,000019.50,A,3347.9152,S,15052.2139,E,096.2,182.4,010126,,*3D
$GNGGA,000019.60,3347.9154,S,15052.2106,E,4,18,0.6,30.0,M,46.9,M,,*5F
$GNRMC,000019.60,A,3347.9154,S,15052.2106,E,096.2,182.4,010126,,*34
$GNGGA,000019.70,3347.9155,S,15052.2074,E,4,18,0.6,30.0,M,46.9,M,,*5B
$GNRMC,000019.70,A,3347.9155,S,15052.2074,E,096.1,182.4,010126,,*33
$GNGGA,000019.80,3347.9156,S,15052.2042,E,4,18,0.6,30.0,M,46.9,M,,*52
$GNRMC,000019.80,A,3347.9156,S,15052.2042,E,096.1,182.4,010126,,*3A
$GNGGA,000019.90,3347.9157,S,15052.2010,E,4,18,0.6,30.0,M,46.9,M,,*55
$GNRMC,000019.90,A,3347.9157,S,15052.2010,E,096.0,182.4,010126,,*3C
$GNGGA,000020.00,3347.9158,S,15052.1978,E,4,18,0.6,30.0,M,46.9,M,,*5D
$GNRMC,000020.00,A,3347.9158,S,15052.1978,E,096.0,182.4,010126,,*34
$GNGGA,000020.10,3347.9159,S,15052.1946,E,4,18,0.6,30.0,M,46.9,M,,*50
$GNRMC,000020.10,A,3347.9159,S,15052.1946,E,096.0,182.4,010126,,*39
$GNGGA,000020.20,3347.9160,S,15052.1914,E,4,18,0.6,30.0,M,46.9,M,,*5E
$GNRMC,000020.20,A,3347.9160,S,15052.1914,E,095.9,182.4,010126,,*3D
$GNGGA,000020.30,3347.9161,S,15052.1882,E,4,18,0.6,30.0,M,46.9,M,,*50
$GNRMC,000020.30,A,3347.9161,S,15052.1882,E,095.9,182.4,010126,,*33
$GNGGA,000020.40,3347.9162,S,15052.1850,E,4,18,0.6,30.0,M,46.9,M,,*5B
$GNRMC,000020.40,A,3347.9162,S,15052.1850,E,095.8,182.4,010126,,*39
$GNGGA,000020.50,3347.9164,S,15052.1818,E,4,18,0.6,30.0,M,46.9,M,,*50
$GNRMC,000020.50,A,3347.9164,S,15052.1818,E,095.8,184.0,010126,,*30
$GNGGA,000020.60,3347.9166,S,15052.1786,E,4,18,0.6,30.0,M,46.9,M,,*59
$GNRMC,000020.60,A,3347.9166,S,15052.1786,E,095.7,184.0,010126,,*36
$GNGGA,000020.70,3347.9167,S,15052.1754,E,4,18,0.6,30.0,M,46.9,M,,*56
$GNRMC,000020.70,A,3347.9167,S,15052.1754,E,095.7,184.0,010126,,*39
$GNGGA,000020.80,3347.9169,S,15052.1722,E,4,18,0.6,30.0,M,46.9,M,,*56
$GNRMC,000020.80,A,3347.9169,S,15052.1722,E,095.7,184.0,010126,,*39
$GNGGA,000020.90,3347.9171,S,15052.1691,E,4,18,0.6,30.0,M,46.9,M,,*57
$GNRMC,000020.90,A,3347.9171,S,15052.1691,E,095.6,184.0,010126,,*39
$GNGGA,000021.00,3347.9173,S,15052.1659,E,4,18,0.6,30.0,M,46.9,M,,*59
$GNRMC,000021.00,A,3347.9173,S,15052.1659,E,095.6,184.0,010126,,*37
$GNGGA,000021.10,3347.9175,S,15052.1627,E,4,18,0.6,30.0,M,46.9,M,,*57
$GNRMC,000021.10,A,3347.9175,S,15052.1627,E,095.5,184.0,010126,,*3A
$GNGGA,000021.20,3347.9177,S,15052.1595,E,4,18,0.6,30.0,M,46.9,M,,*5C
$GNRMC,000021.20,A,3347.9177,S,15052.1595,E,095.5,184.0,010126,,*31
$GNGGA,000021.30,3347.9178,S,15052.1563,E,4,18,0.6,30.0,M,46.9,M,,*5B
$GNRMC,000021.30,A,3347.9178,S,15052.1563,E,095.4,184.0,010126,,*37
$GNGGA,000021.40,3347.9180,S,15052.1531,E,4,18,0.6,30.0,M,46.9,M,,*5C
$GNRMC,000021.40,A,3347.9180,S,15052.1531,E,095.4,184.0,010126,,*30
$GNGGA,000021.50,3347.9182,S,15052.1500,E,4,18,0.6,30.0,M,46.9,M,,*5D
$GNRMC,000021.50,A,3347.9182,S,15052.1500,E,095.4,184.0,010126,,*31
$GNGGA,000021.60,3347.9184,S,15052.1468,E,4,18,0.6,30.0,M,46.9,M,,*57
$GNRMC,000021.60,A,3347.9184,S,15052.1468,E,095.3,185.6,010126,,*3B
$GNGGA,000021.70,3347.9187,S,15052.1436,E,4,18,0.6,30.0,M,46.9,M,,*5E
$GNRMC,000021.70,A,3347.9187,S,15052.1436,E,095.3,185.6,010126,,*32
$GNGGA,000021.80,3347.9189,S,15052.1404,E,4,18,0.6,30.0,M,46.9,M,,*5E
$GNRMC,000021.80,A,3347.9189,S,15052.1404,E,095.2,185.6,010126,,*33
$GNGGA,000021.90,3347.9192,S,15052.1373,E,4,18,0.6,30.0,M,46.9,M,,*52
$GNRMC,000021.90,A,3347.9192,S,15052.1373,E,095.2,185.6,010126,,*3F
$GNGGA,000022.00,3347.9195,S,15052.1341,E,4,18,0.6,30.0,M,46.9,M,,*5E
$GNRMC,000022.00,A,3347.9195,S,15052.1341,E,095.2,185.6,010126,,*33
$GNGGA,000022.10,3347.9197,S,15052.1309,E,4,18,0.6,30.0,M,46.9,M,,*51
$GNRMC,000022.10,A,3347.9197,S,15052.1309,E,095.1,185.6,010126,,*3F
$GNGGA,000022.20,3347.9200,S,15052.1278,E,4,18,0.6,30.0,M,46.9,M,,*58
$GNRMC,000022.20,A,3347.9200,S,15052.1278,E,095.1,185.6,010126,,*36
$GNGGA,000022.30,3347.9202,S,15052.1246,E,4,18,0.6,30.0,M,46.9,M,,*56
$GNRMC,000022.30,A,3347.9202,S,15052.1246,E,095.1,185.6,010126,,*38
$GNGGA,000022.40,3347.9205,S,15052.1215,E,4,18,0.6,30.0,M,46.9,M,,*50
$GNRMC,000022.40,A,3347.9205,S,15052.1215,E,095.0,185.6,010126,,*3F
$GNGGA,000022.50,3347.9207,S,15052.1183,E,4,18,0.6,30.0,M,46.9,M,,*5F
$GNRMC,000022.50,A,3347.9207,S,15052.1183,E,095.0,185.6,010126,,*30
$GNGGA,000022.60,3347.9210,S,15052.1151,E,4,18,0.6,30.0,M,46.9,M,,*55
$GNRMC,000022.60,A,3347.9210,S,15052.1151,E,094.9,185.6,010126,,*32
$GNGGA,000022.70,3347.9213,S,15052.1120,E,4,18,0.6,30.0,M,46.9,M,,*51
$GNRMC,000022.70,A,3347.9213,S,15052.1120,E,094.9,187.3,010126,,*31
$GNGGA,000022.80,3347.9216,S,15052.1089,E,4,18,0.6,30.0,M,46.9,M,,*59
$GNRMC,000022.80,A,3347.9216,S,15052.1089,E,094.9,187.3,010126,,*39
$GNGGA,000022.90,3347.9220,S,15052.1057,E,4,18,0.6,30.0,M,46.9,M,,*5E
$GNRMC,000022.90,A,3347.9220,S,15052.1057,E,094.8,187.3,010126,,*3F
$GNGGA,000023.00,3347.9223,S,15052.1026,E,4,18,0.6,30.0,M,46.9,M,,*53
$GNRMC,000023.00,A,3347.9223,S,15052.1026,E,094.8,187.3,010126,,*32
$GNGGA,000023.10,3347.9226,S,15052.0994,E,4,18,0.6,30.0,M,46.9,M,,*56
$GNRMC,000023.10,A,3347.9226,S,15052.0994,E,094.8,187.3,010126,,*37
$GNGGA,000023.20,3347.9230,S,15052.0963,E,4,18,0.6,30.0,M,46.9,M,,*5A
$GNRMC,000023.20,A,3347.9230,S,15052.0963,E,094.7,187.3,010126,,*34
$GNGGA,000023.30,3347.9233,S,15052.0931,E,4,18,0.6,30.0,M,46.9,M,,*5F
$GNRMC,000023.30,A,3347.9233,S,15052.0931,E,094.7,187.3,010126,,*31
$GNGGA,000023.40,3347.9236,S,15052.0900,E,4,18,0.6,30.0,M,46.9,M,,*5F
$GNRMC,000023.40,A,3347.9236,S,15052.0900,E,094.7,187.3,010126,,*31
$GNGGA,000023.50,3347.9240,S,15052.0869,E,4,18,0.6,30.0,M,46.9,M,,*51
$GNRMC,000023.50,A,3347.9240,S,15052.0869,E,094.6,187.3,010126,,*3E
$GNGGA,000023.60,3347.9243,S,15052.0837,E,4,18,0.6,30.0,M,46.9,M,,*5A
$GNRMC,000023.60,A,3347.9243,S,15052.0837,E,094.6,187.3,010126,,*35
$GNGGA,000023.70,3347.9246,S,15052.0806,E,4,18,0.6,30.0,M,46.9,M,,*5C
$GNRMC,000023.70,A,3347.9246,S,15052.0806,E,094.6,187.3,010126,,*33
$GNGGA,000023.80,3347.9250,S,15052.0775,E,4,18,0.6,30.0,M,46.9,M,,*5F
$GNRMC,000023.80,A,3347.9250,S,15052.0775,E,094.6,189.0,010126,,*3D
$GNGGA,000023.90,3347.9254,S,15052.0743,E,4,18,0.6,30.0,M,46.9,M,,*5F
$GNRMC,000023.90,A,3347.9254,S,15052.0743,E,094.5,189.0,010126,,*3E
$GNGGA,000024.00,3347.9258,S,15052.0712,E,4,18,0.6,30.0,M,46.9,M,,*59
$GNRMC,000024.00,A,3347.9258,S,15052.0712,E,094.5,189.0,010126,,*38
$GNGGA,000024.10,3347.9262,S,15052.0681,E,4,18,0.6,30.0,M,46.9,M,,*5A
$GNRMC,000024.10,A,3347.9262,S,15052.0681,E,094.5,189.0,010126,,*3B
$GNGGA,000024.20,3347.9266,S,15052.0650,E,4,18,0.6,30.0,M,46.9,M,,*51
$GNRMC,000024.20,A,3347.9266,S,15052.0650,E,094.4,189.0,010126,,*31
$GNGGA,000024.30,3347.9271,S,15052.0619,E,4,18,0.6,30.0,M,46.9,M,,*5B
$GNRMC,000024.30,A,3347.9271,S,15052.0619,E,094.4,189.0,010126,,*3B
$GNGGA,000024.40,3347.9275,S,15052.0588,E,4,18,0.6,30.0,M,46.9,M,,*53
$GNRMC,000024.40,A,3347.9275,S,15052.0588,E,094.4,189.0,010126,,*33
$GNGGA,000024.50,3347.9279,S,15052.0556,E,4,18,0.6,30.0,M,46.9,M,,*5D
$GNRMC,000024.50,A,3347.9279,S,15052.0556,E,094.4,189.0,010126,,*3D
$GNGGA,000024.60,3347.9283,S,15052.0525,E,4,18,0.6,30.0,M,46.9,M,,*5F
$GNRMC,000024.60,A,3347.9283,S,15052.0525,E,094.3,189.0,010126,,*38
$GNGGA,000024.70,3347.9287,S,15052.0494,E,4,18,0.6,30.0,M,46.9,M,,*51
$GNRMC,000024.70,A,3347.9287,S,15052.0494,E,094.3,189.0,010126,,*36
$GNGGA,000024.80,3347.9291,S,15052.0463,E,4,18,0.6,30.0,M,46.9,M,,*51
$GNRMC,000024.80,A,3347.9291,S,15052.0463,E,094.3,189.0,010126,,*36
$GNGGA,000024.90,3347.9296,S,15052.0432,E,4,18,0.6,30.0,M,46.9,M,,*53
$GNRMC,000024.90,A,3347.9296,S,15052.0432,E,094.3,190.8,010126,,*34
$GNGGA,000025.00,3347.9301,S,15052.0401,E,4,18,0.6,30.0,M,46.9,M,,*54
$GNRMC,000025.00,A,3347.9301,S,15052.0401,E,094.2,190.8,010126,,*32
$GNGGA,000025.10,3347.9306,S,15052.0370,E,4,18,0.6,30.0,M,46.9,M,,*53
$GNRMC,000025.10,A,3347.9306,S,15052.0370,E,094.2,190.8,010126,,*35
$GNGGA,000025.20,3347.9310,S,15052.0339,E,4,18,0.6,30.0,M,46.9,M,,*5A
$GNRMC,000025.20,A,3347.9310,S,15052.0339,E,094.2,190.8,010126,,*3C
$GNGGA,000025.30,3347.9315,S,15052.0308,E,4,18,0.6,30.0,M,46.9,M,,*5C
$GNRMC,000025.30,A,3347.9315,S,15052.0308,E,094.2,190.8,010126,,*3A
$GNGGA,000025.40,3347.9320,S,15052.0278,E,4,18,0.6,30.0,M,46.9,M,,*5B
$GNRMC,000025.40,A,3347.9320,S,15052.0278,E,094.2,190.8,010126,,*3D
$GNGGA,000025.50,3347.9325,S,15052.0247,E,4,18,0.6,30.0,M,46.9,M,,*53
$GNRMC,000025.50,A,3347.9325,S,15052.0247,E,094.1,190.8,010126,,*36
$GNGGA,000025.60,3347.9330,S,15052.0216,E,4,18,0.6,30.0,M,46.9,M,,*50
$GNRMC,000025.60,A,3347.9330,S,15052.0216,E,094.1,190.8,010126,,*35
$GNGGA,000025.70,3347.9335,S,15052.0185,E,4,18,0.6,30.0,M,46.9,M,,*5D
$GNRMC,000025.70,A,3347.9335,S,15052.0185,E,094.1,190.8,010126,,*38
$GNGGA,000025.80,3347.9340,S,15052.0154,E,4,18,0.6,30.0,M,46.9,M,,*5C
$GNRMC,000025.80,A,3347.9340,S,15052.0154,E,094.1,190.8,010126,,*39
$GNGGA,000025.90,3347.9345,S,15052.0123,E,4,18,0.6,30.0,M,46.9,M,,*58
$GNRMC,000025.90,A,3347.9345,S,15052.0123,E,094.1,192.7,010126,,*30
$GNGGA,000026.00,3347.9351,S,15052.0093,E,4,18,0.6,30.0,M,46.9,M,,*5D
$GNRMC,000026.00,A,3347.9351,S,15052.0093,E,094.1,192.7,010126,,*35
$GNGGA,000026.10,3347.9357,S,15052.0062,E,4,18,0.6,30.0,M,46.9,M,,*54
$GNRMC,000026.10,A,3347.9357,S,15052.0062,E,094.0,192.7,010126,,*3D
$GNGGA,000026.20,3347.9362,S,15052.0031,E,4,18,0.6,30.0,M,46.9,M,,*57
$GNRMC,000026.20,A,3347.9362,S,15052.0031,E,094.0,192.7,010126,,*3E
$GNGGA,000026.30,3347.9368,S,15052.0001,E,4,18,0.6,30.0,M,46.9,M,,*5F
$GNRMC,000026.30,A,3347.9368,S,15052.0001,E,094.0,192.7,010126,,*36
$GNGGA,000026.40,3347.9374,S,15051.9970,E,4,18,0.6,30.0,M,46.9,M,,*50
$GNRMC,000026.40,A,3347.9374,S,15051.9970,E,094.0,192.7,010126,,*39
$GNGGA,000026.50,3347.9379,S,15051.9939,E,4,18,0.6,30.0,M,46.9,M,,*51
$GNRMC,000026.50,A,3347.9379,S,15051.9939,E,094.0,192.7,010126,,*38
$GNGGA,000026.60,3347.9385,S,15051.9909,E,4,18,0.6,30.0,M,46.9,M,,*52
$GNRMC,000026.60,A,3347.9385,S,15051.9909,E,094.0,192.7,010126,,*3B
$GNGGA,000026.70,3347.9391,S,15051.9878,E,4,18,0.6,30.0,M,46.9,M,,*51
$GNRMC,000026.70,A,3347.9391,S,15051.9878,E,094.0,192.7,010126,,*38
$GNGGA,000026.80,3347.9397,S,15051.9847,E,4,18,0.6,30.0,M,46.9,M,,*54
$GNRMC,000026.80,A,3347.9397,S,15051.9847,E,094.0,192.7,010126,,*3D
$GNGGA,000026.90,3347.9402,S,15051.9817,E,4,18,0.6,30.0,M,46.9,M,,*5B
$GNRMC,000026.90,A,3347.9402,S,15051.9817,E,093.9,194.7,010126,,*3A
$GNGGA,000027.00,3347.9409,S,15051.9786,E,4,18,0.6,30.0,M,46.9,M,,*5F
$GNRMC,000027.00,A,3347.9409,S,15051.9786,E,093.9,194.7,010126,,*3E
$GNGGA,000027.10,3347.9416,S,15051.9756,E,4,18,0.6,30.0,M,46.9,M,,*5D
$GNRMC,000027.10,A,3347.9416,S,15051.9756,E,093.9,194.7,010126,,*3C
$GNGGA,000027.20,3347.9422,S,15051.9726,E,4,18,0.6,30.0,M,46.9,M,,*5E
$GNRMC,000027.20,A,3347.9422,S,15051.9726,E,093.9,194.7,010126,,*3F
$GNGGA,000027.30,3347.9429,S,15051.9695,E,4,18,0.6,30.0,M,46.9,M,,*5D
$GNRMC,000027.30,A,3347.9429,S,15051.9695,E,093.9,194.7,010126,,*3C
$GNGGA,000027.40,3347.9435,S,15051.9665,E,4,18,0.6,30.0,M,46.9,M,,*58
$GNRMC,000027.40,A,3347.9435,S,15051.9665,E,093.9,194.7,010126,,*39
$GNGGA,000027.50,3347.9442,S,15051.9635,E,4,18,0.6,30.0,M,46.9,M,,*5C
$GNRMC,000027.50,A,3347.9442,S,15051.9635,E,093.9,194.7,010126,,*3D
$GNGGA,000027.60,3347.9449,S,15051.9604,E,4,18,0.6,30.0,M,46.9,M,,*56
$GNRMC,000027.60,A,3347.9449,S,15051.9604,E,093.9,194.7,010126,,*37
$GNGGA,000027.70,3347.9455,S,15051.9574,E,4,18,0.6,30.0,M,46.9,M,,*5E
$GNRMC,000027.70,A,3347.9455,S,15051.9574,E,093.9,194.7,010126,,*3F
$GNGGA,000027.80,3347.9462,S,15051.9544,E,4,18,0.6,30.0,M,46.9,M,,*56
$GNRMC,000027.80,A,3347.9462,S,15051.9544,E,093.9,194.7,010126,,*37
$GNGGA,000027.90,3347.9469,S,15051.9513,E,4,18,0.6,30.0,M,46.9,M,,*5E
$GNRMC,000027.90,A,3347.9469,S,15051.9513,E,093.9,196.8,010126,,*32
$GNGGA,000028.00,3347.9476,S,15051.9483,E,4,18,0.6,30.0,M,46.9,M,,*5E
$GNRMC,000028.00,A,3347.9476,S,15051.9483,E,093.9,196.8,010126,,*32
$GNGGA,000028.10,3347.9484,S,15051.9453,E,4,18,0.6,30.0,M,46.9,M,,*5F
$GNRMC,000028.10,A,3347.9484,S,15051.9453,E,093.9,196.8,010126,,*33
$GNGGA,000028.20,3347.9491,S,15051.9423,E,4,18,0.6,30.0,M,46.9,M,,*5F
$GNRMC,000028.20,A,3347.9491,S,15051.9423,E,093.9,196.8,010126,,*33
$GNGGA,000028.30,3347.9499,S,15051.9393,E,4,18,0.6,30.0,M,46.9,M,,*5A
$GNRMC,000028.30,A,3347.9499,S,15051.9393,E,093.9,196.8,010126,,*36
$GNGGA,000028.40,3347.9506,S,15051.9363,E,4,18,0.6,30.0,M,46.9,M,,*55
$GNRMC,000028.40,A,3347.9506,S,15051.9363,E,093.9,196.8,010126,,*39
$GNGGA,000028.50,3347.9514,S,15051.9333,E,4,18,0.6,30.0,M,46.9,M,,*52
$GNRMC,000028.50,A,3347.9514,S,15051.9333,E,093.9,196.8,010126,,*3E
$GNGGA,000028.60,3347.9521,S,15051.9303,E,4,18,0.6,30.0,M,46.9,M,,*54
$GNRMC,000028.60,A,3347.9521,S,15051.9303,E,093.9,196.8,010126,,*38
$GNGGA,000028.70,3347.9529,S,15051.9273,E,4,18,0.6,30.0,M,46.9,M,,*5B
$GNRMC,000028.70,A,3347.9529,S,15051.9273,E,093.9,196.8,010126,,*37
$GNGGA,000028.80,3347.9536,S,15051.9243,E,4,18,0.6,30.0,M,46.9,M,,*59
$GNRMC,000028.80,A,3347.9536,S,15051.9243,E,093.9,196.8,010126,,*35
$GNGGA,000028.90,3347.9544,S,15051.9213,E,4,18,0.6,30.0,M,46.9,M,,*58
$GNRMC,000028.90,A,3347.9544,S,15051.9213,E,093.9,199.1,010126,,*32
$GNGGA,000029.00,3347.9553,S,15051.9184,E,4,18,0.6,30.0,M,46.9,M,,*5B
$GNRMC,000029.00,A,3347.9553,S,15051.9184,E,093.9,199.1,010126,,*31
$GNGGA,000029.10,3347.9561,S,15051.9154,E,4,18,0.6,30.0,M,46.9,M,,*56
$GNRMC,000029.10,A,3347.9561,S,15051.9154,E,093.9,199.1,010126,,*3C
$GNGGA,000029.20,3347.9570,S,15051.9124,E,4,18,0.6,30.0,M,46.9,M,,*52
$GNRMC,000029.20,A,3347.9570,S,15051.9124,E,093.9,199.1,010126,,*38
$GNGGA,000029.30,3347.9579,S,15051.9095,E,4,18,0.6,30.0,M,46.9,M,,*51
$GNRMC,000029.30,A,3347.9579,S,15051.9095,E,093.9,199.1,010126,,*3B
$GNGGA,000029.40,3347.9587,S,15051.9065,E,4,18,0.6,30.0,M,46.9,M,,*58
$GNRMC,000029.40,A,3347.9587,S,15051.9065,E,093.9,199.1,010126,,*32
$GNGGA,000029.50,3347.9596,S,15051.9035,E,4,18,0.6,30.0,M,46.9,M,,*5C
$GNRMC,000029.50,A,3347.9596,S,15051.9035,E,093.9,199.1,010126,,*36
$GNGGA,000029.60,3347.9604,S,15051.9006,E,4,18,0.6,30.0,M,46.9,M,,*57
$GNRMC,000029.60,A,3347.9604,S,15051.9006,E,094.0,199.1,010126,,*33
$GNGGA,000029.70,3347.9613,S,15051.8976,E,4,18,0.6,30.0,M,46.9,M,,*5F
$GNRMC,000029.70,A,3347.9613,S,15051.8976,E,094.0,199.1,010126,,*3B
$GNGGA,000029.80,3347.9621,S,15051.8946,E,4,18,0.6,30.0,M,46.9,M,,*52
$GNRMC,000029.80,A,3347.9621,S,15051.8946,E,094.0,201.5,010126,,*30
$GNGGA,000029.90,3347.9631,S,15051.8917,E,4,18,0.6,30.0,M,46.9,M,,*56
$GNRMC,000029.90,A,3347.9631,S,15051.8917,E,094.0,201.5,010126,,*34
$GNGGA,000030.00,3347.9640,S,15051.8888,E,4,18,0.6,30.0,M,46.9,M,,*56
$GNRMC,000030.00,A,3347.9640,S,15051.8888,E,094.0,201.5,010126,,*34
$GNGGA,000030.10,3347.9650,S,15051.8859,E,4,18,0.6,30.0,M,46.9,M,,*5A
$GNRMC,000030.10,A,3347.9650,S,15051.8859,E,094.0,201.5,010126,,*38
$GNGGA,000030.20,3347.9660,S,15051.8830,E,4,18,0.6,30.0,M,46.9,M,,*55
$GNRMC,000030.20,A,3347.9660,S,15051.8830,E,094.0,201.5,010126,,*37
$GNGGA,000030.30,3347.9669,S,15051.8800,E,4,18,0.6,30.0,M,46.9,M,,*5E
$GNRMC,000030.30,A,3347.9669,S,15051.8800,E,094.0,201.5,010126,,*3C
$GNGGA,000030.40,3347.9679,S,15051.8771,E,4,18,0.6,30.0,M,46.9,M,,*51
$GNRMC,000030.40,A,3347.9679,S,15051.8771,E,094.1,201.5,010126,,*32
$GNGGA,000030.50,3347.9688,S,15051.8742,E,4,18,0.6,30.0,M,46.9,M,,*5E
$GNRMC,000030.50,A,3347.9688,S,15051.8742,E,094.1,201.5,010126,,*3D
$GNGGA,000030.60,3347.9698,S,15051.8713,E,4,18,0.6,30.0,M,46.9,M,,*58
$GNRMC,000030.60,A,3347.9698,S,15051.8713,E,094.1,201.5,010126,,*3B
$GNGGA,000030.70,3347.9708,S,15051.8684,E,4,18,0.6,30.0,M,46.9,M,,*5E
$GNRMC,000030.70,A,3347.9708,S,15051.8684,E,094.1,204.2,010126,,*3F
$GNGGA,000030.80,3347.9719,S,15051.8655,E,4,18,0.6,30.0,M,46.9,M,,*5D
$GNRMC,000030.80,A,3347.9719,S,15051.8655,E,094.1,204.2,010126,,*3C
$GNGGA,000030.90,3347.9729,S,15051.8626,E,4,18,0.6,30.0,M,46.9,M,,*5B
$GNRMC,000030.90,A,3347.9729,S,15051.8626,E,094.1,204.2,010126,,*3A
$GNGGA,000031.00,3347.9740,S,15051.8598,E,4,18,0.6,30.0,M,46.9,M,,*5A
$GNRMC,000031.00,A,3347.9740,S,15051.8598,E,094.2,204.2,010126,,*38
$GNGGA,000031.10,3347.9751,S,15051.8569,E,4,18,0.6,30.0,M,46.9,M,,*55
$GNRMC,000031.10,A,3347.9751,S,15051.8569,E,094.2,204.2,010126,,*37
$GNGGA,000031.20,3347.9761,S,15051.8540,E,4,18,0.6,30.0,M,46.9,M,,*5E
$GNRMC,000031.20,A,3347.9761,S,15051.8540,E,094.2,204.2,010126,,*3C
$GNGGA,000031.30,3347.9772,S,15051.8512,E,4,18,0.6,30.0,M,46.9,M,,*5A
$GNRMC,000031.30,A,3347.9772,S,15051.8512,E,094.2,204.2,010126,,*38
$GNGGA,000031.40,3347.9783,S,15051.8483,E,4,18,0.6,30.0,M,46.9,M,,*5A
$GNRMC,000031.40,A,3347.9783,S,15051.8483,E,094.2,204.2,010126,,*38
$GNGGA,000031.50,3347.9794,S,15051.8454,E,4,18,0.6,30.0,M,46.9,M,,*57
$GNRMC,000031.50,A,3347.9794,S,15051.8454,E,094.3,204.2,010126,,*34
$GNGGA,000031.60,3347.9805,S,15051.8426,E,4,18,0.6,30.0,M,46.9,M,,*56
$GNRMC,000031.60,A,3347.9805,S,15051.8426,E,094.3,207.2,010126,,*36
$GNGGA,000031.70,3347.9817,S,15051.8398,E,4,18,0.6,30.0,M,46.9,M,,*56
$GNRMC,000031.70,A,3347.9817,S,15051.8398,E,094.3,207.2,010126,,*36
$GNGGA,000031.80,3347.9829,S,15051.8370,E,4,18,0.6,30.0,M,46.9,M,,*52
$GNRMC,000031.80,A,3347.9829,S,15051.8370,E,094.3,207.2,010126,,*32
$GNGGA,000031.90,3347.9841,S,15051.8342,E,4,18,0.6,30.0,M,46.9,M,,*5C
$GNRMC,000031.90,A,3347.9841,S,15051.8342,E,094.4,207.2,010126,,*3B
$GNGGA,000032.00,3347.9853,S,15051.8314,E,4,18,0.6,30.0,M,46.9,M,,*56
$GNRMC,000032.00,A,3347.9853,S,15051.8314,E,094.4,207.2,010126,,*31
$GNGGA,000032.10,3347.9865,S,15051.8286,E,4,18,0.6,30.0,M,46.9,M,,*58
$GNRMC,000032.10,A,3347.9865,S,15051.8286,E,094.4,207.2,010126,,*3F
$GNGGA,000032.20,3347.9877,S,15051.8258,E,4,18,0.6,30.0,M,46.9,M,,*5B
$GNRMC,000032.20,A,3347.9877,S,15051.8258,E,094.4,207.2,010126,,*3C
$GNGGA,000032.30,3347.9889,S,15051.8230,E,4,18,0.6,30.0,M,46.9,M,,*55
$GNRMC,000032.30,A,3347.9889,S,15051.8230,E,094.5,207.2,010126,,*33
$GNGGA,000032.40,3347.9902,S,15051.8202,E,4,18,0.6,30.0,M,46.9,M,,*51
$GNRMC,000032.40,A,3347.9902,S,15051.8202,E,094.5,210.4,010126,,*37
$GNGGA,000032.50,3347.9915,S,15051.8175,E,4,18,0.6,30.0,M,46.9,M,,*55
$GNRMC,000032.50,A,3347.9915,S,15051.8175,E,094.5,210.4,010126,,*33
$GNGGA,000032.60,3347.9929,S,15051.8148,E,4,18,0.6,30.0,M,46.9,M,,*57
$GNRMC,000032.60,A,3347.9929,S,15051.8148,E,094.5,210.4,010126,,*31
$GNGGA,000032.70,3347.9942,S,15051.8121,E,4,18,0.6,30.0,M,46.9,M,,*54
$GNRMC,000032.70,A,3347.9942,S,15051.8121,E,094.6,210.4,010126,,*31
$GNGGA,000032.80,3347.9955,S,15051.8093,E,4,18,0.6,30.0,M,46.9,M,,*55
$GNRMC,000032.80,A,3347.9955,S,15051.8093,E,094.6,210.4,010126,,*30
$GNGGA,000032.90,3347.9969,S,15051.8066,E,4,18,0.6,30.0,M,46.9,M,,*51
$GNRMC,000032.90,A,3347.9969,S,15051.8066,E,094.6,210.4,010126,,*34
$GNGGA,000033.00,3347.9982,S,15051.8039,E,4,18,0.6,30.0,M,46.9,M,,*56
$GNRMC,000033.00,A,3347.9982,S,15051.8039,E,094.7,210.4,010126,,*32
$GNGGA,000033.10,3347.9996,S,15051.8012,E,4,18,0.6,30.0,M,46.9,M,,*5B
$GNRMC,000033.10,A,3347.9996,S,15051.8012,E,094.7,214.1,010126,,*3E
$GNGGA,000033.20,3348.0010,S,15051.7986,E,4,18,0.6,30.0,M,46.9,M,,*52
$GNRMC,000033.20,A,3348.0010,S,15051.7986,E,094.7,214.1,010126,,*37
$GNGGA,000033.30,3348.0025,S,15051.7960,E,4,18,0.6,30.0,M,46.9,M,,*5D
$GNRMC,000033.30,A,3348.0025,S,15051.7960,E,094.8,214.1,010126,,*37
$GNGGA,000033.40,3348.0040,S,15051.7933,E,4,18,0.6,30.0,M,46.9,M,,*5F
$GNRMC,000033.40,A,3348.0040,S,15051.7933,E,094.8,214.1,010126,,*35
$GNGGA,000033.50,3348.0055,S,15051.7907,E,4,18,0.6,30.0,M,46.9,M,,*5D
$GNRMC,000033.50,A,3348.0055,S,15051.7907,E,094.8,214.1,010126,,*37
$GNGGA,000033.60,3348.0069,S,15051.7881,E,4,18,0.6,30.0,M,46.9,M,,*5E
$GNRMC,000033.60,A,3348.0069,S,15051.7881,E,094.9,214.1,010126,,*35
$GNGGA,000033.70,3348.0084,S,15051.7855,E,4,18,0.6,30.0,M,46.9,M,,*55
$GNRMC,000033.70,A,3348.0084,S,15051.7855,E,094.9,214.1,010126,,*3E
$GNGGA,000033.80,3348.0099,S,15051.7828,E,4,18,0.6,30.0,M,46.9,M,,*5C
$GNRMC,000033.80,A,3348.0099,S,15051.7828,E,094.9,218.2,010126,,*38
$GNGGA,000033.90,3348.0115,S,15051.7803,E,4,18,0.6,30.0,M,46.9,M,,*51
$GNRMC,000033.90,A,3348.0115,S,15051.7803,E,095.0,218.2,010126,,*3D
$GNGGA,000034.00,3348.0131,S,15051.7779,E,4,18,0.6,30.0,M,46.9,M,,*5B
$GNRMC,000034.00,A,3348.0131,S,15051.7779,E,095.0,218.2,010126,,*37
$GNGGA,000034.10,3348.0148,S,15051.7754,E,4,18,0.6,30.0,M,46.9,M,,*5B
$GNRMC,000034.10,A,3348.0148,S,15051.7754,E,095.0,218.2,010126,,*37
$GNGGA,000034.20,3348.0164,S,15051.7729,E,4,18,0.6,30.0,M,46.9,M,,*5C
$GNRMC,000034.20,A,3348.0164,S,15051.7729,E,095.1,218.2,010126,,*31
$GNGGA,000034.30,3348.0180,S,15051.7704,E,4,18,0.6,30.0,M,46.9,M,,*58
$GNRMC,000034.30,A,3348.0180,S,15051.7704,E,095.1,218.2,010126,,*35
$GNGGA,000034.40,3348.0197,S,15051.7679,E,4,18,0.6,30.0,M,46.9,M,,*52
$GNRMC,000034.40,A,3348.0197,S,15051.7679,E,095.1,218.2,010126,,*3F
$GNGGA,000034.50,3348.0214,S,15051.7654,E,4,18,0.6,30.0,M,46.9,M,,*54
$GNRMC,000034.50,A,3348.0214,S,15051.7654,E,095.2,222.9,010126,,*38
$GNGGA,000034.60,3348.0232,S,15051.7631,E,4,18,0.6,30.0,M,46.9,M,,*50
$GNRMC,000034.60,A,3348.0232,S,15051.7631,E,095.2,222.9,010126,,*3C
$GNGGA,000034.70,3348.0250,S,15051.7608,E,4,18,0.6,30.0,M,46.9,M,,*5F
$GNRMC,000034.70,A,3348.0250,S,15051.7608,E,095.3,222.9,010126,,*32
$GNGGA,000034.80,3348.0268,S,15051.7584,E,4,18,0.6,30.0,M,46.9,M,,*5C
$GNRMC,000034.80,A,3348.0268,S,15051.7584,E,095.3,222.9,010126,,*31
$GNGGA,000034.90,3348.0286,S,15051.7561,E,4,18,0.6,30.0,M,46.9,M,,*56
$GNRMC,000034.90,A,3348.0286,S,15051.7561,E,095.3,222.9,010126,,*3B
$GNGGA,000035.00,3348.0304,S,15051.7538,E,4,18,0.6,30.0,M,46.9,M,,*59
$GNRMC,000035.00,A,3348.0304,S,15051.7538,E,095.4,222.9,010126,,*33
$GNGGA,000035.10,3348.0322,S,15051.7514,E,4,18,0.6,30.0,M,46.9,M,,*52
$GNRMC,000035.10,A,3348.0322,S,15051.7514,E,095.4,222.9,010126,,*38
$GNGGA,000035.20,3348.0341,S,15051.7493,E,4,18,0.6,30.0,M,46.9,M,,*5A
$GNRMC,000035.20,A,3348.0341,S,15051.7493,E,095.5,228.2,010126,,*30
$GNGGA,000035.30,3348.0361,S,15051.7472,E,4,18,0.6,30.0,M,46.9,M,,*56
$GNRMC,000035.30,A,3348.0361,S,15051.7472,E,095.5,228.2,010126,,*3C
$GNGGA,000035.40,3348.0381,S,15051.7451,E,4,18,0.6,30.0,M,46.9,M,,*5E
$GNRMC,000035.40,A,3348.0381,S,15051.7451,E,095.5,228.2,010126,,*34
$GNGGA,000035.50,3348.0401,S,15051.7429,E,4,18,0.6,30.0,M,46.9,M,,*5F
$GNRMC,000035.50,A,3348.0401,S,15051.7429,E,095.6,228.2,010126,,*36
$GNGGA,000035.60,3348.0420,S,15051.7408,E,4,18,0.6,30.0,M,46.9,M,,*5C
$GNRMC,000035.60,A,3348.0420,S,15051.7408,E,095.6,228.2,010126,,*35
$GNGGA,000035.70,3348.0440,S,15051.7387,E,4,18,0.6,30.0,M,46.9,M,,*5B
$GNRMC,000035.70,A,3348.0440,S,15051.7387,E,095.7,234.2,010126,,*3E
$GNGGA,000035.80,3348.0462,S,15051.7368,E,4,18,0.6,30.0,M,46.9,M,,*55
$GNRMC,000035.80,A,3348.0462,S,15051.7368,E,095.7,234.2,010126,,*30
$GNGGA,000035.90,3348.0484,S,15051.7350,E,4,18,0.6,30.0,M,46.9,M,,*57
$GNRMC,000035.90,A,3348.0484,S,15051.7350,E,095.8,234.2,010126,,*3D
$GNGGA,000036.00,3348.0505,S,15051.7331,E,4,18,0.6,30.0,M,46.9,M,,*52
$GNRMC,000036.00,A,3348.0505,S,15051.7331,E,095.8,234.2,010126,,*38
$GNGGA,000036.10,3348.0527,S,15051.7312,E,4,18,0.6,30.0,M,46.9,M,,*52
$GNRMC,000036.10,A,3348.0527,S,15051.7312,E,095.8,234.2,010126,,*38
$GNGGA,000036.20,3348.0548,S,15051.7294,E,4,18,0.6,30.0,M,46.9,M,,*57
$GNRMC,000036.20,A,3348.0548,S,15051.7294,E,095.9,234.2,010126,,*3C
$GNGGA,000036.30,3348.0571,S,15051.7277,E,4,18,0.6,30.0,M,46.9,M,,*51
$GNRMC,000036.30,A,3348.0571,S,15051.7277,E,095.9,241.0,010126,,*3A
$GNGGA,000036.40,3348.0594,S,15051.7261,E,4,18,0.6,30.0,M,46.9,M,,*5A
$GNRMC,000036.40,A,3348.0594,S,15051.7261,E,096.0,241.0,010126,,*3B
$GNGGA,000036.50,3348.0617,S,15051.7246,E,4,18,0.6,30.0,M,46.9,M,,*56
$GNRMC,000036.50,A,3348.0617,S,15051.7246,E,096.0,241.0,010126,,*37
$GNGGA,000036.60,3348.0641,S,15051.7230,E,4,18,0.6,30.0,M,46.9,M,,*57
$GNRMC,000036.60,A,3348.0641,S,15051.7230,E,096.1,241.0,010126,,*37
$GNGGA,000036.70,3348.0664,S,15051.7215,E,4,18,0.6,30.0,M,46.9,M,,*56
$GNRMC,000036.70,A,3348.0664,S,15051.7215,E,096.1,241.0,010126,,*36
$GNGGA,000036.80,3348.0688,S,15051.7200,E,4,18,0.6,30.0,M,46.9,M,,*5F
$GNRMC,000036.80,A,3348.0688,S,15051.7200,E,096.2,248.6,010126,,*33
$GNGGA,000036.90,3348.0713,S,15051.7189,E,4,18,0.6,30.0,M,46.9,M,,*5F
$GNRMC,000036.90,A,3348.0713,S,15051.7189,E,096.2,248.6,010126,,*33
$GNGGA,000037.00,3348.0738,S,15051.7177,E,4,18,0.6,30.0,M,46.9,M,,*5F
$GNRMC,000037.00,A,3348.0738,S,15051.7177,E,096.2,248.6,010126,,*33
$GNGGA,000037.10,3348.0763,S,15051.7165,E,4,18,0.6,30.0,M,46.9,M,,*53
$GNRMC,000037.10,A,3348.0763,S,15051.7165,E,096.3,248.6,010126,,*3E
$GNGGA,000037.20,3348.0787,S,15051.7154,E,4,18,0.6,30.0,M,46.9,M,,*58
$GNRMC,000037.20,A,3348.0787,S,15051.7154,E,096.3,248.6,010126,,*35
$GNGGA,000037.30,3348.0813,S,15051.7144,E,4,18,0.6,30.0,M,46.9,M,,*5A
$GNRMC,000037.30,A,3348.0813,S,15051.7144,E,096.4,256.8,010126,,*31
$GNGGA,000037.40,3348.0839,S,15051.7136,E,4,18,0.6,30.0,M,46.9,M,,*50
$GNRMC,000037.40,A,3348.0839,S,15051.7136,E,096.4,256.8,010126,,*3B
$GNGGA,000037.50,3348.0865,S,15051.7129,E,4,18,0.6,30.0,M,46.9,M,,*56
$GNRMC,000037.50,A,3348.0865,S,15051.7129,E,096.5,256.8,010126,,*3C
$GNGGA,000037.60,3348.0891,S,15051.7122,E,4,18,0.6,30.0,M,46.9,M,,*55
$GNRMC,000037.60,A,3348.0891,S,15051.7122,E,096.5,256.8,010126,,*3F
$GNGGA,000037.70,3348.0917,S,15051.7114,E,4,18,0.6,30.0,M,46.9,M,,*5E
$GNRMC,000037.70,A,3348.0917,S,15051.7114,E,096.6,256.8,010126,,*37
$GNGGA,000037.80,3348.0944,S,15051.7110,E,4,18,0.6,30.0,M,46.9,M,,*53
$GNRMC,000037.80,A,3348.0944,S,15051.7110,E,096.6,265.6,010126,,*34
$GNGGA,000037.90,3348.0970,S,15051.7108,E,4,18,0.6,30.0,M,46.9,M,,*5C
$GNRMC,000037.90,A,3348.0970,S,15051.7108,E,096.7,265.6,010126,,*3A
$GNGGA,000038.00,3348.0997,S,15051.7105,E,4,18,0.6,30.0,M,46.9,M,,*5E
$GNRMC,000038.00,A,3348.0997,S,15051.7105,E,096.7,265.6,010126,,*38
$GNGGA,000038.10,3348.1024,S,15051.7103,E,4,18,0.6,30.0,M,46.9,M,,*59
$GNRMC,000038.10,A,3348.1024,S,15051.7103,E,096.8,265.6,010126,,*30
$GNGGA,000038.20,3348.1051,S,15051.7100,E,4,18,0.6,30.0,M,46.9,M,,*5B
$GNRMC,000038.20,A,3348.1051,S,15051.7100,E,096.8,274.4,010126,,*30
$GNGGA,000038.30,3348.1078,S,15051.7103,E,4,18,0.6,30.0,M,46.9,M,,*52
$GNRMC,000038.30,A,3348.1078,S,15051.7103,E,096.9,274.4,010126,,*38
$GNGGA,000038.40,3348.1104,S,15051.7105,E,4,18,0.6,30.0,M,46.9,M,,*59
$GNRMC,000038.40,A,3348.1104,S,15051.7105,E,096.9,274.4,010126,,*33
$GNGGA,000038.50,3348.1131,S,15051.7108,E,4,18,0.6,30.0,M,46.9,M,,*53
$GNRMC,000038.50,A,3348.1131,S,15051.7108,E,096.9,274.4,010126,,*39
$GNGGA,000038.60,3348.1158,S,15051.7110,E,4,18,0.6,30.0,M,46.9,M,,*56
$GNRMC,000038.60,A,3348.1158,S,15051.7110,E,097.0,274.4,010126,,*34
$GNGGA,000038.70,3348.1185,S,15051.7115,E,4,18,0.6,30.0,M,46.9,M,,*52
$GNRMC,000038.70,A,3348.1185,S,15051.7115,E,097.0,283.2,010126,,*3E
$GNGGA,000038.80,3348.1211,S,15051.7122,E,4,18,0.6,30.0,M,46.9,M,,*57
$GNRMC,000038.80,A,3348.1211,S,15051.7122,E,097.1,283.2,010126,,*3A
$GNGGA,000038.90,3348.1237,S,15051.7130,E,4,18,0.6,30.0,M,46.9,M,,*51
$GNRMC,000038.90,A,3348.1237,S,15051.7130,E,097.1,283.2,010126,,*3C
$GNGGA,000039.00,3348.1263,S,15051.7137,E,4,18,0.6,30.0,M,46.9,M,,*5F
$GNRMC,000039.00,A,3348.1263,S,15051.7137,E,097.2,283.2,010126,,*31
$GNGGA,000039.10,3348.1290,S,15051.7144,E,4,18,0.6,30.0,M,46.9,M,,*56
$GNRMC,000039.10,A,3348.1290,S,15051.7144,E,097.2,283.2,010126,,*38
$GNGGA,000039.20,3348.1315,S,15051.7155,E,4,18,0.6,30.0,M,46.9,M,,*59
$GNRMC,000039.20,A,3348.1315,S,15051.7155,E,097.3,291.4,010126,,*33
$GNGGA,000039.30,3348.1340,S,15051.7167,E,4,18,0.6,30.0,M,46.9,M,,*59
$GNRMC,000039.30,A,3348.1340,S,15051.7167,E,097.3,291.4,010126,,*33
$GNGGA,000039.40,3348.1365,S,15051.7178,E,4,18,0.6,30.0,M,46.9,M,,*57
$GNRMC,000039.40,A,3348.1365,S,15051.7178,E,097.4,291.4,010126,,*3A
$GNGGA,000039.50,3348.1391,S,15051.7190,E,4,18,0.6,30.0,M,46.9,M,,*5B
$GNRMC,000039.50,A,3348.1391,S,15051.7190,E,097.4,291.4,010126,,*36
$GNGGA,000039.60,3348.1416,S,15051.7202,E,4,18,0.6,30.0,M,46.9,M,,*58
$GNRMC,000039.60,A,3348.1416,S,15051.7202,E,097.5,291.4,010126,,*34
$GNGGA,000039.70,3348.1440,S,15051.7217,E,4,18,0.6,30.0,M,46.9,M,,*5E
$GNRMC,000039.70,A,3348.1440,S,15051.7217,E,097.5,299.0,010126,,*3E
$GNGGA,000039.80,3348.1463,S,15051.7233,E,4,18,0.6,30.0,M,46.9,M,,*56
$GNRMC,000039.80,A,3348.1463,S,15051.7233,E,097.5,299.0,010126,,*36
$GNGGA,000039.90,3348.1487,S,15051.7249,E,4,18,0.6,30.0,M,46.9,M,,*50
$GNRMC,000039.90,A,3348.1487,S,15051.7249,E,097.6,299.0,010126,,*33
$GNGGA,000040.00,3348.1511,S,15051.7264,E,4,18,0.6,30.0,M,46.9,M,,*56
$GNRMC,000040.00,A,3348.1511,S,15051.7264,E,097.6,299.0,010126,,*35
$GNGGA,000040.10,3348.1534,S,15051.7280,E,4,18,0.6,30.0,M,46.9,M,,*5A
$GNRMC,000040.10,A,3348.1534,S,15051.7280,E,097.7,299.0,010126,,*38
$GNGGA,000040.20,3348.1557,S,15051.7298,E,4,18,0.6,30.0,M,46.9,M,,*55
$GNRMC,000040.20,A,3348.1557,S,15051.7298,E,097.7,305.8,010126,,*3B
$GNGGA,000040.30,3348.1579,S,15051.7317,E,4,18,0.6,30.0,M,46.9,M,,*5E
$GNRMC,000040.30,A,3348.1579,S,15051.7317,E,097.8,305.8,010126,,*3F
$GNGGA,000040.40,3348.1601,S,15051.7336,E,4,18,0.6,30.0,M,46.9,M,,*56
$GNRMC,000040.40,A,3348.1601,S,15051.7336,E,097.8,305.8,010126,,*37
$GNGGA,000040.50,3348.1623,S,15051.7355,E,4,18,0.6,30.0,M,46.9,M,,*52
$GNRMC,000040.50,A,3348.1623,S,15051.7355,E,097.9,305.8,010126,,*32
$GNGGA,000040.60,3348.1645,S,15051.7375,E,4,18,0.6,30.0,M,46.9,M,,*53
$GNRMC,000040.60,A,3348.1645,S,15051.7375,E,097.9,305.8,010126,,*33
$GNGGA,000040.70,3348.1667,S,15051.7394,E,4,18,0.6,30.0,M,46.9,M,,*5D
$GNRMC,000040.70,A,3348.1667,S,15051.7394,E,098.0,311.8,010126,,*3E
$GNGGA,000040.80,3348.1687,S,15051.7416,E,4,18,0.6,30.0,M,46.9,M,,*51
$GNRMC,000040.80,A,3348.1687,S,15051.7416,E,098.0,311.8,010126,,*32
$GNGGA,000040.90,3348.1707,S,15051.7438,E,4,18,0.6,30.0,M,46.9,M,,*55
$GNRMC,000040.90,A,3348.1707,S,15051.7438,E,098.0,311.8,010126,,*36
$GNGGA,000041.00,3348.1728,S,15051.7460,E,4,18,0.6,30.0,M,46.9,M,,*5D
$GNRMC,000041.00,A,3348.1728,S,15051.7460,E,098.1,311.8,010126,,*3F
$GNGGA,000041.10,3348.1748,S,15051.7482,E,4,18,0.6,30.0,M,46.9,M,,*56
$GNRMC,000041.10,A,3348.1748,S,15051.7482,E,098.1,311.8,010126,,*34
$GNGGA,000041.20,3348.1768,S,15051.7503,E,4,18,0.6,30.0,M,46.9,M,,*5F
$GNRMC,000041.20,A,3348.1768,S,15051.7503,E,098.2,311.8,010126,,*3E
$GNGGA,000041.30,3348.1788,S,15051.7526,E,4,18,0.6,30.0,M,46.9,M,,*57
$GNRMC,000041.30,A,3348.1788,S,15051.7526,E,098.2,317.1,010126,,*39
$GNGGA,000041.40,3348.1806,S,15051.7550,E,4,18,0.6,30.0,M,46.9,M,,*58
$GNRMC,000041.40,A,3348.1806,S,15051.7550,E,098.2,317.1,010126,,*36
$GNGGA,000041.50,3348.1825,S,15051.7574,E,4,18,0.6,30.0,M,46.9,M,,*5E
$GNRMC,000041.50,A,3348.1825,S,15051.7574,E,098.3,317.1,010126,,*31
$GNGGA,000041.60,3348.1843,S,15051.7599,E,4,18,0.6,30.0,M,46.9,M,,*5E
$GNRMC,000041.60,A,3348.1843,S,15051.7599,E,098.3,317.1,010126,,*31
$GNGGA,000041.70,3348.1862,S,15051.7623,E,4,18,0.6,30.0,M,46.9,M,,*5E
$GNRMC,000041.70,A,3348.1862,S,15051.7623,E,098.4,317.1,010126,,*36
$GNGGA,000041.80,3348.1881,S,15051.7647,E,4,18,0.6,30.0,M,46.9,M,,*5E
$GNRMC,000041.80,A,3348.1881,S,15051.7647,E,098.4,317.1,010126,,*36
$GNGGA,000041.90,3348.1898,S,15051.7671,E,4,18,0.6,30.0,M,46.9,M,,*52
$GNRMC,000041.90,A,3348.1898,S,15051.7671,E,098.4,321.8,010126,,*36
$GNGGA,000042.00,3348.1915,S,15051.7697,E,4,18,0.6,30.0,M,46.9,M,,*54
$GNRMC,000042.00,A,3348.1915,S,15051.7697,E,098.5,321.8,010126,,*31
$GNGGA,000042.10,3348.1932,S,15051.7723,E,4,18,0.6,30.0,M,46.9,M,,*5E
$GNRMC,000042.10,A,3348.1932,S,15051.7723,E,098.5,321.8,010126,,*3B
$GNGGA,000042.20,3348.1949,S,15051.7749,E,4,18,0.6,30.0,M,46.9,M,,*5D
$GNRMC,000042.20,A,3348.1949,S,15051.7749,E,098.6,321.8,010126,,*3B
$GNGGA,000042.30,3348.1966,S,15051.7775,E,4,18,0.6,30.0,M,46.9,M,,*5E
$GNRMC,000042.30,A,3348.1966,S,15051.7775,E,098.6,321.8,010126,,*38
$GNGGA,000042.40,3348.1983,S,15051.7801,E,4,18,0.6,30.0,M,46.9,M,,*5E
$GNRMC,000042.40,A,3348.1983,S,15051.7801,E,098.6,321.8,010126,,*38
$GNGGA,000042.50,3348.2000,S,15051.7827,E,4,18,0.6,30.0,M,46.9,M,,*5A
$GNRMC,000042.50,A,3348.2000,S,15051.7827,E,098.7,321.8,010126,,*3D
$GNGGA,000042.60,3348.2016,S,15051.7854,E,4,18,0.6,30.0,M,46.9,M,,*5A
$GNRMC,000042.60,A,3348.2016,S,15051.7854,E,098.7,325.9,010126,,*38
$GNGGA,000042.70,3348.2031,S,15051.7881,E,4,18,0.6,30.0,M,46.9,M,,*56
$GNRMC,000042.70,A,3348.2031,S,15051.7881,E,098.7,325.9,010126,,*34
$GNGGA,000042.80,3348.2046,S,15051.7908,E,4,18,0.6,30.0,M,46.9,M,,*59
$GNRMC,000042.80,A,3348.2046,S,15051.7908,E,098.8,325.9,010126,,*34
$GNGGA,000042.90,3348.2062,S,15051.7936,E,4,18,0.6,30.0,M,46.9,M,,*53
$GNRMC,000042.90,A,3348.2062,S,15051.7936,E,098.8,325.9,010126,,*3E
$GNGGA,000043.00,3348.2077,S,15051.7963,E,4,18,0.6,30.0,M,46.9,M,,*5F
$GNRMC,000043.00,A,3348.2077,S,15051.7963,E,098.9,325.9,010126,,*33
$GNGGA,000043.10,3348.2092,S,15051.7990,E,4,18,0.6,30.0,M,46.9,M,,*59
$GNRMC,000043.10,A,3348.2092,S,15051.7990,E,098.9,325.9,010126,,*35
$GNGGA,000043.20,3348.2108,S,15051.8018,E,4,18,0.6,30.0,M,46.9,M,,*5E
$GNRMC,000043.20,A,3348.2108,S,15051.8018,E,098.9,329.6,010126,,*31
$GNGGA,000043.30,3348.2122,S,15051.8046,E,4,18,0.6,30.0,M,46.9,M,,*5C
$GNRMC,000043.30,A,3348.2122,S,15051.8046,E,099.0,329.6,010126,,*3B
$GNGGA,000043.40,3348.2136,S,15051.8075,E,4,18,0.6,30.0,M,46.9,M,,*5E
$GNRMC,000043.40,A,3348.2136,S,15051.8075,E,099.0,329.6,010126,,*39
$GNGGA,000043.50,3348.2149,S,15051.8103,E,4,18,0.6,30.0,M,46.9,M,,*57
$GNRMC,000043.50,A,3348.2149,S,15051.8103,E,099.0,329.6,010126,,*30
$GNGGA,000043.60,3348.2163,S,15051.8132,E,4,18,0.6,30.0,M,46.9,M,,*5E
$GNRMC,000043.60,A,3348.2163,S,15051.8132,E,099.0,329.6,010126,,*39
$GNGGA,000043.70,3348.2177,S,15051.8160,E,4,18,0.6,30.0,M,46.9,M,,*5D
$GNRMC,000043.70,A,3348.2177,S,15051.8160,E,099.1,329.6,010126,,*3B
$GNGGA,000043.80,3348.2191,S,15051.8189,E,4,18,0.6,30.0,M,46.9,M,,*5D
$GNRMC,000043.80,A,3348.2191,S,15051.8189,E,099.1,329.6,010126,,*3B
$GNGGA,000043.90,3348.2205,S,15051.8217,E,4,18,0.6,30.0,M,46.9,M,,*56
$GNRMC,000043.90,A,3348.2205,S,15051.8217,E,099.1,329.6,010126,,*30
$GNGGA,000044.00,3348.2218,S,15051.8247,E,4,18,0.6,30.0,M,46.9,M,,*51
$GNRMC,000044.00,A,3348.2218,S,15051.8247,E,099.2,332.8,010126,,*30
$GNGGA,000044.10,3348.2231,S,15051.8276,E,4,18,0.6,30.0,M,46.9,M,,*59
$GNRMC,000044.10,A,3348.2231,S,15051.8276,E,099.2,332.8,010126,,*38
$GNGGA,000044.20,3348.2243,S,15051.8306,E,4,18,0.6,30.0,M,46.9,M,,*59
$GNRMC,000044.20,A,3348.2243,S,15051.8306,E,099.2,332.8,010126,,*38
$GNGGA,000044.30,3348.2256,S,15051.8335,E,4,18,0.6,30.0,M,46.9,M,,*5C
$GNRMC,000044.30,A,3348.2256,S,15051.8335,E,099.2,332.8,010126,,*3D
$GNGGA,000044.40,3348.2268,S,15051.8365,E,4,18,0.6,30.0,M,46.9,M,,*53
$GNRMC,000044.40,A,3348.2268,S,15051.8365,E,099.3,332.8,010126,,*33
$GNGGA,000044.50,3348.2281,S,15051.8394,E,4,18,0.6,30.0,M,46.9,M,,*5B
$GNRMC,000044.50,A,3348.2281,S,15051.8394,E,099.3,332.8,010126,,*3B
$GNGGA,000044.60,3348.2294,S,15051.8424,E,4,18,0.6,30.0,M,46.9,M,,*50
$GNRMC,000044.60,A,3348.2294,S,15051.8424,E,099.3,332.8,010126,,*30
$GNGGA,000044.70,3348.2306,S,15051.8453,E,4,18,0.6,30.0,M,46.9,M,,*5B
$GNRMC,000044.70,A,3348.2306,S,15051.8453,E,099.3,335.8,010126,,*3C
$GNGGA,000044.80,3348.2317,S,15051.8483,E,4,18,0.6,30.0,M,46.9,M,,*59
$GNRMC,000044.80,A,3348.2317,S,15051.8483,E,099.4,335.8,010126,,*39
$GNGGA,000044.90,3348.2329,S,15051.8514,E,4,18,0.6,30.0,M,46.9,M,,*5A
$GNRMC,000044.90,A,3348.2329,S,15051.8514,E,099.4,335.8,010126,,*3A
$GNGGA,000045.00,3348.2340,S,15051.8544,E,4,18,0.6,30.0,M,46.9,M,,*58
$GNRMC,000045.00,A,3348.2340,S,15051.8544,E,099.4,335.8,010126,,*38
$GNGGA,000045.10,3348.2351,S,15051.8574,E,4,18,0.6,30.0,M,46.9,M,,*5A
$GNRMC,000045.10,A,3348.2351,S,15051.8574,E,099.4,335.8,010126,,*3A
$GNGGA,000045.20,3348.2363,S,15051.8605,E,4,18,0.6,30.0,M,46.9,M,,*5D
$GNRMC,000045.20,A,3348.2363,S,15051.8605,E,099.5,335.8,010126,,*3C
$GNGGA,000045.30,3348.2374,S,15051.8635,E,4,18,0.6,30.0,M,46.9,M,,*59
$GNRMC,000045.30,A,3348.2374,S,15051.8635,E,099.5,335.8,010126,,*38
$GNGGA,000045.40,3348.2385,S,15051.8665,E,4,18,0.6,30.0,M,46.9,M,,*55
$GNRMC,000045.40,A,3348.2385,S,15051.8665,E,099.5,335.8,010126,,*34
$GNGGA,000045.50,3348.2396,S,15051.8696,E,4,18,0.6,30.0,M,46.9,M,,*5A
$GNRMC,000045.50,A,3348.2396,S,15051.8696,E,099.5,338.5,010126,,*3B
$GNGGA,000045.60,3348.2407,S,15051.8726,E,4,18,0.6,30.0,M,46.9,M,,*5C
$GNRMC,000045.60,A,3348.2407,S,15051.8726,E,099.5,338.5,010126,,*3D
$GNGGA,000045.70,3348.2417,S,15051.8757,E,4,18,0.6,30.0,M,46.9,M,,*5A
$GNRMC,000045.70,A,3348.2417,S,15051.8757,E,099.5,338.5,010126,,*3B
$GNGGA,000045.80,3348.2427,S,15051.8788,E,4,18,0.6,30.0,M,46.9,M,,*54
$GNRMC,000045.80,A,3348.2427,S,15051.8788,E,099.6,338.5,010126,,*36
$GNGGA,000045.90,3348.2437,S,15051.8819,E,4,18,0.6,30.0,M,46.9,M,,*53
$GNRMC,000045.90,A,3348.2437,S,15051.8819,E,099.6,338.5,010126,,*31
$GNGGA,000046.00,3348.2447,S,15051.8850,E,4,18,0.6,30.0,M,46.9,M,,*53
$GNRMC,000046.00,A,3348.2447,S,15051.8850,E,099.6,338.5,010126,,*31
$GNGGA,000046.10,3348.2457,S,15051.8881,E,4,18,0.6,30.0,M,46.9,M,,*5F
$GNRMC,000046.10,A,3348.2457,S,15051.8881,E,099.6,338.5,010126,,*3D
$GNGGA,000046.20,3348.2467,S,15051.8912,E,4,18,0.6,30.0,M,46.9,M,,*54
$GNRMC,000046.20,A,3348.2467,S,15051.8912,E,099.6,338.5,010126,,*36
$GNGGA,000046.30,3348.2478,S,15051.8943,E,4,18,0.6,30.0,M,46.9,M,,*5F
$GNRMC,000046.30,A,3348.2478,S,15051.8943,E,099.6,338.5,010126,,*3D
$GNGGA,000046.40,3348.2487,S,15051.8974,E,4,18,0.6,30.0,M,46.9,M,,*5C
$GNRMC,000046.40,A,3348.2487,S,15051.8974,E,099.6,340.9,010126,,*3D
$GNGGA,000046.50,3348.2496,S,15051.9006,E,4,18,0.6,30.0,M,46.9,M,,*50
$GNRMC,000046.50,A,3348.2496,S,15051.9006,E,099.7,340.9,010126,,*30
$GNGGA,000046.60,3348.2505,S,15051.9037,E,4,18,0.6,30.0,M,46.9,M,,*5A
$GNRMC,000046.60,A,3348.2505,S,15051.9037,E,099.7,340.9,010126,,*3A
$GNGGA,000046.70,3348.2514,S,15051.9069,E,4,18,0.6,30.0,M,46.9,M,,*50
$GNRMC,000046.70,A,3348.2514,S,15051.9069,E,099.7,340.9,010126,,*30
$GNGGA,000046.80,3348.2523,S,15051.9100,E,4,18,0.6,30.0,M,46.9,M,,*55
$GNRMC,000046.80,A,3348.2523,S,15051.9100,E,099.7,340.9,010126,,*35
$GNGGA,000046.90,3348.2532,S,15051.9132,E,4,18,0.6,30.0,M,46.9,M,,*55
$GNRMC,000046.90,A,3348.2532,S,15051.9132,E,099.7,340.9,010126,,*35
$GNGGA,000047.00,3348.2541,S,15051.9163,E,4,18,0.6,30.0,M,46.9,M,,*5D
$GNRMC,000047.00,A,3348.2541,S,15051.9163,E,099.7,340.9,010126,,*3D
$GNGGA,000047.10,3348.2550,S,15051.9195,E,4,18,0.6,30.0,M,46.9,M,,*55
$GNRMC,000047.10,A,3348.2550,S,15051.9195,E,099.7,340.9,010126,,*35
$GNGGA,000047.20,3348.2559,S,15051.9226,E,4,18,0.6,30.0,M,46.9,M,,*54
$GNRMC,000047.20,A,3348.2559,S,15051.9226,E,099.7,340.9,010126,,*34
$GNGGA,000047.30,3348.2567,S,15051.9258,E,4,18,0.6,30.0,M,46.9,M,,*51
$GNRMC,000047.30,A,3348.2567,S,15051.9258,E,099.7,343.2,010126,,*39
$GNGGA,000047.40,3348.2575,S,15051.9290,E,4,18,0.6,30.0,M,46.9,M,,*51
$GNRMC,000047.40,A,3348.2575,S,15051.9290,E,099.7,343.2,010126,,*39
$GNGGA,000047.50,3348.2583,S,15051.9322,E,4,18,0.6,30.0,M,46.9,M,,*51
$GNRMC,000047.50,A,3348.2583,S,15051.9322,E,099.7,343.2,010126,,*39
$GNGGA,000047.60,3348.2591,S,15051.9354,E,4,18,0.6,30.0,M,46.9,M,,*50
$GNRMC,000047.60,A,3348.2591,S,15051.9354,E,099.7,343.2,010126,,*38
$GNGGA,000047.70,3348.2599,S,15051.9386,E,4,18,0.6,30.0,M,46.9,M,,*56
$GNRMC,000047.70,A,3348.2599,S,15051.9386,E,099.7,343.2,010126,,*3E
$GNGGA,000047.80,3348.2607,S,15051.9417,E,4,18,0.6,30.0,M,46.9,M,,*52
$GNRMC,000047.80,A,3348.2607,S,15051.9417,E,099.7,343.2,010126,,*3A
$GNGGA,000047.90,3348.2615,S,15051.9449,E,4,18,0.6,30.0,M,46.9,M,,*5B
$GNRMC,000047.90,A,3348.2615,S,15051.9449,E,099.7,343.2,010126,,*33
$GNGGA,000048.00,3348.2623,S,15051.9481,E,4,18,0.6,30.0,M,46.9,M,,*5C
$GNRMC,000048.00,A,3348.2623,S,15051.9481,E,099.7,343.2,010126,,*34
$GNGGA,000048.10,3348.2631,S,15051.9513,E,4,18,0.6,30.0,M,46.9,M,,*54
$GNRMC,000048.10,A,3348.2631,S,15051.9513,E,099.7,343.2,010126,,*3C
$GNGGA,000048.20,3348.2638,S,15051.9545,E,4,18,0.6,30.0,M,46.9,M,,*5D
$GNRMC,000048.20,A,3348.2638,S,15051.9545,E,099.7,345.3,010126,,*32
$GNGGA,000048.30,3348.2645,S,15051.9578,E,4,18,0.6,30.0,M,46.9,M,,*58
$GNRMC,000048.30,A,3348.2645,S,15051.9578,E,099.7,345.3,010126,,*37
$GNGGA,000048.40,3348.2652,S,15051.9610,E,4,18,0.6,30.0,M,46.9,M,,*54
$GNRMC,000048.40,A,3348.2652,S,15051.9610,E,099.7,345.3,010126,,*3B
$GNGGA,000048.50,3348.2660,S,15051.9642,E,4,18,0.6,30.0,M,46.9,M,,*53
$GNRMC,000048.50,A,3348.2660,S,15051.9642,E,099.7,345.3,010126,,*3C
$GNGGA,000048.60,3348.2667,S,15051.9674,E,4,18,0.6,30.0,M,46.9,M,,*52
$GNRMC,000048.60,A,3348.2667,S,15051.9674,E,099.7,345.3,010126,,*3D
$GNGGA,000048.70,3348.2674,S,15051.9706,E,4,18,0.6,30.0,M,46.9,M,,*55
$GNRMC,000048.70,A,3348.2674,S,15051.9706,E,099.7,345.3,010126,,*3A
$GNGGA,000048.80,3348.2681,S,15051.9739,E,4,18,0.6,30.0,M,46.9,M,,*5C
$GNRMC,000048.80,A,3348.2681,S,15051.9739,E,099.7,345.3,010126,,*33
$GNGGA,000048.90,3348.2688,S,15051.9771,E,4,18,0.6,30.0,M,46.9,M,,*58
$GNRMC,000048.90,A,3348.2688,S,15051.9771,E,099.7,345.3,010126,,*37
$GNGGA,000049.00,3348.2695,S,15051.9803,E,4,18,0.6,30.0,M,46.9,M,,*56
$GNRMC,000049.00,A,3348.2695,S,15051.9803,E,099.7,345.3,010126,,*39
$GNGGA,000049.10,3348.2701,S,15051.9835,E,4,18,0.6,30.0,M,46.9,M,,*5E
$GNRMC,000049.10,A,3348.2701,S,15051.9835,E,099.7,347.3,010126,,*33
$GNGGA,000049.20,3348.2707,S,15051.9868,E,4,18,0.6,30.0,M,46.9,M,,*53
$GNRMC,000049.20,A,3348.2707,S,15051.9868,E,099.6,347.3,010126,,*3F
$GNGGA,000049.30,3348.2713,S,15051.9900,E,4,18,0.6,30.0,M,46.9,M,,*58
$GNRMC,000049.30,A,3348.2713,S,15051.9900,E,099.6,347.3,010126,,*34
$GNGGA,000049.40,3348.2719,S,15051.9933,E,4,18,0.6,30.0,M,46.9,M,,*55
$GNRMC,000049.40,A,3348.2719,S,15051.9933,E,099.6,347.3,010126,,*39
$GNGGA,000049.50,3348.2725,S,15051.9965,E,4,18,0.6,30.0,M,46.9,M,,*58
$GNRMC,000049.50,A,3348.2725,S,15051.9965,E,099.6,347.3,010126,,*34
$GNGGA,000049.60,3348.2731,S,15051.9998,E,4,18,0.6,30.0,M,46.9,M,,*5C
$GNRMC,000049.60,A,3348.2731,S,15051.9998,E,099.6,347.3,010126,,*30
$GNGGA,000049.70,3348.2738,S,15052.0030,E,4,18,0.6,30.0,M,46.9,M,,*55
$GNRMC,000049.70,A,3348.2738,S,15052.0030,E,099.6,347.3,010126,,*39
$GNGGA,000049.80,3348.2744,S,15052.0063,E,4,18,0.6,30.0,M,46.9,M,,*57
$GNRMC,000049.80,A,3348.2744,S,15052.0063,E,099.6,347.3,010126,,*3B
$GNGGA,000049.90,3348.2750,S,15052.0095,E,4,18,0.6,30.0,M,46.9,M,,*5A
$GNRMC,000049.90,A,3348.2750,S,15052.0095,E,099.5,347.3,010126,,*35
$GNGGA,000050.00,3348.2756,S,15052.0128,E,4,18,0.6,30.0,M,46.9,M,,*5A
$GNRMC,000050.00,A,3348.2756,S,15052.0128,E,099.5,347.3,010126,,*35
$GNGGA,000050.10,3348.2761,S,15052.0160,E,4,18,0.6,30.0,M,46.9,M,,*53
$GNRMC,000050.10,A,3348.2761,S,15052.0160,E,099.5,349.2,010126,,*33
$GNGGA,000050.20,3348.2766,S,15052.0193,E,4,18,0.6,30.0,M,46.9,M,,*5B
$GNRMC,000050.20,A,3348.2766,S,15052.0193,E,099.5,349.2,010126,,*3B
$GNGGA,000050.30,3348.2771,S,15052.0225,E,4,18,0.6,30.0,M,46.9,M,,*52
$GNRMC,000050.30,A,3348.2771,S,15052.0225,E,099.5,349.2,010126,,*32
$GNGGA,000050.40,3348.2777,S,15052.0258,E,4,18,0.6,30.0,M,46.9,M,,*59
$GNRMC,000050.40,A,3348.2777,S,15052.0258,E,099.5,349.2,010126,,*39
$GNGGA,000050.50,3348.2782,S,15052.0291,E,4,18,0.6,30.0,M,46.9,M,,*57
$GNRMC,000050.50,A,3348.2782,S,15052.0291,E,099.4,349.2,010126,,*36
$GNGGA,000050.60,3348.2787,S,15052.0323,E,4,18,0.6,30.0,M,46.9,M,,*59
$GNRMC,000050.60,A,3348.2787,S,15052.0323,E,099.4,349.2,010126,,*38
$GNGGA,000050.70,3348.2792,S,15052.0356,E,4,18,0.6,30.0,M,46.9,M,,*5E
$GNRMC,000050.70,A,3348.2792,S,15052.0356,E,099.4,349.2,010126,,*3F
$GNGGA,000050.80,3348.2797,S,15052.0389,E,4,18,0.6,30.0,M,46.9,M,,*56
$GNRMC,000050.80,A,3348.2797,S,15052.0389,E,099.4,349.2,010126,,*37
$GNGGA,000050.90,3348.2802,S,15052.0421,E,4,18,0.6,30.0,M,46.9,M,,*51
$GNRMC,000050.90,A,3348.2802,S,15052.0421,E,099.3,349.2,010126,,*37
$GNGGA,000051.00,3348.2808,S,15052.0454,E,4,18,0.6,30.0,M,46.9,M,,*51
$GNRMC,000051.00,A,3348.2808,S,15052.0454,E,099.3,349.2,010126,,*37
$GNGGA,000051.10,3348.2812,S,15052.0487,E,4,18,0.6,30.0,M,46.9,M,,*55
$GNRMC,000051.10,A,3348.2812,S,15052.0487,E,099.3,351.0,010126,,*38
$GNGGA,000051.20,3348.2816,S,15052.0519,E,4,18,0.6,30.0,M,46.9,M,,*54
$GNRMC,000051.20,A,3348.2816,S,15052.0519,E,099.3,351.0,010126,,*39
$GNGGA,000051.30,3348.2821,S,15052.0552,E,4,18,0.6,30.0,M,46.9,M,,*5E
$GNRMC,000051.30,A,3348.2821,S,15052.0552,E,099.2,351.0,010126,,*32
$GNGGA,000051.40,3348.2825,S,15052.0585,E,4,18,0.6,30.0,M,46.9,M,,*57
$GNRMC,000051.40,A,3348.2825,S,15052.0585,E,099.2,351.0,010126,,*3B
$GNGGA,000051.50,3348.2829,S,15052.0618,E,4,18,0.6,30.0,M,46.9,M,,*5D
$GNRMC,000051.50,A,3348.2829,S,15052.0618,E,099.2,351.0,010126,,*31
$GNGGA,000051.60,3348.2834,S,15052.0650,E,4,18,0.6,30.0,M,46.9,M,,*5E
$GNRMC,000051.60,A,3348.2834,S,15052.0650,E,099.2,351.0,010126,,*32
$GNGGA,000051.70,3348.2838,S,15052.0683,E,4,18,0.6,30.0,M,46.9,M,,*5D
$GNRMC,000051.70,A,3348.2838,S,15052.0683,E,099.1,351.0,010126,,*32
$GNGGA,000051.80,3348.2842,S,15052.0716,E,4,18,0.6,30.0,M,46.9,M,,*52
$GNRMC,000051.80,A,3348.2842,S,15052.0716,E,099.1,351.0,010126,,*3D
$GNGGA,000051.90,3348.2847,S,15052.0748,E,4,18,0.6,30.0,M,46.9,M,,*5D
$GNRMC,000051.90,A,3348.2847,S,15052.0748,E,099.1,351.0,010126,,*32
$GNGGA,000052.00,3348.2851,S,15052.0781,E,4,18,0.6,30.0,M,46.9,M,,*55
$GNRMC,000052.00,A,3348.2851,S,15052.0781,E,099.0,351.0,010126,,*3B
$GNGGA,000052.10,3348.2855,S,15052.0814,E,4,18,0.6,30.0,M,46.9,M,,*53
$GNRMC,000052.10,A,3348.2855,S,15052.0814,E,099.0,352.7,010126,,*39
$GNGGA,000052.20,3348.2858,S,15052.0847,E,4,18,0.6,30.0,M,46.9,M,,*5B
$GNRMC,000052.20,A,3348.2858,S,15052.0847,E,099.0,352.7,010126,,*31
$GNGGA,000052.30,3348.2862,S,15052.0879,E,4,18,0.6,30.0,M,46.9,M,,*5E
$GNRMC,000052.30,A,3348.2862,S,15052.0879,E,098.9,352.7,010126,,*3C
$GNGGA,000052.40,3348.2865,S,15052.0912,E,4,18,0.6,30.0,M,46.9,M,,*52
$GNRMC,000052.40,A,3348.2865,S,15052.0912,E,098.9,352.7,010126,,*30
$GNGGA,000052.50,3348.2869,S,15052.0945,E,4,18,0.6,30.0,M,46.9,M,,*5D
$GNRMC,000052.50,A,3348.2869,S,15052.0945,E,098.9,352.7,010126,,*3F
$GNGGA,000052.60,3348.2872,S,15052.0978,E,4,18,0.6,30.0,M,46.9,M,,*5A
$GNRMC,000052.60,A,3348.2872,S,15052.0978,E,098.8,352.7,010126,,*39
$GNGGA,000052.70,3348.2875,S,15052.1011,E,4,18,0.6,30.0,M,46.9,M,,*5B
$GNRMC,000052.70,A,3348.2875,S,15052.1011,E,098.8,352.7,010126,,*38
$GNGGA,000052.80,3348.2879,S,15052.1043,E,4,18,0.6,30.0,M,46.9,M,,*5F
$GNRMC,000052.80,A,3348.2879,S,15052.1043,E,098.8,352.7,010126,,*3C
$GNGGA,000052.90,3348.2882,S,15052.1076,E,4,18,0.6,30.0,M,46.9,M,,*5C
$GNRMC,000052.90,A,3348.2882,S,15052.1076,E,098.7,352.7,010126,,*30
$GNGGA,000053.00,3348.2886,S,15052.1109,E,4,18,0.6,30.0,M,46.9,M,,*59
$GNRMC,000053.00,A,3348.2886,S,15052.1109,E,098.7,352.7,010126,,*35
$GNGGA,000053.10,3348.2889,S,15052.1142,E,4,18,0.6,30.0,M,46.9,M,,*58
$GNRMC,000053.10,A,3348.2889,S,15052.1142,E,098.7,354.4,010126,,*31
$GNGGA,000053.20,3348.2892,S,15052.1174,E,4,18,0.6,30.0,M,46.9,M,,*54
$GNRMC,000053.20,A,3348.2892,S,15052.1174,E,098.6,354.4,010126,,*3C
$GNGGA,000053.30,3348.2895,S,15052.1207,E,4,18,0.6,30.0,M,46.9,M,,*55
$GNRMC,000053.30,A,3348.2895,S,15052.1207,E,098.6,354.4,010126,,*3D
$GNGGA,000053.40,3348.2897,S,15052.1240,E,4,18,0.6,30.0,M,46.9,M,,*53
$GNRMC,000053.40,A,3348.2897,S,15052.1240,E,098.6,354.4,010126,,*3B
$GNGGA,000053.50,3348.2900,S,15052.1273,E,4,18,0.6,30.0,M,46.9,M,,*5D
$GNRMC,000053.50,A,3348.2900,S,15052.1273,E,098.5,354.4,010126,,*36
$GNGGA,000053.60,3348.2903,S,15052.1305,E,4,18,0.6,30.0,M,46.9,M,,*5D
$GNRMC,000053.60,A,3348.2903,S,15052.1305,E,098.5,354.4,010126,,*36
$GNGGA,000053.70,3348.2905,S,15052.1338,E,4,18,0.6,30.0,M,46.9,M,,*54
$GNRMC,000053.70,A,3348.2905,S,15052.1338,E,098.4,354.4,010126,,*3E
$GNGGA,000053.80,3348.2908,S,15052.1371,E,4,18,0.6,30.0,M,46.9,M,,*5B
$GNRMC,000053.80,A,3348.2908,S,15052.1371,E,098.4,354.4,010126,,*31
$GNGGA,000053.90,3348.2911,S,15052.1404,E,4,18,0.6,30.0,M,46.9,M,,*57
$GNRMC,000053.90,A,3348.2911,S,15052.1404,E,098.4,354.4,010126,,*3D
$GNGGA,000054.00,3348.2913,S,15052.1436,E,4,18,0.6,30.0,M,46.9,M,,*5A
$GNRMC,000054.00,A,3348.2913,S,15052.1436,E,098.3,354.4,010126,,*37
$GNGGA,000054.10,3348.2916,S,15052.1469,E,4,18,0.6,30.0,M,46.9,M,,*54
$GNRMC,000054.10,A,3348.2916,S,15052.1469,E,098.3,354.4,010126,,*39
$GNGGA,000054.20,3348.2918,S,15052.1502,E,4,18,0.6,30.0,M,46.9,M,,*55
$GNRMC,000054.20,A,3348.2918,S,15052.1502,E,098.2,356.0,010126,,*3F
$GNGGA,000054.30,3348.2920,S,15052.1534,E,4,18,0.6,30.0,M,46.9,M,,*5A
$GNRMC,000054.30,A,3348.2920,S,15052.1534,E,098.2,356.0,010126,,*30
$GNGGA,000054.40,3348.2922,S,15052.1567,E,4,18,0.6,30.0,M,46.9,M,,*59
$GNRMC,000054.40,A,3348.2922,S,15052.1567,E,098.2,356.0,010126,,*33
$GNGGA,000054.50,3348.2924,S,15052.1600,E,4,18,0.6,30.0,M,46.9,M,,*5C
$GNRMC,000054.50,A,3348.2924,S,15052.1600,E,098.1,356.0,010126,,*35
$GNGGA,000054.60,3348.2926,S,15052.1633,E,4,18,0.6,30.0,M,46.9,M,,*5D
$GNRMC,000054.60,A,3348.2926,S,15052.1633,E,098.1,356.0,010126,,*34
$GNGGA,000054.70,3348.2927,S,15052.1665,E,4,18,0.6,30.0,M,46.9,M,,*5E
$GNRMC,000054.70,A,3348.2927,S,15052.1665,E,098.0,356.0,010126,,*36
$GNGGA,000054.80,3348.2929,S,15052.1698,E,4,18,0.6,30.0,M,46.9,M,,*5D
$GNRMC,000054.80,A,3348.2929,S,15052.1698,E,098.0,356.0,010126,,*35
$GNGGA,000054.90,3348.2931,S,15052.1731,E,4,18,0.6,30.0,M,46.9,M,,*57
$GNRMC,000054.90,A,3348.2931,S,15052.1731,E,097.9,356.0,010126,,*39
$GNGGA,000055.00,3348.2933,S,15052.1763,E,4,18,0.6,30.0,M,46.9,M,,*5A
$GNRMC,000055.00,A,3348.2933,S,15052.1763,E,097.9,356.0,010126,,*34
$GNGGA,000055.10,3348.2935,S,15052.1796,E,4,18,0.6,30.0,M,46.9,M,,*57
$GNRMC,000055.10,A,3348.2935,S,15052.1796,E,097.9,356.0,010126,,*39
$GNGGA,000055.20,3348.2937,S,15052.1829,E,4,18,0.6,30.0,M,46.9,M,,*5D
$GNRMC,000055.20,A,3348.2937,S,15052.1829,E,097.8,356.0,010126,,*32
$GNGGA,000055.30,3348.2938,S,15052.1861,E,4,18,0.6,30.0,M,46.9,M,,*5F
$GNRMC,000055.30,A,3348.2938,S,15052.1861,E,097.8,357.6,010126,,*37
$GNGGA,000055.40,3348.2939,S,15052.1894,E,4,18,0.6,30.0,M,46.9,M,,*53
$GNRMC,000055.40,A,3348.2939,S,15052.1894,E,097.7,357.6,010126,,*34
$GNGGA,000055.50,3348.2940,S,15052.1926,E,4,18,0.6,30.0,M,46.9,M,,*54
$GNRMC,000055.50,A,3348.2940,S,15052.1926,E,097.7,357.6,010126,,*33
$GNGGA,000055.60,3348.2941,S,15052.1959,E,4,18,0.6,30.0,M,46.9,M,,*5E
$GNRMC,000055.60,A,3348.2941,S,15052.1959,E,097.6,357.6,010126,,*38
$GNGGA,000055.70,3348.2943,S,15052.1992,E,4,18,0.6,30.0,M,46.9,M,,*5A
$GNRMC,000055.70,A,3348.2943,S,15052.1992,E,097.6,357.6,010126,,*3C
$GNGGA,000055.80,3348.2944,S,15052.2024,E,4,18,0.6,30.0,M,46.9,M,,*55
$GNRMC,000055.80,A,3348.2944,S,15052.2024,E,097.5,357.6,010126,,*30
$GNGGA,000055.90,3348.2945,S,15052.2057,E,4,18,0.6,30.0,M,46.9,M,,*51
$GNRMC,000055.90,A,3348.2945,S,15052.2057,E,097.5,357.6,010126,,*34
$GNGGA,000056.00,3348.2946,S,15052.2089,E,4,18,0.6,30.0,M,46.9,M,,*5B
$GNRMC,000056.00,A,3348.2946,S,15052.2089,E,097.5,357.6,010126,,*3E
$GNGGA,000056.10,3348.2947,S,15052.2122,E,4,18,0.6,30.0,M,46.9,M,,*5B
$GNRMC,000056.10,A,3348.2947,S,15052.2122,E,097.4,357.6,010126,,*3F
$GNGGA,000056.20,3348.2948,S,15052.2154,E,4,18,0.6,30.0,M,46.9,M,,*56
$GNRMC,000056.20,A,3348.2948,S,15052.2154,E,097.4,357.6,010126,,*32
$GNGGA,000056.30,3348.2949,S,15052.2187,E,4,18,0.6,30.0,M,46.9,M,,*58
$GNRMC,000056.30,A,3348.2949,S,15052.2187,E,097.3,359.2,010126,,*31
$GNGGA,000056.40,3348.2950,S,15052.2219,E,4,18,0.6,30.0,M,46.9,M,,*53
$GNRMC,000056.40,A,3348.2950,S,15052.2219,E,097.3,359.2,010126,,*3A
$GNGGA,000056.50,3348.2950,S,15052.2252,E,4,18,0.6,30.0,M,46.9,M,,*5D
$GNRMC,000056.50,A,3348.2950,S,15052.2252,E,097.2,359.2,010126,,*35
$GNGGA,000056.60,3348.2950,S,15052.2284,E,4,18,0.6,30.0,M,46.9,M,,*55
$GNRMC,000056.60,A,3348.2950,S,15052.2284,E,097.2,359.2,010126,,*3D
$GNGGA,000056.70,3348.2951,S,15052.2317,E,4,18,0.6,30.0,M,46.9,M,,*5E
$GNRMC,000056.70,A,3348.2951,S,15052.2317,E,097.1,359.2,010126,,*35
$GNGGA,000056.80,3348.2951,S,15052.2349,E,4,18,0.6,30.0,M,46.9,M,,*5A
$GNRMC,000056.80,A,3348.2951,S,15052.2349,E,097.1,359.2,010126,,*31
$GNGGA,000056.90,3348.2951,S,15052.2382,E,4,18,0.6,30.0,M,46.9,M,,*5C
$GNRMC,000056.90,A,3348.2951,S,15052.2382,E,097.0,359.2,010126,,*36
$GNGGA,000057.00,3348.2952,S,15052.2414,E,4,18,0.6,30.0,M,46.9,M,,*5F
$GNRMC,000057.00,A,3348.2952,S,15052.2414,E,097.0,359.2,010126,,*35
$GNGGA,000057.10,3348.2952,S,15052.2446,E,4,18,0.6,30.0,M,46.9,M,,*59
$GNRMC,000057.10,A,3348.2952,S,15052.2446,E,096.9,359.2,010126,,*3B
$GNGGA,000057.20,3348.2953,S,15052.2479,E,4,18,0.6,30.0,M,46.9,M,,*57
$GNRMC,000057.20,A,3348.2953,S,15052.2479,E,096.9,359.2,010126,,*35
$GNGGA,000057.30,3348.2953,S,15052.2511,E,4,18,0.6,30.0,M,46.9,M,,*59
$GNRMC,000057.30,A,3348.2953,S,15052.2511,E,096.8,359.2,010126,,*3A
$GNGGA,000057.40,3348.2953,S,15052.2543,E,4,18,0.6,30.0,M,46.9,M,,*59
$GNRMC,000057.40,A,3348.2953,S,15052.2543,E,096.8,000.8,010126,,*3F
$GNGGA,000057.50,3348.2953,S,15052.2576,E,4,18,0.6,30.0,M,46.9,M,,*5E
$GNRMC,000057.50,A,3348.2953,S,15052.2576,E,096.8,000.8,010126,,*38
$GNGGA,000057.60,3348.2952,S,15052.2608,E,4,18,0.6,30.0,M,46.9,M,,*56
$GNRMC,000057.60,A,3348.2952,S,15052.2608,E,096.7,000.8,010126,,*3F
$GNGGA,000057.70,3348.2952,S,15052.2640,E,4,18,0.6,30.0,M,46.9,M,,*5B
$GNRMC,000057.70,A,3348.2952,S,15052.2640,E,096.7,000.8,010126,,*32
$GNGGA,000057.80,3348.2952,S,15052.2673,E,4,18,0.6,30.0,M,46.9,M,,*54
$GNRMC,000057.80,A,3348.2952,S,15052.2673,E,096.6,000.8,010126,,*3C
$GNGGA,000057.90,3348.2951,S,15052.2705,E,4,18,0.6,30.0,M,46.9,M,,*56
$GNRMC,000057.90,A,3348.2951,S,15052.2705,E,096.6,000.8,010126,,*3E
$GNGGA,000058.00,3348.2951,S,15052.2737,E,4,18,0.6,30.0,M,46.9,M,,*51
$GNRMC,000058.00,A,3348.2951,S,15052.2737,E,096.5,000.8,010126,,*3A
$GNGGA,000058.10,3348.2951,S,15052.2770,E,4,18,0.6,30.0,M,46.9,M,,*53
$GNRMC,000058.10,A,3348.2951,S,15052.2770,E,096.5,000.8,010126,,*38
$GNGGA,000058.20,3348.2950,S,15052.2802,E,4,18,0.6,30.0,M,46.9,M,,*5B
$GNRMC,000058.20,A,3348.2950,S,15052.2802,E,096.4,000.8,010126,,*31
$GNGGA,000058.30,3348.2950,S,15052.2834,E,4,18,0.6,30.0,M,46.9,M,,*5F
$GNRMC,000058.30,A,3348.2950,S,15052.2834,E,096.4,000.8,010126,,*35
$GNGGA,000058.40,3348.2950,S,15052.2866,E,4,18,0.6,30.0,M,46.9,M,,*5F
$GNRMC,000058.40,A,3348.2950,S,15052.2866,E,096.3,000.8,010126,,*32
$GNGGA,000058.50,3348.2949,S,15052.2898,E,4,18,0.6,30.0,M,46.9,M,,*57
$GNRMC,000058.50,A,3348.2949,S,15052.2898,E,096.3,002.4,010126,,*34
$GNGGA,000058.60,3348.2948,S,15052.2930,E,4,18,0.6,30.0,M,46.9,M,,*56
$GNRMC,000058.60,A,3348.2948,S,15052.2930,E,096.2,002.4,010126,,*34
$GNGGA,000058.70,3348.2947,S,15052.2963,E,4,18,0.6,30.0,M,46.9,M,,*5E
$GNRMC,000058.70,A,3348.2947,S,15052.2963,E,096.2,002.4,010126,,*3C
$GNGGA,000058.80,3348.2946,S,15052.2995,E,4,18,0.6,30.0,M,46.9,M,,*59
$GNRMC,000058.80,A,3348.2946,S,15052.2995,E,096.2,002.4,010126,,*3B
$GNGGA,000058.90,3348.2945,S,15052.3027,E,4,18,0.6,30.0,M,46.9,M,,*5A
$GNRMC,000058.90,A,3348.2945,S,15052.3027,E,096.1,002.4,010126,,*3B
$GNGGA,000059.00,3348.2944,S,15052.3059,E,4,18,0.6,30.0,M,46.9,M,,*5A
$GNRMC,000059.00,A,3348.2944,S,15052.3059,E,096.1,002.4,010126,,*3B
$GNGGA,000059.10,3348.2942,S,15052.3091,E,4,18,0.6,30.0,M,46.9,M,,*59
$GNRMC,000059.10,A,3348.2942,S,15052.3091,E,096.0,002.4,010126,,*39
$GNGGA,000059.20,3348.2941,S,15052.3123,E,4,18,0.6,30.0,M,46.9,M,,*51
$GNRMC,000059.20,A,3348.2941,S,15052.3123,E,096.0,002.4,010126,,*31
$GNGGA,000059.30,3348.2940,S,15052.3155,E,4,18,0.6,30.0,M,46.9,M,,*50
$GNRMC,000059.30,A,3348.2940,S,15052.3155,E,095.9,002.4,010126,,*3A
$GNGGA,000059.40,3348.2939,S,15052.3187,E,4,18,0.6,30.0,M,46.9,M,,*56
$GNRMC,000059.40,A,3348.2939,S,15052.3187,E,095.9,002.4,010126,,*3C
$GNGGA,000059.50,3348.2938,S,15052.3219,E,4,18,0.6,30.0,M,46.9,M,,*52
$GNRMC,000059.50,A,3348.2938,S,15052.3219,E,095.8,002.4,010126,,*39
$GNGGA,000059.60,3348.2937,S,15052.3251,E,4,18,0.6,30.0,M,46.9,M,,*52
$GNRMC,000059.60,A,3348.2937,S,15052.3251,E,095.8,004.0,010126,,*3B
$GNGGA,000059.70,3348.2935,S,15052.3283,E,4,18,0.6,30.0,M,46.9,M,,*5E
$GNRMC,000059.70,A,3348.2935,S,15052.3283,E,095.8,004.0,010126,,*37
$GNGGA,000059.80,3348.2933,S,15052.3315,E,4,18,0.6,30.0,M,46.9,M,,*59
$GNRMC,000059.80,A,3348.2933,S,15052.3315,E,095.7,004.0,010126,,*3F
$GNGGA,000059.90,3348.2931,S,15052.3347,E,4,18,0.6,30.0,M,46.9,M,,*5D
$GNRMC,000059.90,A,3348.2931,S,15052.3347,E,095.7,004.0,010126,,*3B
