$GNGGA,000000.00,3348.0966,S,15052.7972,E,4,18,0.6,30.0,M,46.9,M,,*50
$GNRMC,000000.00,A,3348.0966,S,15052.7972,E,090.8,094.4,010126,,*31
$GNGGA,000000.10,3348.0941,S,15052.7969,E,4,18,0.6,30.0,M,46.9,M,,*5E
$GNRMC,000000.10,A,3348.0941,S,15052.7969,E,090.8,094.4,010126,,*3F
$GNGGA,000000.20,3348.0916,S,15052.7965,E,4,18,0.6,30.0,M,46.9,M,,*53
$GNRMC,000000.20,A,3348.0916,S,15052.7965,E,090.9,103.2,010126,,*3A
$GNGGA,000000.30,3348.0892,S,15052.7958,E,4,18,0.6,30.0,M,46.9,M,,*51
$GNRMC,000000.30,A,3348.0892,S,15052.7958,E,091.0,103.2,010126,,*30
$GNGGA,000000.40,3348.0867,S,15052.7952,E,4,18,0.6,30.0,M,46.9,M,,*56
$GNRMC,000000.40,A,3348.0867,S,15052.7952,E,091.0,103.2,010126,,*37
$GNGGA,000000.50,3348.0842,S,15052.7945,E,4,18,0.6,30.0,M,46.9,M,,*56
$GNRMC,000000.50,A,3348.0842,S,15052.7945,E,091.1,103.2,010126,,*36
$GNGGA,000000.60,3348.0818,S,15052.7938,E,4,18,0.6,30.0,M,46.9,M,,*50
$GNRMC,000000.60,A,3348.0818,S,15052.7938,E,091.1,103.2,010126,,*30
$GNGGA,000000.70,3348.0793,S,15052.7929,E,4,18,0.6,30.0,M,46.9,M,,*5D
$GNRMC,000000.70,A,3348.0793,S,15052.7929,E,091.2,111.4,010126,,*3B
$GNGGA,000000.80,3348.0770,S,15052.7918,E,4,18,0.6,30.0,M,46.9,M,,*5D
$GNRMC,000000.80,A,3348.0770,S,15052.7918,E,091.2,111.4,010126,,*3B
$GNGGA,000000.90,3348.0746,S,15052.7907,E,4,18,0.6,30.0,M,46.9,M,,*57
$GNRMC,000000.90,A,3348.0746,S,15052.7907,E,091.3,111.4,010126,,*30
$GNGGA,000001.00,3348.0723,S,15052.7896,E,4,18,0.6,30.0,M,46.9,M,,*55
$GNRMC,000001.00,A,3348.0723,S,15052.7896,E,091.4,111.4,010126,,*35
$GNGGA,000001.10,3348.0699,S,15052.7885,E,4,18,0.6,30.0,M,46.9,M,,*56
$GNRMC,000001.10,A,3348.0699,S,15052.7885,E,091.4,111.4,010126,,*36
$GNGGA,000001.20,3348.0676,S,15052.7873,E,4,18,0.6,30.0,M,46.9,M,,*5D
$GNRMC,000001.20,A,3348.0676,S,15052.7873,E,091.5,119.0,010126,,*30
$GNGGA,000001.30,3348.0653,S,15052.7858,E,4,18,0.6,30.0,M,46.9,M,,*52
$GNRMC,000001.30,A,3348.0653,S,15052.7858,E,091.5,119.0,010126,,*3F
$GNGGA,000001.40,3348.0631,S,15052.7844,E,4,18,0.6,30.0,M,46.9,M,,*5C
$GNRMC,000001.40,A,3348.0631,S,15052.7844,E,091.6,119.0,010126,,*32
$GNGGA,000001.50,3348.0609,S,15052.7829,E,4,18,0.6,30.0,M,46.9,M,,*5D
$GNRMC,000001.50,A,3348.0609,S,15052.7829,E,091.6,119.0,010126,,*33
$GNGGA,000001.60,3348.0587,S,15052.7814,E,4,18,0.6,30.0,M,46.9,M,,*55
$GNRMC,000001.60,A,3348.0587,S,15052.7814,E,091.7,119.0,010126,,*3A
$GNGGA,000001.70,3348.0564,S,15052.7799,E,4,18,0.6,30.0,M,46.9,M,,*53
$GNRMC,000001.70,A,3348.0564,S,15052.7799,E,091.8,119.0,010126,,*33
$GNGGA,000001.80,3348.0543,S,15052.7782,E,4,18,0.6,30.0,M,46.9,M,,*53
$GNRMC,000001.80,A,3348.0543,S,15052.7782,E,091.8,125.8,010126,,*34
$GNGGA,000001.90,3348.0523,S,15052.7764,E,4,18,0.6,30.0,M,46.9,M,,*5C
$GNRMC,000001.90,A,3348.0523,S,15052.7764,E,091.9,125.8,010126,,*3A
$GNGGA,000002.00,3348.0502,S,15052.7746,E,4,18,0.6,30.0,M,46.9,M,,*55
$GNRMC,000002.00,A,3348.0502,S,15052.7746,E,091.9,125.8,010126,,*33
$GNGGA,000002.10,3348.0481,S,15052.7728,E,4,18,0.6,30.0,M,46.9,M,,*56
$GNRMC,000002.10,A,3348.0481,S,15052.7728,E,092.0,125.8,010126,,*3A
$GNGGA,000002.20,3348.0461,S,15052.7710,E,4,18,0.6,30.0,M,46.9,M,,*50
$GNRMC,000002.20,A,3348.0461,S,15052.7710,E,092.0,125.8,010126,,*3C
$GNGGA,000002.30,3348.0440,S,15052.7692,E,4,18,0.6,30.0,M,46.9,M,,*59
$GNRMC,000002.30,A,3348.0440,S,15052.7692,E,092.1,125.8,010126,,*34
$GNGGA,000002.40,3348.0421,S,15052.7672,E,4,18,0.6,30.0,M,46.9,M,,*57
$GNRMC,000002.40,A,3348.0421,S,15052.7672,E,092.1,131.8,010126,,*3F
$GNGGA,000002.50,3348.0402,S,15052.7652,E,4,18,0.6,30.0,M,46.9,M,,*55
$GNRMC,000002.50,A,3348.0402,S,15052.7652,E,092.2,131.8,010126,,*3E
$GNGGA,000002.60,3348.0382,S,15052.7631,E,4,18,0.6,30.0,M,46.9,M,,*5C
$GNRMC,000002.60,A,3348.0382,S,15052.7631,E,092.3,131.8,010126,,*36
$GNGGA,000002.70,3348.0363,S,15052.7610,E,4,18,0.6,30.0,M,46.9,M,,*51
$GNRMC,000002.70,A,3348.0363,S,15052.7610,E,092.3,131.8,010126,,*3B
$GNGGA,000002.80,3348.0344,S,15052.7590,E,4,18,0.6,30.0,M,46.9,M,,*50
$GNRMC,000002.80,A,3348.0344,S,15052.7590,E,092.4,131.8,010126,,*3D
$GNGGA,000002.90,3348.0325,S,15052.7569,E,4,18,0.6,30.0,M,46.9,M,,*50
$GNRMC,000002.90,A,3348.0325,S,15052.7569,E,092.4,131.8,010126,,*3D
$GNGGA,000003.00,3348.0307,S,15052.7547,E,4,18,0.6,30.0,M,46.9,M,,*54
$GNRMC,000003.00,A,3348.0307,S,15052.7547,E,092.5,137.1,010126,,*37
$GNGGA,000003.10,3348.0290,S,15052.7524,E,4,18,0.6,30.0,M,46.9,M,,*5F
$GNRMC,000003.10,A,3348.0290,S,15052.7524,E,092.5,137.1,010126,,*3C
$GNGGA,000003.20,3348.0272,S,15052.7502,E,4,18,0.6,30.0,M,46.9,M,,*54
$GNRMC,000003.20,A,3348.0272,S,15052.7502,E,092.6,137.1,010126,,*34
$GNGGA,000003.30,3348.0255,S,15052.7479,E,4,18,0.6,30.0,M,46.9,M,,*5D
$GNRMC,000003.30,A,3348.0255,S,15052.7479,E,092.6,137.1,010126,,*3D
$GNGGA,000003.40,3348.0237,S,15052.7456,E,4,18,0.6,30.0,M,46.9,M,,*53
$GNRMC,000003.40,A,3348.0237,S,15052.7456,E,092.7,137.1,010126,,*32
$GNGGA,000003.50,3348.0220,S,15052.7434,E,4,18,0.6,30.0,M,46.9,M,,*50
$GNRMC,000003.50,A,3348.0220,S,15052.7434,E,092.7,137.1,010126,,*31
$GNGGA,000003.60,3348.0203,S,15052.7411,E,4,18,0.6,30.0,M,46.9,M,,*55
$GNRMC,000003.60,A,3348.0203,S,15052.7411,E,092.8,141.8,010126,,*33
$GNGGA,000003.70,3348.0187,S,15052.7386,E,4,18,0.6,30.0,M,46.9,M,,*52
$GNRMC,000003.70,A,3348.0187,S,15052.7386,E,092.8,141.8,010126,,*34
$GNGGA,000003.80,3348.0171,S,15052.7362,E,4,18,0.6,30.0,M,46.9,M,,*5E
$GNRMC,000003.80,A,3348.0171,S,15052.7362,E,092.9,141.8,010126,,*39
$GNGGA,000003.90,3348.0155,S,15052.7337,E,4,18,0.6,30.0,M,46.9,M,,*59
$GNRMC,000003.90,A,3348.0155,S,15052.7337,E,092.9,141.8,010126,,*3E
$GNGGA,000004.00,3348.0139,S,15052.7313,E,4,18,0.6,30.0,M,46.9,M,,*5B
$GNRMC,000004.00,A,3348.0139,S,15052.7313,E,093.0,141.8,010126,,*34
$GNGGA,000004.10,3348.0123,S,15052.7289,E,4,18,0.6,30.0,M,46.9,M,,*53
$GNRMC,000004.10,A,3348.0123,S,15052.7289,E,093.0,141.8,010126,,*3C
$GNGGA,000004.20,3348.0107,S,15052.7264,E,4,18,0.6,30.0,M,46.9,M,,*55
$GNRMC,000004.20,A,3348.0107,S,15052.7264,E,093.1,141.8,010126,,*3B
$GNGGA,000004.30,3348.0092,S,15052.7239,E,4,18,0.6,30.0,M,46.9,M,,*51
$GNRMC,000004.30,A,3348.0092,S,15052.7239,E,093.1,145.9,010126,,*3A
$GNGGA,000004.40,3348.0077,S,15052.7214,E,4,18,0.6,30.0,M,46.9,M,,*52
$GNRMC,000004.40,A,3348.0077,S,15052.7214,E,093.2,145.9,010126,,*3A
$GNGGA,000004.50,3348.0063,S,15052.7188,E,4,18,0.6,30.0,M,46.9,M,,*50
$GNRMC,000004.50,A,3348.0063,S,15052.7188,E,093.2,145.9,010126,,*38
$GNGGA,000004.60,3348.0048,S,15052.7162,E,4,18,0.6,30.0,M,46.9,M,,*5E
$GNRMC,000004.60,A,3348.0048,S,15052.7162,E,093.2,145.9,010126,,*36
$GNGGA,000004.70,3348.0034,S,15052.7136,E,4,18,0.6,30.0,M,46.9,M,,*55
$GNRMC,000004.70,A,3348.0034,S,15052.7136,E,093.3,145.9,010126,,*3C
$GNGGA,000004.80,3348.0019,S,15052.7110,E,4,18,0.6,30.0,M,46.9,M,,*51
$GNRMC,000004.80,A,3348.0019,S,15052.7110,E,093.3,145.9,010126,,*38
$GNGGA,000004.90,3348.0005,S,15052.7085,E,4,18,0.6,30.0,M,46.9,M,,*50
$GNRMC,000004.90,A,3348.0005,S,15052.7085,E,093.4,145.9,010126,,*3E
$GNGGA,000005.00,3347.9991,S,15052.7059,E,4,18,0.6,30.0,M,46.9,M,,*5B
$GNRMC,000005.00,A,3347.9991,S,15052.7059,E,093.4,149.6,010126,,*36
$GNGGA,000005.10,3347.9977,S,15052.7032,E,4,18,0.6,30.0,M,46.9,M,,*5F
$GNRMC,000005.10,A,3347.9977,S,15052.7032,E,093.5,149.6,010126,,*33
$GNGGA,000005.20,3347.9964,S,15052.7005,E,4,18,0.6,30.0,M,46.9,M,,*5A
$GNRMC,000005.20,A,3347.9964,S,15052.7005,E,093.5,149.6,010126,,*36
$GNGGA,000005.30,3347.9951,S,15052.6978,E,4,18,0.6,30.0,M,46.9,M,,*5F
$GNRMC,000005.30,A,3347.9951,S,15052.6978,E,093.5,149.6,010126,,*33
$GNGGA,000005.40,3347.9938,S,15052.6951,E,4,18,0.6,30.0,M,46.9,M,,*5C
$GNRMC,000005.40,A,3347.9938,S,15052.6951,E,093.6,149.6,010126,,*33
$GNGGA,000005.50,3347.9925,S,15052.6924,E,4,18,0.6,30.0,M,46.9,M,,*53
$GNRMC,000005.50,A,3347.9925,S,15052.6924,E,093.6,149.6,010126,,*3C
$GNGGA,000005.60,3347.9912,S,15052.6897,E,4,18,0.6,30.0,M,46.9,M,,*5D
$GNRMC,000005.60,A,3347.9912,S,15052.6897,E,093.6,149.6,010126,,*32
$GNGGA,000005.70,3347.9898,S,15052.6870,E,4,18,0.6,30.0,M,46.9,M,,*56
$GNRMC,000005.70,A,3347.9898,S,15052.6870,E,093.7,149.6,010126,,*38
$GNGGA,000005.80,3347.9886,S,15052.6843,E,4,18,0.6,30.0,M,46.9,M,,*56
$GNRMC,000005.80,A,3347.9886,S,15052.6843,E,093.7,152.8,010126,,*3C
$GNGGA,000005.90,3347.9874,S,15052.6815,E,4,18,0.6,30.0,M,46.9,M,,*59
$GNRMC,000005.90,A,3347.9874,S,15052.6815,E,093.8,152.8,010126,,*3C
$GNGGA,000006.00,3347.9862,S,15052.6787,E,4,18,0.6,30.0,M,46.9,M,,*50
$GNRMC,000006.00,A,3347.9862,S,15052.6787,E,093.8,152.8,010126,,*35
$GNGGA,000006.10,3347.9850,S,15052.6759,E,4,18,0.6,30.0,M,46.9,M,,*53
$GNRMC,000006.10,A,3347.9850,S,15052.6759,E,093.8,152.8,010126,,*36
$GNGGA,000006.20,3347.9838,S,15052.6731,E,4,18,0.6,30.0,M,46.9,M,,*50
$GNRMC,000006.20,A,3347.9838,S,15052.6731,E,093.9,152.8,010126,,*34
$GNGGA,000006.30,3347.9826,S,15052.6703,E,4,18,0.6,30.0,M,46.9,M,,*5F
$GNRMC,000006.30,A,3347.9826,S,15052.6703,E,093.9,152.8,010126,,*3B
$GNGGA,000006.40,3347.9815,S,15052.6675,E,4,18,0.6,30.0,M,46.9,M,,*58
$GNRMC,000006.40,A,3347.9815,S,15052.6675,E,093.9,152.8,010126,,*3C
$GNGGA,000006.50,3347.9803,S,15052.6647,E,4,18,0.6,30.0,M,46.9,M,,*5F
$GNRMC,000006.50,A,3347.9803,S,15052.6647,E,094.0,152.8,010126,,*35
$GNGGA,000006.60,3347.9791,S,15052.6619,E,4,18,0.6,30.0,M,46.9,M,,*53
$GNRMC,000006.60,A,3347.9791,S,15052.6619,E,094.0,155.8,010126,,*3E
$GNGGA,000006.70,3347.9780,S,15052.6591,E,4,18,0.6,30.0,M,46.9,M,,*51
$GNRMC,000006.70,A,3347.9780,S,15052.6591,E,094.0,155.8,010126,,*3C
$GNGGA,000006.80,3347.9770,S,15052.6562,E,4,18,0.6,30.0,M,46.9,M,,*5D
$GNRMC,000006.80,A,3347.9770,S,15052.6562,E,094.0,155.8,010126,,*30
$GNGGA,000006.90,3347.9759,S,15052.6533,E,4,18,0.6,30.0,M,46.9,M,,*53
$GNRMC,000006.90,A,3347.9759,S,15052.6533,E,094.1,155.8,010126,,*3F
$GNGGA,000007.00,3347.9748,S,15052.6505,E,4,18,0.6,30.0,M,46.9,M,,*5E
$GNRMC,000007.00,A,3347.9748,S,15052.6505,E,094.1,155.8,010126,,*32
$GNGGA,000007.10,3347.9738,S,15052.6476,E,4,18,0.6,30.0,M,46.9,M,,*5D
$GNRMC,000007.10,A,3347.9738,S,15052.6476,E,094.1,155.8,010126,,*31
$GNGGA,000007.20,3347.9727,S,15052.6447,E,4,18,0.6,30.0,M,46.9,M,,*52
$GNRMC,000007.20,A,3347.9727,S,15052.6447,E,094.1,155.8,010126,,*3E
$GNGGA,000007.30,3347.9716,S,15052.6419,E,4,18,0.6,30.0,M,46.9,M,,*5A
$GNRMC,000007.30,A,3347.9716,S,15052.6419,E,094.2,155.8,010126,,*35
$GNGGA,000007.40,3347.9706,S,15052.6390,E,4,18,0.6,30.0,M,46.9,M,,*5A
$GNRMC,000007.40,A,3347.9706,S,15052.6390,E,094.2,155.8,010126,,*35
$GNGGA,000007.50,3347.9696,S,15052.6361,E,4,18,0.6,30.0,M,46.9,M,,*5D
$GNRMC,000007.50,A,3347.9696,S,15052.6361,E,094.2,158.5,010126,,*32
$GNGGA,000007.60,3347.9686,S,15052.6331,E,4,18,0.6,30.0,M,46.9,M,,*5A
$GNRMC,000007.60,A,3347.9686,S,15052.6331,E,094.2,158.5,010126,,*35
$GNGGA,000007.70,3347.9677,S,15052.6302,E,4,18,0.6,30.0,M,46.9,M,,*55
$GNRMC,000007.70,A,3347.9677,S,15052.6302,E,094.3,158.5,010126,,*3B
$GNGGA,000007.80,3347.9667,S,15052.6273,E,4,18,0.6,30.0,M,46.9,M,,*5C
$GNRMC,000007.80,A,3347.9667,S,15052.6273,E,094.3,158.5,010126,,*32
$GNGGA,000007.90,3347.9657,S,15052.6244,E,4,18,0.6,30.0,M,46.9,M,,*5A
$GNRMC,000007.90,A,3347.9657,S,15052.6244,E,094.3,158.5,010126,,*34
$GNGGA,000008.00,3347.9648,S,15052.6214,E,4,18,0.6,30.0,M,46.9,M,,*57
$GNRMC,000008.00,A,3347.9648,S,15052.6214,E,094.3,158.5,010126,,*39
$GNGGA,000008.10,3347.9638,S,15052.6185,E,4,18,0.6,30.0,M,46.9,M,,*5A
$GNRMC,000008.10,A,3347.9638,S,15052.6185,E,094.3,158.5,010126,,*34
$GNGGA,000008.20,3347.9629,S,15052.6156,E,4,18,0.6,30.0,M,46.9,M,,*57
$GNRMC,000008.20,A,3347.9629,S,15052.6156,E,094.3,158.5,010126,,*39
$GNGGA,000008.30,3347.9619,S,15052.6126,E,4,18,0.6,30.0,M,46.9,M,,*52
$GNRMC,000008.30,A,3347.9619,S,15052.6126,E,094.4,160.9,010126,,*3C
$GNGGA,000008.40,3347.9610,S,15052.6097,E,4,18,0.6,30.0,M,46.9,M,,*57
$GNRMC,000008.40,A,3347.9610,S,15052.6097,E,094.4,160.9,010126,,*39
$GNGGA,000008.50,3347.9602,S,15052.6067,E,4,18,0.6,30.0,M,46.9,M,,*5A
$GNRMC,000008.50,A,3347.9602,S,15052.6067,E,094.4,160.9,010126,,*34
$GNGGA,000008.60,3347.9593,S,15052.6037,E,4,18,0.6,30.0,M,46.9,M,,*57
$GNRMC,000008.60,A,3347.9593,S,15052.6037,E,094.4,160.9,010126,,*39
$GNGGA,000008.70,3347.9585,S,15052.6007,E,4,18,0.6,30.0,M,46.9,M,,*52
$GNRMC,000008.70,A,3347.9585,S,15052.6007,E,094.4,160.9,010126,,*3C
$GNGGA,000008.80,3347.9576,S,15052.5977,E,4,18,0.6,30.0,M,46.9,M,,*5C
$GNRMC,000008.80,A,3347.9576,S,15052.5977,E,094.4,160.9,010126,,*32
$GNGGA,000008.90,3347.9568,S,15052.5948,E,4,18,0.6,30.0,M,46.9,M,,*5E
$GNRMC,000008.90,A,3347.9568,S,15052.5948,E,094.4,160.9,010126,,*30
$GNGGA,000009.00,3347.9559,S,15052.5918,E,4,18,0.6,30.0,M,46.9,M,,*51
$GNRMC,000009.00,A,3347.9559,S,15052.5918,E,094.4,160.9,010126,,*3F
$GNGGA,000009.10,3347.9551,S,15052.5888,E,4,18,0.6,30.0,M,46.9,M,,*50
$GNRMC,000009.10,A,3347.9551,S,15052.5888,E,094.4,160.9,010126,,*3E
$GNGGA,000009.20,3347.9542,S,15052.5858,E,4,18,0.6,30.0,M,46.9,M,,*5C
$GNRMC,000009.20,A,3347.9542,S,15052.5858,E,094.5,160.9,010126,,*33
$GNGGA,000009.30,3347.9534,S,15052.5828,E,4,18,0.6,30.0,M,46.9,M,,*5B
$GNRMC,000009.30,A,3347.9534,S,15052.5828,E,094.5,163.2,010126,,*3C
$GNGGA,000009.40,3347.9527,S,15052.5798,E,4,18,0.6,30.0,M,46.9,M,,*5A
$GNRMC,000009.40,A,3347.9527,S,15052.5798,E,094.5,163.2,010126,,*3D
$GNGGA,000009.50,3347.9519,S,15052.5768,E,4,18,0.6,30.0,M,46.9,M,,*59
$GNRMC,000009.50,A,3347.9519,S,15052.5768,E,094.5,163.2,010126,,*3E
$GNGGA,000009.60,3347.9511,S,15052.5737,E,4,18,0.6,30.0,M,46.9,M,,*58
$GNRMC,000009.60,A,3347.9511,S,15052.5737,E,094.5,163.2,010126,,*3F
$GNGGA,000009.70,3347.9504,S,15052.5707,E,4,18,0.6,30.0,M,46.9,M,,*5E
$GNRMC,000009.70,A,3347.9504,S,15052.5707,E,094.5,163.2,010126,,*39
$GNGGA,000009.80,3347.9496,S,15052.5677,E,4,18,0.6,30.0,M,46.9,M,,*5D
$GNRMC,000009.80,A,3347.9496,S,15052.5677,E,094.5,163.2,010126,,*3A
$GNGGA,000009.90,3347.9489,S,15052.5647,E,4,18,0.6,30.0,M,46.9,M,,*51
$GNRMC,000009.90,A,3347.9489,S,15052.5647,E,094.5,163.2,010126,,*36
$GNGGA,000010.00,3347.9481,S,15052.5616,E,4,18,0.6,30.0,M,46.9,M,,*5C
$GNRMC,000010.00,A,3347.9481,S,15052.5616,E,094.5,163.2,010126,,*3B
$GNGGA,000010.10,3347.9474,S,15052.5586,E,4,18,0.6,30.0,M,46.9,M,,*5D
$GNRMC,000010.10,A,3347.9474,S,15052.5586,E,094.5,163.2,010126,,*3A
$GNGGA,000010.20,3347.9466,S,15052.5556,E,4,18,0.6,30.0,M,46.9,M,,*50
$GNRMC,000010.20,A,3347.9466,S,15052.5556,E,094.5,165.3,010126,,*30
$GNGGA,000010.30,3347.9460,S,15052.5525,E,4,18,0.6,30.0,M,46.9,M,,*53
$GNRMC,000010.30,A,3347.9460,S,15052.5525,E,094.5,165.3,010126,,*33
$GNGGA,000010.40,3347.9453,S,15052.5495,E,4,18,0.6,30.0,M,46.9,M,,*5E
$GNRMC,000010.40,A,3347.9453,S,15052.5495,E,094.5,165.3,010126,,*3E
$GNGGA,000010.50,3347.9446,S,15052.5464,E,4,18,0.6,30.0,M,46.9,M,,*55
$GNRMC,000010.50,A,3347.9446,S,15052.5464,E,094.5,165.3,010126,,*35
$GNGGA,000010.60,3347.9440,S,15052.5434,E,4,18,0.6,30.0,M,46.9,M,,*55
$GNRMC,000010.60,A,3347.9440,S,15052.5434,E,094.4,165.3,010126,,*34
$GNGGA,000010.70,3347.9433,S,15052.5403,E,4,18,0.6,30.0,M,46.9,M,,*54
$GNRMC,000010.70,A,3347.9433,S,15052.5403,E,094.4,165.3,010126,,*35
$GNGGA,000010.80,3347.9426,S,15052.5373,E,4,18,0.6,30.0,M,46.9,M,,*5F
$GNRMC,000010.80,A,3347.9426,S,15052.5373,E,094.4,165.3,010126,,*3E
$GNGGA,000010.90,3347.9420,S,15052.5342,E,4,18,0.6,30.0,M,46.9,M,,*5A
$GNRMC,000010.90,A,3347.9420,S,15052.5342,E,094.4,165.3,010126,,*3B
$GNGGA,000011.00,3347.9413,S,15052.5312,E,4,18,0.6,30.0,M,46.9,M,,*57
$GNRMC,000011.00,A,3347.9413,S,15052.5312,E,094.4,165.3,010126,,*36
$GNGGA,000011.10,3347.9406,S,15052.5281,E,4,18,0.6,30.0,M,46.9,M,,*59
$GNRMC,000011.10,A,3347.9406,S,15052.5281,E,094.4,165.3,010126,,*38
$GNGGA,000011.20,3347.9400,S,15052.5251,E,4,18,0.6,30.0,M,46.9,M,,*51
$GNRMC,000011.20,A,3347.9400,S,15052.5251,E,094.4,167.3,010126,,*32
$GNGGA,000011.30,3347.9394,S,15052.5220,E,4,18,0.6,30.0,M,46.9,M,,*5C
$GNRMC,000011.30,A,3347.9394,S,15052.5220,E,094.4,167.3,010126,,*3F
$GNGGA,000011.40,3347.9389,S,15052.5189,E,4,18,0.6,30.0,M,46.9,M,,*57
$GNRMC,000011.40,A,3347.9389,S,15052.5189,E,094.4,167.3,010126,,*34
$GNGGA,000011.50,3347.9383,S,15052.5158,E,4,18,0.6,30.0,M,46.9,M,,*50
$GNRMC,000011.50,A,3347.9383,S,15052.5158,E,094.3,167.3,010126,,*34
$GNGGA,000011.60,3347.9377,S,15052.5128,E,4,18,0.6,30.0,M,46.9,M,,*5F
$GNRMC,000011.60,A,3347.9377,S,15052.5128,E,094.3,167.3,010126,,*3B
$GNGGA,000011.70,3347.9371,S,15052.5097,E,4,18,0.6,30.0,M,46.9,M,,*5D
$GNRMC,000011.70,A,3347.9371,S,15052.5097,E,094.3,167.3,010126,,*39
$GNGGA,000011.80,3347.9366,S,15052.5066,E,4,18,0.6,30.0,M,46.9,M,,*5A
$GNRMC,000011.80,A,3347.9366,S,15052.5066,E,094.3,167.3,010126,,*3E
$GNGGA,000011.90,3347.9360,S,15052.5036,E,4,18,0.6,30.0,M,46.9,M,,*58
$GNRMC,000011.90,A,3347.9360,S,15052.5036,E,094.3,167.3,010126,,*3C
$GNGGA,000012.00,3347.9354,S,15052.5005,E,4,18,0.6,30.0,M,46.9,M,,*55
$GNRMC,000012.00,A,3347.9354,S,15052.5005,E,094.3,167.3,010126,,*31
$GNGGA,000012.10,3347.9348,S,15052.4974,E,4,18,0.6,30.0,M,46.9,M,,*57
$GNRMC,000012.10,A,3347.9348,S,15052.4974,E,094.2,167.3,010126,,*32
$GNGGA,000012.20,3347.9343,S,15052.4943,E,4,18,0.6,30.0,M,46.9,M,,*5B
$GNRMC,000012.20,A,3347.9343,S,15052.4943,E,094.2,169.2,010126,,*31
$GNGGA,000012.30,3347.9338,S,15052.4912,E,4,18,0.6,30.0,M,46.9,M,,*52
$GNRMC,000012.30,A,3347.9338,S,15052.4912,E,094.2,169.2,010126,,*38
$GNGGA,000012.40,3347.9333,S,15052.4882,E,4,18,0.6,30.0,M,46.9,M,,*56
$GNRMC,000012.40,A,3347.9333,S,15052.4882,E,094.2,169.2,010126,,*3C
$GNGGA,000012.50,3347.9328,S,15052.4851,E,4,18,0.6,30.0,M,46.9,M,,*53
$GNRMC,000012.50,A,3347.9328,S,15052.4851,E,094.1,169.2,010126,,*3A
$GNGGA,000012.60,3347.9323,S,15052.4820,E,4,18,0.6,30.0,M,46.9,M,,*5D
$GNRMC,000012.60,A,3347.9323,S,15052.4820,E,094.1,169.2,010126,,*34
$GNGGA,000012.70,3347.9318,S,15052.4789,E,4,18,0.6,30.0,M,46.9,M,,*58
$GNRMC,000012.70,A,3347.9318,S,15052.4789,E,094.1,169.2,010126,,*31
$GNGGA,000012.80,3347.9313,S,15052.4758,E,4,18,0.6,30.0,M,46.9,M,,*50
$GNRMC,000012.80,A,3347.9313,S,15052.4758,E,094.1,169.2,010126,,*39
$GNGGA,000012.90,3347.9308,S,15052.4727,E,4,18,0.6,30.0,M,46.9,M,,*53
$GNRMC,000012.90,A,3347.9308,S,15052.4727,E,094.0,169.2,010126,,*3B
$GNGGA,000013.00,3347.9303,S,15052.4696,E,4,18,0.6,30.0,M,46.9,M,,*5B
$GNRMC,000013.00,A,3347.9303,S,15052.4696,E,094.0,169.2,010126,,*33
$GNGGA,000013.10,3347.9299,S,15052.4665,E,4,18,0.6,30.0,M,46.9,M,,*54
$GNRMC,000013.10,A,3347.9299,S,15052.4665,E,094.0,169.2,010126,,*3C
$GNGGA,000013.20,3347.9294,S,15052.4635,E,4,18,0.6,30.0,M,46.9,M,,*5F
$GNRMC,000013.20,A,3347.9294,S,15052.4635,E,093.9,169.2,010126,,*39
$GNGGA,000013.30,3347.9289,S,15052.4604,E,4,18,0.6,30.0,M,46.9,M,,*50
$GNRMC,000013.30,A,3347.9289,S,15052.4604,E,093.9,171.0,010126,,*3D
$GNGGA,000013.40,3347.9285,S,15052.4573,E,4,18,0.6,30.0,M,46.9,M,,*58
$GNRMC,000013.40,A,3347.9285,S,15052.4573,E,093.9,171.0,010126,,*35
$GNGGA,000013.50,3347.9281,S,15052.4542,E,4,18,0.6,30.0,M,46.9,M,,*5F
$GNRMC,000013.50,A,3347.9281,S,15052.4542,E,093.9,171.0,010126,,*32
$GNGGA,000013.60,3347.9277,S,15052.4511,E,4,18,0.6,30.0,M,46.9,M,,*53
$GNRMC,000013.60,A,3347.9277,S,15052.4511,E,093.8,171.0,010126,,*3F
$GNGGA,000013.70,3347.9273,S,15052.4480,E,4,18,0.6,30.0,M,46.9,M,,*5F
$GNRMC,000013.70,A,3347.9273,S,15052.4480,E,093.8,171.0,010126,,*33
$GNGGA,000013.80,3347.9269,S,15052.4449,E,4,18,0.6,30.0,M,46.9,M,,*5E
$GNRMC,000013.80,A,3347.9269,S,15052.4449,E,093.7,171.0,010126,,*3D
$GNGGA,000013.90,3347.9265,S,15052.4418,E,4,18,0.6,30.0,M,46.9,M,,*57
$GNRMC,000013.90,A,3347.9265,S,15052.4418,E,093.7,171.0,010126,,*34
$GNGGA,000014.00,3347.9261,S,15052.4387,E,4,18,0.6,30.0,M,46.9,M,,*5C
$GNRMC,000014.00,A,3347.9261,S,15052.4387,E,093.7,171.0,010126,,*3F
$GNGGA,000014.10,3347.9257,S,15052.4356,E,4,18,0.6,30.0,M,46.9,M,,*54
$GNRMC,000014.10,A,3347.9257,S,15052.4356,E,093.6,171.0,010126,,*36
$GNGGA,000014.20,3347.9253,S,15052.4325,E,4,18,0.6,30.0,M,46.9,M,,*57
$GNRMC,000014.20,A,3347.9253,S,15052.4325,E,093.6,171.0,010126,,*35
$GNGGA,000014.30,3347.9249,S,15052.4294,E,4,18,0.6,30.0,M,46.9,M,,*56
$GNRMC,000014.30,A,3347.9249,S,15052.4294,E,093.6,171.0,010126,,*34
$GNGGA,000014.40,3347.9245,S,15052.4263,E,4,18,0.6,30.0,M,46.9,M,,*55
$GNRMC,000014.40,A,3347.9245,S,15052.4263,E,093.5,172.7,010126,,*30
$GNGGA,000014.50,3347.9242,S,15052.4232,E,4,18,0.6,30.0,M,46.9,M,,*57
$GNRMC,000014.50,A,3347.9242,S,15052.4232,E,093.5,172.7,010126,,*32
$GNGGA,000014.60,3347.9239,S,15052.4201,E,4,18,0.6,30.0,M,46.9,M,,*58
$GNRMC,000014.60,A,3347.9239,S,15052.4201,E,093.4,172.7,010126,,*3C
$GNGGA,000014.70,3347.9235,S,15052.4170,E,4,18,0.6,30.0,M,46.9,M,,*50
$GNRMC,000014.70,A,3347.9235,S,15052.4170,E,093.4,172.7,010126,,*34
$GNGGA,000014.80,3347.9232,S,15052.4139,E,4,18,0.6,30.0,M,46.9,M,,*55
$GNRMC,000014.80,A,3347.9232,S,15052.4139,E,093.4,172.7,010126,,*31
$GNGGA,000014.90,3347.9229,S,15052.4108,E,4,18,0.6,30.0,M,46.9,M,,*5C
$GNRMC,000014.90,A,3347.9229,S,15052.4108,E,093.3,172.7,010126,,*3F
$GNGGA,000015.00,3347.9225,S,15052.4078,E,4,18,0.6,30.0,M,46.9,M,,*5E
$GNRMC,000015.00,A,3347.9225,S,15052.4078,E,093.3,172.7,010126,,*3D
$GNGGA,000015.10,3347.9222,S,15052.4047,E,4,18,0.6,30.0,M,46.9,M,,*54
$GNRMC,000015.10,A,3347.9222,S,15052.4047,E,093.2,172.7,010126,,*36
$GNGGA,000015.20,3347.9219,S,15052.4016,E,4,18,0.6,30.0,M,46.9,M,,*5B
$GNRMC,000015.20,A,3347.9219,S,15052.4016,E,093.2,172.7,010126,,*39
$GNGGA,000015.30,3347.9216,S,15052.3985,E,4,18,0.6,30.0,M,46.9,M,,*51
$GNRMC,000015.30,A,3347.9216,S,15052.3985,E,093.1,172.7,010126,,*30
$GNGGA,000015.40,3347.9212,S,15052.3954,E,4,18,0.6,30.0,M,46.9,M,,*5E
$GNRMC,000015.40,A,3347.9212,S,15052.3954,E,093.1,172.7,010126,,*3F
$GNGGA,000015.50,3347.9210,S,15052.3923,E,4,18,0.6,30.0,M,46.9,M,,*5D
$GNRMC,000015.50,A,3347.9210,S,15052.3923,E,093.1,174.4,010126,,*39
$GNGGA,000015.60,3347.9207,S,15052.3892,E,4,18,0.6,30.0,M,46.9,M,,*53
$GNRMC,000015.60,A,3347.9207,S,15052.3892,E,093.0,174.4,010126,,*36
$GNGGA,000015.70,3347.9205,S,15052.3861,E,4,18,0.6,30.0,M,46.9,M,,*5C
$GNRMC,000015.70,A,3347.9205,S,15052.3861,E,093.0,174.4,010126,,*39
$GNGGA,000015.80,3347.9202,S,15052.3830,E,4,18,0.6,30.0,M,46.9,M,,*50
$GNRMC,000015.80,A,3347.9202,S,15052.3830,E,092.9,174.4,010126,,*3D
$GNGGA,000015.90,3347.9199,S,15052.3799,E,4,18,0.6,30.0,M,46.9,M,,*5C
$GNRMC,000015.90,A,3347.9199,S,15052.3799,E,092.9,174.4,010126,,*31
$GNGGA,000016.00,3347.9197,S,15052.3769,E,4,18,0.6,30.0,M,46.9,M,,*57
$GNRMC,000016.00,A,3347.9197,S,15052.3769,E,092.8,174.4,010126,,*3B
$GNGGA,000016.10,3347.9194,S,15052.3738,E,4,18,0.6,30.0,M,46.9,M,,*51
$GNRMC,000016.10,A,3347.9194,S,15052.3738,E,092.8,174.4,010126,,*3D
$GNGGA,000016.20,3347.9192,S,15052.3707,E,4,18,0.6,30.0,M,46.9,M,,*58
$GNRMC,000016.20,A,3347.9192,S,15052.3707,E,092.7,174.4,010126,,*3B
$GNGGA,000016.30,3347.9189,S,15052.3676,E,4,18,0.6,30.0,M,46.9,M,,*54
$GNRMC,000016.30,A,3347.9189,S,15052.3676,E,092.7,174.4,010126,,*37
$GNGGA,000016.40,3347.9187,S,15052.3645,E,4,18,0.6,30.0,M,46.9,M,,*5D
$GNRMC,000016.40,A,3347.9187,S,15052.3645,E,092.6,174.4,010126,,*3F
$GNGGA,000016.50,3347.9184,S,15052.3614,E,4,18,0.6,30.0,M,46.9,M,,*5B
$GNRMC,000016.50,A,3347.9184,S,15052.3614,E,092.6,174.4,010126,,*39
$GNGGA,000016.60,3347.9182,S,15052.3584,E,4,18,0.6,30.0,M,46.9,M,,*54
$GNRMC,000016.60,A,3347.9182,S,15052.3584,E,092.5,176.0,010126,,*33
$GNGGA,000016.70,3347.9181,S,15052.3553,E,4,18,0.6,30.0,M,46.9,M,,*5C
$GNRMC,000016.70,A,3347.9181,S,15052.3553,E,092.5,176.0,010126,,*3B
$GNGGA,000016.80,3347.9179,S,15052.3522,E,4,18,0.6,30.0,M,46.9,M,,*52
$GNRMC,000016.80,A,3347.9179,S,15052.3522,E,092.4,176.0,010126,,*34
$GNGGA,000016.90,3347.9177,S,15052.3491,E,4,18,0.6,30.0,M,46.9,M,,*54
$GNRMC,000016.90,A,3347.9177,S,15052.3491,E,092.4,176.0,010126,,*32
$GNGGA,000017.00,3347.9175,S,15052.3460,E,4,18,0.6,30.0,M,46.9,M,,*50
$GNRMC,000017.00,A,3347.9175,S,15052.3460,E,092.3,176.0,010126,,*31
$GNGGA,000017.10,3347.9173,S,15052.3430,E,4,18,0.6,30.0,M,46.9,M,,*52
$GNRMC,000017.10,A,3347.9173,S,15052.3430,E,092.2,176.0,010126,,*32
$GNGGA,000017.20,3347.9172,S,15052.3399,E,4,18,0.6,30.0,M,46.9,M,,*54
$GNRMC,000017.20,A,3347.9172,S,15052.3399,E,092.2,176.0,010126,,*34
$GNGGA,000017.30,3347.9170,S,15052.3368,E,4,18,0.6,30.0,M,46.9,M,,*59
$GNRMC,000017.30,A,3347.9170,S,15052.3368,E,092.1,176.0,010126,,*3A
$GNGGA,000017.40,3347.9168,S,15052.3337,E,4,18,0.6,30.0,M,46.9,M,,*5D
$GNRMC,000017.40,A,3347.9168,S,15052.3337,E,092.1,176.0,010126,,*3E
$GNGGA,000017.50,3347.9166,S,15052.3307,E,4,18,0.6,30.0,M,46.9,M,,*51
$GNRMC,000017.50,A,3347.9166,S,15052.3307,E,092.0,176.0,010126,,*33
$GNGGA,000017.60,3347.9165,S,15052.3276,E,4,18,0.6,30.0,M,46.9,M,,*56
$GNRMC,000017.60,A,3347.9165,S,15052.3276,E,092.0,176.0,010126,,*34
$GNGGA,000017.70,3347.9163,S,15052.3245,E,4,18,0.6,30.0,M,46.9,M,,*51
$GNRMC,000017.70,A,3347.9163,S,15052.3245,E,091.9,177.6,010126,,*3E
$GNGGA,000017.80,3347.9162,S,15052.3215,E,4,18,0.6,30.0,M,46.9,M,,*5A
$GNRMC,000017.80,A,3347.9162,S,15052.3215,E,091.9,177.6,010126,,*35
$GNGGA,000017.90,3347.9161,S,15052.3184,E,4,18,0.6,30.0,M,46.9,M,,*53
$GNRMC,000017.90,A,3347.9161,S,15052.3184,E,091.8,177.6,010126,,*3D
$GNGGA,000018.00,3347.9160,S,15052.3154,E,4,18,0.6,30.0,M,46.9,M,,*59
$GNRMC,000018.00,A,3347.9160,S,15052.3154,E,091.8,177.6,010126,,*37
$GNGGA,000018.10,3347.9159,S,15052.3123,E,4,18,0.6,30.0,M,46.9,M,,*52
$GNRMC,000018.10,A,3347.9159,S,15052.3123,E,091.7,177.6,010126,,*33
$GNGGA,000018.20,3347.9158,S,15052.3092,E,4,18,0.6,30.0,M,46.9,M,,*5B
$GNRMC,000018.20,A,3347.9158,S,15052.3092,E,091.6,177.6,010126,,*3B
$GNGGA,000018.30,3347.9157,S,15052.3062,E,4,18,0.6,30.0,M,46.9,M,,*5A
$GNRMC,000018.30,A,3347.9157,S,15052.3062,E,091.6,177.6,010126,,*3A
$GNGGA,000018.40,3347.9155,S,15052.3031,E,4,18,0.6,30.0,M,46.9,M,,*59
$GNRMC,000018.40,A,3347.9155,S,15052.3031,E,091.5,177.6,010126,,*3A
$GNGGA,000018.50,3347.9154,S,15052.3001,E,4,18,0.6,30.0,M,46.9,M,,*5A
$GNRMC,000018.50,A,3347.9154,S,15052.3001,E,091.5,177.6,010126,,*39
$GNGGA,000018.60,3347.9153,S,15052.2970,E,4,18,0.6,30.0,M,46.9,M,,*50
$GNRMC,000018.60,A,3347.9153,S,15052.2970,E,091.4,177.6,010126,,*32
$GNGGA,000018.70,3347.9152,S,15052.2940,E,4,18,0.6,30.0,M,46.9,M,,*53
$GNRMC,000018.70,A,3347.9152,S,15052.2940,E,091.3,177.6,010126,,*36
$GNGGA,000018.80,3347.9151,S,15052.2909,E,4,18,0.6,30.0,M,46.9,M,,*52
$GNRMC,000018.80,A,3347.9151,S,15052.2909,E,091.3,177.6,010126,,*37
$GNGGA,000018.90,3347.9151,S,15052.2879,E,4,18,0.6,30.0,M,46.9,M,,*55
$GNRMC,000018.90,A,3347.9151,S,15052.2879,E,091.2,179.2,010126,,*3B
$GNGGA,000019.00,3347.9150,S,15052.2848,E,4,18,0.6,30.0,M,46.9,M,,*5E
$GNRMC,000019.00,A,3347.9150,S,15052.2848,E,091.2,179.2,010126,,*30
$GNGGA,000019.10,3347.9150,S,15052.2818,E,4,18,0.6,30.0,M,46.9,M,,*5A
$GNRMC,000019.10,A,3347.9150,S,15052.2818,E,091.1,179.2,010126,,*37
$GNGGA,000019.20,3347.9150,S,15052.2787,E,4,18,0.6,30.0,M,46.9,M,,*50
$GNRMC,000019.20,A,3347.9150,S,15052.2787,E,091.1,179.2,010126,,*3D
$GNGGA,000019.30,3347.9149,S,15052.2757,E,4,18,0.6,30.0,M,46.9,M,,*54
$GNRMC,000019.30,A,3347.9149,S,15052.2757,E,091.0,179.2,010126,,*38
$GNGGA,000019.40,3347.9149,S,15052.2726,E,4,18,0.6,30.0,M,46.9,M,,*55
$GNRMC,000019.40,A,3347.9149,S,15052.2726,E,090.9,179.2,010126,,*31
$GNGGA,000019.50,3347.9149,S,15052.2696,E,4,18,0.6,30.0,M,46.9,M,,*5E
$GNRMC,000019.50,A,3347.9149,S,15052.2696,E,090.9,179.2,010126,,*3A
$GNGGA,000019.60,3347.9148,S,15052.2666,E,4,18,0.6,30.0,M,46.9,M,,*53
$GNRMC,000019.60,A,3347.9148,S,15052.2666,E,090.8,179.2,010126,,*36
$GNGGA,000019.70,3347.9148,S,15052.2635,E,4,18,0.6,30.0,M,46.9,M,,*54
$GNRMC,000019.70,A,3347.9148,S,15052.2635,E,090.8,179.2,010126,,*31
$GNGGA,000019.80,3347.9148,S,15052.2605,E,4,18,0.6,30.0,M,46.9,M,,*58
$GNRMC,000019.80,A,3347.9148,S,15052.2605,E,090.7,179.2,010126,,*32
$GNGGA,000019.90,3347.9147,S,15052.2575,E,4,18,0.6,30.0,M,46.9,M,,*52
$GNRMC,000019.90,A,3347.9147,S,15052.2575,E,090.7,179.2,010126,,*38
$GNGGA,000020.00,3347.9147,S,15052.2544,E,4,18,0.6,30.0,M,46.9,M,,*53
$GNRMC,000020.00,A,3347.9147,S,15052.2544,E,090.6,179.2,010126,,*38
$GNGGA,000020.10,3347.9147,S,15052.2514,E,4,18,0.6,30.0,M,46.9,M,,*57
$GNRMC,000020.10,A,3347.9147,S,15052.2514,E,090.5,180.8,010126,,*33
$GNGGA,000020.20,3347.9147,S,15052.2484,E,4,18,0.6,30.0,M,46.9,M,,*5C
$GNRMC,000020.20,A,3347.9147,S,15052.2484,E,090.5,180.8,010126,,*38
$GNGGA,000020.30,3347.9148,S,15052.2454,E,4,18,0.6,30.0,M,46.9,M,,*5F
$GNRMC,000020.30,A,3347.9148,S,15052.2454,E,090.4,180.8,010126,,*3A
$GNGGA,000020.40,3347.9148,S,15052.2424,E,4,18,0.6,30.0,M,46.9,M,,*5F
$GNRMC,000020.40,A,3347.9148,S,15052.2424,E,090.4,180.8,010126,,*3A
$GNGGA,000020.50,3347.9148,S,15052.2393,E,4,18,0.6,30.0,M,46.9,M,,*55
$GNRMC,000020.50,A,3347.9148,S,15052.2393,E,090.3,180.8,010126,,*37
$GNGGA,000020.60,3347.9149,S,15052.2363,E,4,18,0.6,30.0,M,46.9,M,,*58
$GNRMC,000020.60,A,3347.9149,S,15052.2363,E,090.2,180.8,010126,,*3B
$GNGGA,000020.70,3347.9149,S,15052.2333,E,4,18,0.6,30.0,M,46.9,M,,*5C
$GNRMC,000020.70,A,3347.9149,S,15052.2333,E,090.2,180.8,010126,,*3F
$GNGGA,000020.80,3347.9149,S,15052.2303,E,4,18,0.6,30.0,M,46.9,M,,*50
$GNRMC,000020.80,A,3347.9149,S,15052.2303,E,090.1,180.8,010126,,*30
$GNGGA,000020.90,3347.9150,S,15052.2273,E,4,18,0.6,30.0,M,46.9,M,,*5F
$GNRMC,000020.90,A,3347.9150,S,15052.2273,E,090.1,180.8,010126,,*3F
$GNGGA,000021.00,3347.9150,S,15052.2243,E,4,18,0.6,30.0,M,46.9,M,,*54
$GNRMC,000021.00,A,3347.9150,S,15052.2243,E,090.0,180.8,010126,,*35
$GNGGA,000021.10,3347.9151,S,15052.2213,E,4,18,0.6,30.0,M,46.9,M,,*51
$GNRMC,000021.10,A,3347.9151,S,15052.2213,E,090.0,180.8,010126,,*30
$GNGGA,000021.20,3347.9151,S,15052.2183,E,4,18,0.6,30.0,M,46.9,M,,*58
$GNRMC,000021.20,A,3347.9151,S,15052.2183,E,089.9,182.4,010126,,*36
$GNGGA,000021.30,3347.9152,S,15052.2153,E,4,18,0.6,30.0,M,46.9,M,,*57
$GNRMC,000021.30,A,3347.9152,S,15052.2153,E,089.8,182.4,010126,,*38
$GNGGA,000021.40,3347.9153,S,15052.2123,E,4,18,0.6,30.0,M,46.9,M,,*56
$GNRMC,000021.40,A,3347.9153,S,15052.2123,E,089.8,182.4,010126,,*39
$GNGGA,000021.50,3347.9154,S,15052.2093,E,4,18,0.6,30.0,M,46.9,M,,*5A
$GNRMC,000021.50,A,3347.9154,S,15052.2093,E,089.7,182.4,010126,,*3A
$GNGGA,000021.60,3347.9155,S,15052.2063,E,4,18,0.6,30.0,M,46.9,M,,*57
$GNRMC,000021.60,A,3347.9155,S,15052.2063,E,089.7,182.4,010126,,*37
$GNGGA,000021.70,3347.9156,S,15052.2033,E,4,18,0.6,30.0,M,46.9,M,,*50
$GNRMC,000021.70,A,3347.9156,S,15052.2033,E,089.6,182.4,010126,,*31
$GNGGA,000021.80,3347.9157,S,15052.2003,E,4,18,0.6,30.0,M,46.9,M,,*5D
$GNRMC,000021.80,A,3347.9157,S,15052.2003,E,089.6,182.4,010126,,*3C
$GNGGA,000021.90,3347.9158,S,15052.1973,E,4,18,0.6,30.0,M,46.9,M,,*5E
$GNRMC,000021.90,A,3347.9158,S,15052.1973,E,089.5,182.4,010126,,*3C
$GNGGA,000022.00,3347.9159,S,15052.1943,E,4,18,0.6,30.0,M,46.9,M,,*56
$GNRMC,000022.00,A,3347.9159,S,15052.1943,E,089.4,182.4,010126,,*35
$GNGGA,000022.10,3347.9160,S,15052.1913,E,4,18,0.6,30.0,M,46.9,M,,*58
$GNRMC,000022.10,A,3347.9160,S,15052.1913,E,089.4,182.4,010126,,*3B
$GNGGA,000022.20,3347.9161,S,15052.1883,E,4,18,0.6,30.0,M,46.9,M,,*52
$GNRMC,000022.20,A,3347.9161,S,15052.1883,E,089.3,182.4,010126,,*36
$GNGGA,000022.30,3347.9162,S,15052.1854,E,4,18,0.6,30.0,M,46.9,M,,*5A
$GNRMC,000022.30,A,3347.9162,S,15052.1854,E,089.3,182.4,010126,,*3E
$GNGGA,000022.40,3347.9163,S,15052.1824,E,4,18,0.6,30.0,M,46.9,M,,*5B
$GNRMC,000022.40,A,3347.9163,S,15052.1824,E,089.2,184.0,010126,,*3C
$GNGGA,000022.50,3347.9165,S,15052.1794,E,4,18,0.6,30.0,M,46.9,M,,*58
$GNRMC,000022.50,A,3347.9165,S,15052.1794,E,089.2,184.0,010126,,*3F
$GNGGA,000022.60,3347.9167,S,15052.1764,E,4,18,0.6,30.0,M,46.9,M,,*56
$GNRMC,000022.60,A,3347.9167,S,15052.1764,E,089.1,184.0,010126,,*32
$GNGGA,000022.70,3347.9169,S,15052.1735,E,4,18,0.6,30.0,M,46.9,M,,*5D
$GNRMC,000022.70,A,3347.9169,S,15052.1735,E,089.1,184.0,010126,,*39
$GNGGA,000022.80,3347.9170,S,15052.1705,E,4,18,0.6,30.0,M,46.9,M,,*59
$GNRMC,000022.80,A,3347.9170,S,15052.1705,E,089.0,184.0,010126,,*3C
$GNGGA,000022.90,3347.9172,S,15052.1675,E,4,18,0.6,30.0,M,46.9,M,,*5C
$GNRMC,000022.90,A,3347.9172,S,15052.1675,E,089.0,184.0,010126,,*39
$GNGGA,000023.00,3347.9174,S,15052.1646,E,4,18,0.6,30.0,M,46.9,M,,*52
$GNRMC,000023.00,A,3347.9174,S,15052.1646,E,088.9,184.0,010126,,*3F
$GNGGA,000023.10,3347.9175,S,15052.1616,E,4,18,0.6,30.0,M,46.9,M,,*57
$GNRMC,000023.10,A,3347.9175,S,15052.1616,E,088.9,184.0,010126,,*3A
$GNGGA,000023.20,3347.9177,S,15052.1586,E,4,18,0.6,30.0,M,46.9,M,,*5C
$GNRMC,000023.20,A,3347.9177,S,15052.1586,E,088.8,184.0,010126,,*30
$GNGGA,000023.30,3347.9179,S,15052.1557,E,4,18,0.6,30.0,M,46.9,M,,*5F
$GNRMC,000023.30,A,3347.9179,S,15052.1557,E,088.8,184.0,010126,,*33
$GNGGA,000023.40,3347.9181,S,15052.1527,E,4,18,0.6,30.0,M,46.9,M,,*58
$GNRMC,000023.40,A,3347.9181,S,15052.1527,E,088.7,184.0,010126,,*3B
$GNGGA,000023.50,3347.9182,S,15052.1498,E,4,18,0.6,30.0,M,46.9,M,,*5F
$GNRMC,000023.50,A,3347.9182,S,15052.1498,E,088.7,184.0,010126,,*3C
$GNGGA,000023.60,3347.9184,S,15052.1468,E,4,18,0.6,30.0,M,46.9,M,,*55
$GNRMC,000023.60,A,3347.9184,S,15052.1468,E,088.6,185.6,010126,,*30
$GNGGA,000023.70,3347.9187,S,15052.1439,E,4,18,0.6,30.0,M,46.9,M,,*53
$GNRMC,000023.70,A,3347.9187,S,15052.1439,E,088.6,185.6,010126,,*36
$GNGGA,000023.80,3347.9189,S,15052.1409,E,4,18,0.6,30.0,M,46.9,M,,*51
$GNRMC,000023.80,A,3347.9189,S,15052.1409,E,088.5,185.6,010126,,*37
$GNGGA,000023.90,3347.9191,S,15052.1380,E,4,18,0.6,30.0,M,46.9,M,,*5F
$GNRMC,000023.90,A,3347.9191,S,15052.1380,E,088.5,185.6,010126,,*39
$GNGGA,000024.00,3347.9194,S,15052.1350,E,4,18,0.6,30.0,M,46.9,M,,*59
$GNRMC,000024.00,A,3347.9194,S,15052.1350,E,088.4,185.6,010126,,*3E
$GNGGA,000024.10,3347.9196,S,15052.1321,E,4,18,0.6,30.0,M,46.9,M,,*5C
$GNRMC,000024.10,A,3347.9196,S,15052.1321,E,088.4,185.6,010126,,*3B
$GNGGA,000024.20,3347.9199,S,15052.1292,E,4,18,0.6,30.0,M,46.9,M,,*59
$GNRMC,000024.20,A,3347.9199,S,15052.1292,E,088.3,185.6,010126,,*39
$GNGGA,000024.30,3347.9201,S,15052.1262,E,4,18,0.6,30.0,M,46.9,M,,*55
$GNRMC,000024.30,A,3347.9201,S,15052.1262,E,088.3,185.6,010126,,*35
$GNGGA,000024.40,3347.9203,S,15052.1233,E,4,18,0.6,30.0,M,46.9,M,,*54
$GNRMC,000024.40,A,3347.9203,S,15052.1233,E,088.2,185.6,010126,,*35
$GNGGA,000024.50,3347.9206,S,15052.1204,E,4,18,0.6,30.0,M,46.9,M,,*54
$GNRMC,000024.50,A,3347.9206,S,15052.1204,E,088.2,185.6,010126,,*35
$GNGGA,000024.60,3347.9208,S,15052.1174,E,4,18,0.6,30.0,M,46.9,M,,*5D
$GNRMC,000024.60,A,3347.9208,S,15052.1174,E,088.1,185.6,010126,,*3F
$GNGGA,000024.70,3347.9211,S,15052.1145,E,4,18,0.6,30.0,M,46.9,M,,*56
$GNRMC,000024.70,A,3347.9211,S,15052.1145,E,088.1,185.6,010126,,*34
$GNGGA,000024.80,3347.9213,S,15052.1116,E,4,18,0.6,30.0,M,46.9,M,,*5D
$GNRMC,000024.80,A,3347.9213,S,15052.1116,E,088.1,187.3,010126,,*38
$GNGGA,000024.90,3347.9216,S,15052.1087,E,4,18,0.6,30.0,M,46.9,M,,*50
$GNRMC,000024.90,A,3347.9216,S,15052.1087,E,088.0,187.3,010126,,*34
$GNGGA,000025.00,3347.9220,S,15052.1057,E,4,18,0.6,30.0,M,46.9,M,,*50
$GNRMC,000025.00,A,3347.9220,S,15052.1057,E,088.0,187.3,010126,,*34
$GNGGA,000025.10,3347.9223,S,15052.1028,E,4,18,0.6,30.0,M,46.9,M,,*5A
$GNRMC,000025.10,A,3347.9223,S,15052.1028,E,087.9,187.3,010126,,*38
$GNGGA,000025.20,3347.9226,S,15052.0999,E,4,18,0.6,30.0,M,46.9,M,,*5E
$GNRMC,000025.20,A,3347.9226,S,15052.0999,E,087.9,187.3,010126,,*3C
$GNGGA,000025.30,3347.9229,S,15052.0970,E,4,18,0.6,30.0,M,46.9,M,,*57
$GNRMC,000025.30,A,3347.9229,S,15052.0970,E,087.8,187.3,010126,,*34
$GNGGA,000025.40,3347.9232,S,15052.0941,E,4,18,0.6,30.0,M,46.9,M,,*58
$GNRMC,000025.40,A,3347.9232,S,15052.0941,E,087.8,187.3,010126,,*3B
$GNGGA,000025.50,3347.9235,S,15052.0912,E,4,18,0.6,30.0,M,46.9,M,,*58
$GNRMC,000025.50,A,3347.9235,S,15052.0912,E,087.8,187.3,010126,,*3B
$GNGGA,000025.60,3347.9238,S,15052.0883,E,4,18,0.6,30.0,M,46.9,M,,*5F
$GNRMC,000025.60,A,3347.9238,S,15052.0883,E,087.7,187.3,010126,,*33
$GNGGA,000025.70,3347.9241,S,15052.0854,E,4,18,0.6,30.0,M,46.9,M,,*5A
$GNRMC,000025.70,A,3347.9241,S,15052.0854,E,087.7,187.3,010126,,*36
$GNGGA,000025.80,3347.9244,S,15052.0825,E,4,18,0.6,30.0,M,46.9,M,,*56
$GNRMC,000025.80,A,3347.9244,S,15052.0825,E,087.7,187.3,010126,,*3A
$GNGGA,000025.90,3347.9247,S,15052.0796,E,4,18,0.6,30.0,M,46.9,M,,*53
$GNRMC,000025.90,A,3347.9247,S,15052.0796,E,087.6,187.3,010126,,*3E
$GNGGA,000026.00,3347.9251,S,15052.0767,E,4,18,0.6,30.0,M,46.9,M,,*50
$GNRMC,000026.00,A,3347.9251,S,15052.0767,E,087.6,189.0,010126,,*30
$GNGGA,000026.10,3347.9255,S,15052.0738,E,4,18,0.6,30.0,M,46.9,M,,*5F
$GNRMC,000026.10,A,3347.9255,S,15052.0738,E,087.5,189.0,010126,,*3C
$GNGGA,000026.20,3347.9259,S,15052.0709,E,4,18,0.6,30.0,M,46.9,M,,*52
$GNRMC,000026.20,A,3347.9259,S,15052.0709,E,087.5,189.0,010126,,*31
$GNGGA,000026.30,3347.9262,S,15052.0680,E,4,18,0.6,30.0,M,46.9,M,,*5B
$GNRMC,000026.30,A,3347.9262,S,15052.0680,E,087.5,189.0,010126,,*38
$GNGGA,000026.40,3347.9266,S,15052.0651,E,4,18,0.6,30.0,M,46.9,M,,*54
$GNRMC,000026.40,A,3347.9266,S,15052.0651,E,087.4,189.0,010126,,*36
$GNGGA,000026.50,3347.9270,S,15052.0622,E,4,18,0.6,30.0,M,46.9,M,,*56
$GNRMC,000026.50,A,3347.9270,S,15052.0622,E,087.4,189.0,010126,,*34
$GNGGA,000026.60,3347.9274,S,15052.0593,E,4,18,0.6,30.0,M,46.9,M,,*58
$GNRMC,000026.60,A,3347.9274,S,15052.0593,E,087.4,189.0,010126,,*3A
$GNGGA,000026.70,3347.9278,S,15052.0565,E,4,18,0.6,30.0,M,46.9,M,,*5C
$GNRMC,000026.70,A,3347.9278,S,15052.0565,E,087.3,189.0,010126,,*39
$GNGGA,000026.80,3347.9281,S,15052.0536,E,4,18,0.6,30.0,M,46.9,M,,*53
$GNRMC,000026.80,A,3347.9281,S,15052.0536,E,087.3,189.0,010126,,*36
$GNGGA,000026.90,3347.9285,S,15052.0507,E,4,18,0.6,30.0,M,46.9,M,,*54
$GNRMC,000026.90,A,3347.9285,S,15052.0507,E,087.3,189.0,010126,,*31
$GNGGA,000027.00,3347.9289,S,15052.0478,E,4,18,0.6,30.0,M,46.9,M,,*59
$GNRMC,000027.00,A,3347.9289,S,15052.0478,E,087.3,189.0,010126,,*3C
$GNGGA,000027.10,3347.9293,S,15052.0449,E,4,18,0.6,30.0,M,46.9,M,,*51
$GNRMC,000027.10,A,3347.9293,S,15052.0449,E,087.2,190.8,010126,,*35
$GNGGA,000027.20,3347.9298,S,15052.0421,E,4,18,0.6,30.0,M,46.9,M,,*57
$GNRMC,000027.20,A,3347.9298,S,15052.0421,E,087.2,190.8,010126,,*33
$GNGGA,000027.30,3347.9302,S,15052.0392,E,4,18,0.6,30.0,M,46.9,M,,*5B
$GNRMC,000027.30,A,3347.9302,S,15052.0392,E,087.2,190.8,010126,,*3F
$GNGGA,000027.40,3347.9307,S,15052.0364,E,4,18,0.6,30.0,M,46.9,M,,*50
$GNRMC,000027.40,A,3347.9307,S,15052.0364,E,087.1,190.8,010126,,*37
$GNGGA,000027.50,3347.9311,S,15052.0335,E,4,18,0.6,30.0,M,46.9,M,,*52
$GNRMC,000027.50,A,3347.9311,S,15052.0335,E,087.1,190.8,010126,,*35
$GNGGA,000027.60,3347.9316,S,15052.0306,E,4,18,0.6,30.0,M,46.9,M,,*56
$GNRMC,000027.60,A,3347.9316,S,15052.0306,E,087.1,190.8,010126,,*31
$GNGGA,000027.70,3347.9320,S,15052.0278,E,4,18,0.6,30.0,M,46.9,M,,*5A
$GNRMC,000027.70,A,3347.9320,S,15052.0278,E,087.1,190.8,010126,,*3D
$GNGGA,000027.80,3347.9325,S,15052.0249,E,4,18,0.6,30.0,M,46.9,M,,*52
$GNRMC,000027.80,A,3347.9325,S,15052.0249,E,087.0,190.8,010126,,*34
$GNGGA,000027.90,3347.9329,S,15052.0221,E,4,18,0.6,30.0,M,46.9,M,,*51
$GNRMC,000027.90,A,3347.9329,S,15052.0221,E,087.0,190.8,010126,,*37
$GNGGA,000028.00,3347.9334,S,15052.0192,E,4,18,0.6,30.0,M,46.9,M,,*50
$GNRMC,000028.00,A,3347.9334,S,15052.0192,E,087.0,190.8,010126,,*36
$GNGGA,000028.10,3347.9338,S,15052.0164,E,4,18,0.6,30.0,M,46.9,M,,*54
$GNRMC,000028.10,A,3347.9338,S,15052.0164,E,087.0,190.8,010126,,*32
$GNGGA,000028.20,3347.9343,S,15052.0135,E,4,18,0.6,30.0,M,46.9,M,,*5F
$GNRMC,000028.20,A,3347.9343,S,15052.0135,E,087.0,190.8,010126,,*39
$GNGGA,000028.30,3347.9348,S,15052.0107,E,4,18,0.6,30.0,M,46.9,M,,*54
$GNRMC,000028.30,A,3347.9348,S,15052.0107,E,086.9,192.7,010126,,*37
$GNGGA,000028.40,3347.9353,S,15052.0078,E,4,18,0.6,30.0,M,46.9,M,,*50
$GNRMC,000028.40,A,3347.9353,S,15052.0078,E,086.9,192.7,010126,,*33
$GNGGA,000028.50,3347.9359,S,15052.0050,E,4,18,0.6,30.0,M,46.9,M,,*51
$GNRMC,000028.50,A,3347.9359,S,15052.0050,E,086.9,192.7,010126,,*32
$GNGGA,000028.60,3347.9364,S,15052.0022,E,4,18,0.6,30.0,M,46.9,M,,*59
$GNRMC,000028.60,A,3347.9364,S,15052.0022,E,086.9,192.7,010126,,*3A
$GNGGA,000028.70,3347.9369,S,15051.9993,E,4,18,0.6,30.0,M,46.9,M,,*5C
$GNRMC,000028.70,A,3347.9369,S,15051.9993,E,086.9,192.7,010126,,*3F
$GNGGA,000028.80,3347.9375,S,15051.9965,E,4,18,0.6,30.0,M,46.9,M,,*57
$GNRMC,000028.80,A,3347.9375,S,15051.9965,E,086.8,192.7,010126,,*35
$GNGGA,000028.90,3347.9380,S,15051.9937,E,4,18,0.6,30.0,M,46.9,M,,*5B
$GNRMC,000028.90,A,3347.9380,S,15051.9937,E,086.8,192.7,010126,,*39
$GNGGA,000029.00,3347.9385,S,15051.9909,E,4,18,0.6,30.0,M,46.9,M,,*5B
$GNRMC,000029.00,A,3347.9385,S,15051.9909,E,086.8,192.7,010126,,*39
$GNGGA,000029.10,3347.9391,S,15051.9880,E,4,18,0.6,30.0,M,46.9,M,,*5F
$GNRMC,000029.10,A,3347.9391,S,15051.9880,E,086.8,192.7,010126,,*3D
$GNGGA,000029.20,3347.9396,S,15051.9852,E,4,18,0.6,30.0,M,46.9,M,,*54
$GNRMC,000029.20,A,3347.9396,S,15051.9852,E,086.8,192.7,010126,,*36
$GNGGA,000029.30,3347.9401,S,15051.9824,E,4,18,0.6,30.0,M,46.9,M,,*5D
$GNRMC,000029.30,A,3347.9401,S,15051.9824,E,086.8,192.7,010126,,*3F
$GNGGA,000029.40,3347.9407,S,15051.9796,E,4,18,0.6,30.0,M,46.9,M,,*5A
$GNRMC,000029.40,A,3347.9407,S,15051.9796,E,086.8,194.7,010126,,*3E
$GNGGA,000029.50,3347.9413,S,15051.9768,E,4,18,0.6,30.0,M,46.9,M,,*5F
$GNRMC,000029.50,A,3347.9413,S,15051.9768,E,086.8,194.7,010126,,*3B
$GNGGA,000029.60,3347.9419,S,15051.9740,E,4,18,0.6,30.0,M,46.9,M,,*5C
$GNRMC,000029.60,A,3347.9419,S,15051.9740,E,086.7,194.7,010126,,*37
$GNGGA,000029.70,3347.9425,S,15051.9711,E,4,18,0.6,30.0,M,46.9,M,,*56
$GNRMC,000029.70,A,3347.9425,S,15051.9711,E,086.7,194.7,010126,,*3D
$GNGGA,000029.80,3347.9431,S,15051.9683,E,4,18,0.6,30.0,M,46.9,M,,*56
$GNRMC,000029.80,A,3347.9431,S,15051.9683,E,086.7,194.7,010126,,*3D
$GNGGA,000029.90,3347.9438,S,15051.9655,E,4,18,0.6,30.0,M,46.9,M,,*55
$GNRMC,000029.90,A,3347.9438,S,15051.9655,E,086.7,194.7,010126,,*3E
$GNGGA,000030.00,3347.9444,S,15051.9627,E,4,18,0.6,30.0,M,46.9,M,,*5A
$GNRMC,000030.00,A,3347.9444,S,15051.9627,E,086.7,194.7,010126,,*31
$GNGGA,000030.10,3347.9450,S,15051.9599,E,4,18,0.6,30.0,M,46.9,M,,*58
$GNRMC,000030.10,A,3347.9450,S,15051.9599,E,086.7,194.7,010126,,*33
$GNGGA,000030.20,3347.9456,S,15051.9571,E,4,18,0.6,30.0,M,46.9,M,,*5B
$GNRMC,000030.20,A,3347.9456,S,15051.9571,E,086.7,194.7,010126,,*30
$GNGGA,000030.30,3347.9462,S,15051.9543,E,4,18,0.6,30.0,M,46.9,M,,*5C
$GNRMC,000030.30,A,3347.9462,S,15051.9543,E,086.7,194.7,010126,,*37
$GNGGA,000030.40,3347.9468,S,15051.9515,E,4,18,0.6,30.0,M,46.9,M,,*52
$GNRMC,000030.40,A,3347.9468,S,15051.9515,E,086.7,196.8,010126,,*34
$GNGGA,000030.50,3347.9475,S,15051.9488,E,4,18,0.6,30.0,M,46.9,M,,*5A
$GNRMC,000030.50,A,3347.9475,S,15051.9488,E,086.7,196.8,010126,,*3C
$GNGGA,000030.60,3347.9482,S,15051.9460,E,4,18,0.6,30.0,M,46.9,M,,*57
$GNRMC,000030.60,A,3347.9482,S,15051.9460,E,086.7,196.8,010126,,*31
$GNGGA,000030.70,3347.9489,S,15051.9432,E,4,18,0.6,30.0,M,46.9,M,,*5A
$GNRMC,000030.70,A,3347.9489,S,15051.9432,E,086.7,196.8,010126,,*3C
$GNGGA,000030.80,3347.9496,S,15051.9404,E,4,18,0.6,30.0,M,46.9,M,,*5E
$GNRMC,000030.80,A,3347.9496,S,15051.9404,E,086.7,196.8,010126,,*38
$GNGGA,000030.90,3347.9503,S,15051.9377,E,4,18,0.6,30.0,M,46.9,M,,*51
$GNRMC,000030.90,A,3347.9503,S,15051.9377,E,086.7,196.8,010126,,*37
$GNGGA,000031.00,3347.9510,S,15051.9349,E,4,18,0.6,30.0,M,46.9,M,,*56
$GNRMC,000031.00,A,3347.9510,S,15051.9349,E,086.7,196.8,010126,,*30
$GNGGA,000031.10,3347.9517,S,15051.9321,E,4,18,0.6,30.0,M,46.9,M,,*5E
$GNRMC,000031.10,A,3347.9517,S,15051.9321,E,086.7,196.8,010126,,*38
$GNGGA,000031.20,3347.9524,S,15051.9294,E,4,18,0.6,30.0,M,46.9,M,,*52
$GNRMC,000031.20,A,3347.9524,S,15051.9294,E,086.7,196.8,010126,,*34
$GNGGA,000031.30,3347.9531,S,15051.9266,E,4,18,0.6,30.0,M,46.9,M,,*5A
$GNRMC,000031.30,A,3347.9531,S,15051.9266,E,086.7,196.8,010126,,*3C
$GNGGA,000031.40,3347.9538,S,15051.9238,E,4,18,0.6,30.0,M,46.9,M,,*5F
$GNRMC,000031.40,A,3347.9538,S,15051.9238,E,086.7,196.8,010126,,*39
$GNGGA,000031.50,3347.9545,S,15051.9211,E,4,18,0.6,30.0,M,46.9,M,,*5F
$GNRMC,000031.50,A,3347.9545,S,15051.9211,E,086.7,199.1,010126,,*3F
$GNGGA,000031.60,3347.9553,S,15051.9183,E,4,18,0.6,30.0,M,46.9,M,,*53
$GNRMC,000031.60,A,3347.9553,S,15051.9183,E,086.7,199.1,010126,,*33
$GNGGA,000031.70,3347.9561,S,15051.9156,E,4,18,0.6,30.0,M,46.9,M,,*5B
$GNRMC,000031.70,A,3347.9561,S,15051.9156,E,086.7,199.1,010126,,*3B
$GNGGA,000031.80,3347.9569,S,15051.9128,E,4,18,0.6,30.0,M,46.9,M,,*55
$GNRMC,000031.80,A,3347.9569,S,15051.9128,E,086.7,199.1,010126,,*35
$GNGGA,000031.90,3347.9577,S,15051.9101,E,4,18,0.6,30.0,M,46.9,M,,*50
$GNRMC,000031.90,A,3347.9577,S,15051.9101,E,086.7,199.1,010126,,*30
$GNGGA,000032.00,3347.9585,S,15051.9074,E,4,18,0.6,30.0,M,46.9,M,,*54
$GNRMC,000032.00,A,3347.9585,S,15051.9074,E,086.8,199.1,010126,,*3B
$GNGGA,000032.10,3347.9592,S,15051.9046,E,4,18,0.6,30.0,M,46.9,M,,*52
$GNRMC,000032.10,A,3347.9592,S,15051.9046,E,086.8,199.1,010126,,*3D
$GNGGA,000032.20,3347.9600,S,15051.9019,E,4,18,0.6,30.0,M,46.9,M,,*53
$GNRMC,000032.20,A,3347.9600,S,15051.9019,E,086.8,199.1,010126,,*3C
$GNGGA,000032.30,3347.9608,S,15051.8991,E,4,18,0.6,30.0,M,46.9,M,,*52
$GNRMC,000032.30,A,3347.9608,S,15051.8991,E,086.8,199.1,010126,,*3D
$GNGGA,000032.40,3347.9616,S,15051.8964,E,4,18,0.6,30.0,M,46.9,M,,*50
$GNRMC,000032.40,A,3347.9616,S,15051.8964,E,086.8,199.1,010126,,*3F
$GNGGA,000032.50,3347.9624,S,15051.8937,E,4,18,0.6,30.0,M,46.9,M,,*56
$GNRMC,000032.50,A,3347.9624,S,15051.8937,E,086.8,201.5,010126,,*3F
$GNGGA,000032.60,3347.9633,S,15051.8910,E,4,18,0.6,30.0,M,46.9,M,,*56
$GNRMC,000032.60,A,3347.9633,S,15051.8910,E,086.8,201.5,010126,,*3F
$GNGGA,000032.70,3347.9642,S,15051.8883,E,4,18,0.6,30.0,M,46.9,M,,*5A
$GNRMC,000032.70,A,3347.9642,S,15051.8883,E,086.8,201.5,010126,,*33
$GNGGA,000032.80,3347.9651,S,15051.8856,E,4,18,0.6,30.0,M,46.9,M,,*5F
$GNRMC,000032.80,A,3347.9651,S,15051.8856,E,086.9,201.5,010126,,*37
$GNGGA,000032.90,3347.9660,S,15051.8829,E,4,18,0.6,30.0,M,46.9,M,,*54
$GNRMC,000032.90,A,3347.9660,S,15051.8829,E,086.9,201.5,010126,,*3C
$GNGGA,000033.00,3347.9669,S,15051.8802,E,4,18,0.6,30.0,M,46.9,M,,*5C
$GNRMC,000033.00,A,3347.9669,S,15051.8802,E,086.9,201.5,010126,,*34
$GNGGA,000033.10,3347.9678,S,15051.8775,E,4,18,0.6,30.0,M,46.9,M,,*52
$GNRMC,000033.10,A,3347.9678,S,15051.8775,E,086.9,201.5,010126,,*3A
$GNGGA,000033.20,3347.9686,S,15051.8748,E,4,18,0.6,30.0,M,46.9,M,,*5E
$GNRMC,000033.20,A,3347.9686,S,15051.8748,E,086.9,201.5,010126,,*36
$GNGGA,000033.30,3347.9695,S,15051.8721,E,4,18,0.6,30.0,M,46.9,M,,*52
$GNRMC,000033.30,A,3347.9695,S,15051.8721,E,087.0,201.5,010126,,*32
$GNGGA,000033.40,3347.9704,S,15051.8694,E,4,18,0.6,30.0,M,46.9,M,,*53
$GNRMC,000033.40,A,3347.9704,S,15051.8694,E,087.0,201.5,010126,,*33
$GNGGA,000033.50,3347.9714,S,15051.8667,E,4,18,0.6,30.0,M,46.9,M,,*5F
$GNRMC,000033.50,A,3347.9714,S,15051.8667,E,087.0,204.2,010126,,*3D
$GNGGA,000033.60,3347.9724,S,15051.8641,E,4,18,0.6,30.0,M,46.9,M,,*5B
$GNRMC,000033.60,A,3347.9724,S,15051.8641,E,087.0,204.2,010126,,*39
$GNGGA,000033.70,3347.9734,S,15051.8614,E,4,18,0.6,30.0,M,46.9,M,,*5B
$GNRMC,000033.70,A,3347.9734,S,15051.8614,E,087.0,204.2,010126,,*39
$GNGGA,000033.80,3347.9744,S,15051.8588,E,4,18,0.6,30.0,M,46.9,M,,*55
$GNRMC,000033.80,A,3347.9744,S,15051.8588,E,087.1,204.2,010126,,*36
$GNGGA,000033.90,3347.9754,S,15051.8561,E,4,18,0.6,30.0,M,46.9,M,,*52
$GNRMC,000033.90,A,3347.9754,S,15051.8561,E,087.1,204.2,010126,,*31
$GNGGA,000034.00,3347.9764,S,15051.8535,E,4,18,0.6,30.0,M,46.9,M,,*5E
$GNRMC,000034.00,A,3347.9764,S,15051.8535,E,087.1,204.2,010126,,*3D
$GNGGA,000034.10,3347.9773,S,15051.8508,E,4,18,0.6,30.0,M,46.9,M,,*57
$GNRMC,000034.10,A,3347.9773,S,15051.8508,E,087.1,204.2,010126,,*34
$GNGGA,000034.20,3347.9783,S,15051.8482,E,4,18,0.6,30.0,M,46.9,M,,*58
$GNRMC,000034.20,A,3347.9783,S,15051.8482,E,087.2,204.2,010126,,*38
$GNGGA,000034.30,3347.9793,S,15051.8455,E,4,18,0.6,30.0,M,46.9,M,,*52
$GNRMC,000034.30,A,3347.9793,S,15051.8455,E,087.2,204.2,010126,,*32
$GNGGA,000034.40,3347.9804,S,15051.8429,E,4,18,0.6,30.0,M,46.9,M,,*5F
$GNRMC,000034.40,A,3347.9804,S,15051.8429,E,087.2,207.2,010126,,*3C
$GNGGA,000034.50,3347.9815,S,15051.8403,E,4,18,0.6,30.0,M,46.9,M,,*56
$GNRMC,000034.50,A,3347.9815,S,15051.8403,E,087.2,207.2,010126,,*35
$GNGGA,000034.60,3347.9826,S,15051.8377,E,4,18,0.6,30.0,M,46.9,M,,*51
$GNRMC,000034.60,A,3347.9826,S,15051.8377,E,087.3,207.2,010126,,*33
$GNGGA,000034.70,3347.9837,S,15051.8351,E,4,18,0.6,30.0,M,46.9,M,,*54
$GNRMC,000034.70,A,3347.9837,S,15051.8351,E,087.3,207.2,010126,,*36
$GNGGA,000034.80,3347.9848,S,15051.8325,E,4,18,0.6,30.0,M,46.9,M,,*50
$GNRMC,000034.80,A,3347.9848,S,15051.8325,E,087.3,207.2,010126,,*32
$GNGGA,000034.90,3347.9859,S,15051.8299,E,4,18,0.6,30.0,M,46.9,M,,*57
$GNRMC,000034.90,A,3347.9859,S,15051.8299,E,087.4,207.2,010126,,*32
$GNGGA,000035.00,3347.9870,S,15051.8273,E,4,18,0.6,30.0,M,46.9,M,,*50
$GNRMC,000035.00,A,3347.9870,S,15051.8273,E,087.4,207.2,010126,,*35
$GNGGA,000035.10,3347.9882,S,15051.8247,E,4,18,0.6,30.0,M,46.9,M,,*5B
$GNRMC,000035.10,A,3347.9882,S,15051.8247,E,087.4,207.2,010126,,*3E
$GNGGA,000035.20,3347.9893,S,15051.8222,E,4,18,0.6,30.0,M,46.9,M,,*5B
$GNRMC,000035.20,A,3347.9893,S,15051.8222,E,087.5,210.4,010126,,*3F
$GNGGA,000035.30,3347.9905,S,15051.8196,E,4,18,0.6,30.0,M,46.9,M,,*58
$GNRMC,000035.30,A,3347.9905,S,15051.8196,E,087.5,210.4,010126,,*3C
$GNGGA,000035.40,3347.9917,S,15051.8171,E,4,18,0.6,30.0,M,46.9,M,,*55
$GNRMC,000035.40,A,3347.9917,S,15051.8171,E,087.5,210.4,010126,,*31
$GNGGA,000035.50,3347.9930,S,15051.8146,E,4,18,0.6,30.0,M,46.9,M,,*55
$GNRMC,000035.50,A,3347.9930,S,15051.8146,E,087.6,210.4,010126,,*32
$GNGGA,000035.60,3347.9942,S,15051.8121,E,4,18,0.6,30.0,M,46.9,M,,*52
$GNRMC,000035.60,A,3347.9942,S,15051.8121,E,087.6,210.4,010126,,*35
$GNGGA,000035.70,3347.9954,S,15051.8096,E,4,18,0.6,30.0,M,46.9,M,,*59
$GNRMC,000035.70,A,3347.9954,S,15051.8096,E,087.6,210.4,010126,,*3E
$GNGGA,000035.80,3347.9967,S,15051.8070,E,4,18,0.6,30.0,M,46.9,M,,*5E
$GNRMC,000035.80,A,3347.9967,S,15051.8070,E,087.7,210.4,010126,,*38
$GNGGA,000035.90,3347.9979,S,15051.8045,E,4,18,0.6,30.0,M,46.9,M,,*56
$GNRMC,000035.90,A,3347.9979,S,15051.8045,E,087.7,210.4,010126,,*30
$GNGGA,000036.00,3347.9991,S,15051.8020,E,4,18,0.6,30.0,M,46.9,M,,*59
$GNRMC,000036.00,A,3347.9991,S,15051.8020,E,087.8,210.4,010126,,*30
$GNGGA,000036.10,3348.0005,S,15051.7995,E,4,18,0.6,30.0,M,46.9,M,,*52
$GNRMC,000036.10,A,3348.0005,S,15051.7995,E,087.8,214.1,010126,,*3A
$GNGGA,000036.20,3348.0019,S,15051.7971,E,4,18,0.6,30.0,M,46.9,M,,*56
$GNRMC,000036.20,A,3348.0019,S,15051.7971,E,087.8,214.1,010126,,*3E
$GNGGA,000036.30,3348.0032,S,15051.7947,E,4,18,0.6,30.0,M,46.9,M,,*5B
$GNRMC,000036.30,A,3348.0032,S,15051.7947,E,087.9,214.1,010126,,*32
$GNGGA,000036.40,3348.0046,S,15051.7922,E,4,18,0.6,30.0,M,46.9,M,,*5C
$GNRMC,000036.40,A,3348.0046,S,15051.7922,E,087.9,214.1,010126,,*35
$GNGGA,000036.50,3348.0060,S,15051.7898,E,4,18,0.6,30.0,M,46.9,M,,*59
$GNRMC,000036.50,A,3348.0060,S,15051.7898,E,088.0,214.1,010126,,*36
$GNGGA,000036.60,3348.0073,S,15051.7874,E,4,18,0.6,30.0,M,46.9,M,,*5A
$GNRMC,000036.60,A,3348.0073,S,15051.7874,E,088.0,214.1,010126,,*35
$GNGGA,000036.70,3348.0087,S,15051.7849,E,4,18,0.6,30.0,M,46.9,M,,*5E
$GNRMC,000036.70,A,3348.0087,S,15051.7849,E,088.0,214.1,010126,,*31
$GNGGA,000036.80,3348.0101,S,15051.7825,E,4,18,0.6,30.0,M,46.9,M,,*54
$GNRMC,000036.80,A,3348.0101,S,15051.7825,E,088.1,218.2,010126,,*35
$GNGGA,000036.90,3348.0116,S,15051.7802,E,4,18,0.6,30.0,M,46.9,M,,*56
$GNRMC,000036.90,A,3348.0116,S,15051.7802,E,088.1,218.2,010126,,*37
$GNGGA,000037.00,3348.0131,S,15051.7779,E,4,18,0.6,30.0,M,46.9,M,,*58
$GNRMC,000037.00,A,3348.0131,S,15051.7779,E,088.2,218.2,010126,,*3A
$GNGGA,000037.10,3348.0146,S,15051.7756,E,4,18,0.6,30.0,M,46.9,M,,*54
$GNRMC,000037.10,A,3348.0146,S,15051.7756,E,088.2,218.2,010126,,*36
$GNGGA,000037.20,3348.0161,S,15051.7733,E,4,18,0.6,30.0,M,46.9,M,,*51
$GNRMC,000037.20,A,3348.0161,S,15051.7733,E,088.3,218.2,010126,,*32
$GNGGA,000037.30,3348.0177,S,15051.7710,E,4,18,0.6,30.0,M,46.9,M,,*56
$GNRMC,000037.30,A,3348.0177,S,15051.7710,E,088.3,218.2,010126,,*35
$GNGGA,000037.40,3348.0192,S,15051.7686,E,4,18,0.6,30.0,M,46.9,M,,*54
$GNRMC,000037.40,A,3348.0192,S,15051.7686,E,088.4,218.2,010126,,*30
$GNGGA,000037.50,3348.0207,S,15051.7663,E,4,18,0.6,30.0,M,46.9,M,,*51
$GNRMC,000037.50,A,3348.0207,S,15051.7663,E,088.4,218.2,010126,,*35
$GNGGA,000037.60,3348.0224,S,15051.7642,E,4,18,0.6,30.0,M,46.9,M,,*50
$GNRMC,000037.60,A,3348.0224,S,15051.7642,E,088.5,222.9,010126,,*37
$GNGGA,000037.70,3348.0240,S,15051.7620,E,4,18,0.6,30.0,M,46.9,M,,*57
$GNRMC,000037.70,A,3348.0240,S,15051.7620,E,088.5,222.9,010126,,*30
$GNGGA,000037.80,3348.0257,S,15051.7598,E,4,18,0.6,30.0,M,46.9,M,,*5E
$GNRMC,000037.80,A,3348.0257,S,15051.7598,E,088.5,222.9,010126,,*39
$GNGGA,000037.90,3348.0274,S,15051.7577,E,4,18,0.6,30.0,M,46.9,M,,*5F
$GNRMC,000037.90,A,3348.0274,S,15051.7577,E,088.6,222.9,010126,,*3B
$GNGGA,000038.00,3348.0290,S,15051.7555,E,4,18,0.6,30.0,M,46.9,M,,*53
$GNRMC,000038.00,A,3348.0290,S,15051.7555,E,088.6,222.9,010126,,*37
$GNGGA,000038.10,3348.0307,S,15051.7533,E,4,18,0.6,30.0,M,46.9,M,,*5D
$GNRMC,000038.10,A,3348.0307,S,15051.7533,E,088.7,222.9,010126,,*38
$GNGGA,000038.20,3348.0324,S,15051.7512,E,4,18,0.6,30.0,M,46.9,M,,*5C
$GNRMC,000038.20,A,3348.0324,S,15051.7512,E,088.7,228.2,010126,,*38
$GNGGA,000038.30,3348.0343,S,15051.7492,E,4,18,0.6,30.0,M,46.9,M,,*55
$GNRMC,000038.30,A,3348.0343,S,15051.7492,E,088.8,228.2,010126,,*3E
$GNGGA,000038.40,3348.0361,S,15051.7472,E,4,18,0.6,30.0,M,46.9,M,,*5C
$GNRMC,000038.40,A,3348.0361,S,15051.7472,E,088.8,228.2,010126,,*37
$GNGGA,000038.50,3348.0379,S,15051.7452,E,4,18,0.6,30.0,M,46.9,M,,*56
$GNRMC,000038.50,A,3348.0379,S,15051.7452,E,088.9,228.2,010126,,*3C
$GNGGA,000038.60,3348.0398,S,15051.7433,E,4,18,0.6,30.0,M,46.9,M,,*5D
$GNRMC,000038.60,A,3348.0398,S,15051.7433,E,089.0,228.2,010126,,*3F
$GNGGA,000038.70,3348.0416,S,15051.7413,E,4,18,0.6,30.0,M,46.9,M,,*5F
$GNRMC,000038.70,A,3348.0416,S,15051.7413,E,089.0,228.2,010126,,*3D
$GNGGA,000038.80,3348.0435,S,15051.7393,E,4,18,0.6,30.0,M,46.9,M,,*5E
$GNRMC,000038.80,A,3348.0435,S,15051.7393,E,089.1,228.2,010126,,*3D
$GNGGA,000038.90,3348.0454,S,15051.7375,E,4,18,0.6,30.0,M,46.9,M,,*50
$GNRMC,000038.90,A,3348.0454,S,15051.7375,E,089.1,234.2,010126,,*3E
$GNGGA,000039.00,3348.0474,S,15051.7358,E,4,18,0.6,30.0,M,46.9,M,,*55
$GNRMC,000039.00,A,3348.0474,S,15051.7358,E,089.2,234.2,010126,,*38
$GNGGA,000039.10,3348.0494,S,15051.7340,E,4,18,0.6,30.0,M,46.9,M,,*53
$GNRMC,000039.10,A,3348.0494,S,15051.7340,E,089.2,234.2,010126,,*3E
$GNGGA,000039.20,3348.0515,S,15051.7323,E,4,18,0.6,30.0,M,46.9,M,,*5D
$GNRMC,000039.20,A,3348.0515,S,15051.7323,E,089.3,234.2,010126,,*31
$GNGGA,000039.30,3348.0535,S,15051.7305,E,4,18,0.6,30.0,M,46.9,M,,*5A
$GNRMC,000039.30,A,3348.0535,S,15051.7305,E,089.3,234.2,010126,,*36
$GNGGA,000039.40,3348.0555,S,15051.7288,E,4,18,0.6,30.0,M,46.9,M,,*5F
$GNRMC,000039.40,A,3348.0555,S,15051.7288,E,089.4,234.2,010126,,*34
$GNGGA,000039.50,3348.0576,S,15051.7273,E,4,18,0.6,30.0,M,46.9,M,,*5B
$GNRMC,000039.50,A,3348.0576,S,15051.7273,E,089.4,241.0,010126,,*30
$GNGGA,000039.60,3348.0598,S,15051.7259,E,4,18,0.6,30.0,M,46.9,M,,*50
$GNRMC,000039.60,A,3348.0598,S,15051.7259,E,089.5,241.0,010126,,*3A
$GNGGA,000039.70,3348.0620,S,15051.7244,E,4,18,0.6,30.0,M,46.9,M,,*5D
$GNRMC,000039.70,A,3348.0620,S,15051.7244,E,089.5,241.0,010126,,*37
$GNGGA,000039.80,3348.0641,S,15051.7230,E,4,18,0.6,30.0,M,46.9,M,,*56
$GNRMC,000039.80,A,3348.0641,S,15051.7230,E,089.6,241.0,010126,,*3F
$GNGGA,000039.90,3348.0663,S,15051.7215,E,4,18,0.6,30.0,M,46.9,M,,*50
$GNRMC,000039.90,A,3348.0663,S,15051.7215,E,089.7,241.0,010126,,*38
$GNGGA,000040.00,3348.0685,S,15051.7202,E,4,18,0.6,30.0,M,46.9,M,,*59
$GNRMC,000040.00,A,3348.0685,S,15051.7202,E,089.7,248.6,010126,,*3E
$GNGGA,000040.10,3348.0709,S,15051.7191,E,4,18,0.6,30.0,M,46.9,M,,*54
$GNRMC,000040.10,A,3348.0709,S,15051.7191,E,089.8,248.6,010126,,*3C
$GNGGA,000040.20,3348.0732,S,15051.7180,E,4,18,0.6,30.0,M,46.9,M,,*5F
$GNRMC,000040.20,A,3348.0732,S,15051.7180,E,089.8,248.6,010126,,*37
$GNGGA,000040.30,3348.0755,S,15051.7169,E,4,18,0.6,30.0,M,46.9,M,,*58
$GNRMC,000040.30,A,3348.0755,S,15051.7169,E,089.9,248.6,010126,,*31
$GNGGA,000040.40,3348.0778,S,15051.7158,E,4,18,0.6,30.0,M,46.9,M,,*52
$GNRMC,000040.40,A,3348.0778,S,15051.7158,E,089.9,248.6,010126,,*3B
$GNGGA,000040.50,3348.0801,S,15051.7147,E,4,18,0.6,30.0,M,46.9,M,,*5C
$GNRMC,000040.50,A,3348.0801,S,15051.7147,E,090.0,248.6,010126,,*34
$GNGGA,000040.60,3348.0826,S,15051.7140,E,4,18,0.6,30.0,M,46.9,M,,*5D
$GNRMC,000040.60,A,3348.0826,S,15051.7140,E,090.1,256.8,010126,,*35
$GNGGA,000040.70,3348.0850,S,15051.7133,E,4,18,0.6,30.0,M,46.9,M,,*59
$GNRMC,000040.70,A,3348.0850,S,15051.7133,E,090.1,256.8,010126,,*31
$GNGGA,000040.80,3348.0874,S,15051.7126,E,4,18,0.6,30.0,M,46.9,M,,*54
$GNRMC,000040.80,A,3348.0874,S,15051.7126,E,090.2,256.8,010126,,*3F
$GNGGA,000040.90,3348.0899,S,15051.7119,E,4,18,0.6,30.0,M,46.9,M,,*5A
$GNRMC,000040.90,A,3348.0899,S,15051.7119,E,090.2,256.8,010126,,*31
$GNGGA,000041.00,3348.0923,S,15051.7113,E,4,18,0.6,30.0,M,46.9,M,,*58
$GNRMC,000041.00,A,3348.0923,S,15051.7113,E,090.3,256.8,010126,,*32
$GNGGA,000041.10,3348.0948,S,15051.7110,E,4,18,0.6,30.0,M,46.9,M,,*57
$GNRMC,000041.10,A,3348.0948,S,15051.7110,E,090.3,265.6,010126,,*33
$GNGGA,000041.20,3348.0973,S,15051.7108,E,4,18,0.6,30.0,M,46.9,M,,*55
$GNRMC,000041.20,A,3348.0973,S,15051.7108,E,090.4,265.6,010126,,*36
$GNGGA,000041.30,3348.0998,S,15051.7105,E,4,18,0.6,30.0,M,46.9,M,,*5C
$GNRMC,000041.30,A,3348.0998,S,15051.7105,E,090.5,265.6,010126,,*3E
$GNGGA,000041.40,3348.1023,S,15051.7103,E,4,18,0.6,30.0,M,46.9,M,,*55
$GNRMC,000041.40,A,3348.1023,S,15051.7103,E,090.5,265.6,010126,,*37
$GNGGA,000041.50,3348.1048,S,15051.7100,E,4,18,0.6,30.0,M,46.9,M,,*5A
$GNRMC,000041.50,A,3348.1048,S,15051.7100,E,090.6,265.6,010126,,*3B
$GNGGA,000041.60,3348.1073,S,15051.7102,E,4,18,0.6,30.0,M,46.9,M,,*53
$GNRMC,000041.60,A,3348.1073,S,15051.7102,E,090.6,274.4,010126,,*30
$GNGGA,000041.70,3348.1098,S,15051.7105,E,4,18,0.6,30.0,M,46.9,M,,*50
$GNRMC,000041.70,A,3348.1098,S,15051.7105,E,090.7,274.4,010126,,*32
$GNGGA,000041.80,3348.1124,S,15051.7107,E,4,18,0.6,30.0,M,46.9,M,,*5B
$GNRMC,000041.80,A,3348.1124,S,15051.7107,E,090.8,274.4,010126,,*36
$GNGGA,000041.90,3348.1149,S,15051.7110,E,4,18,0.6,30.0,M,46.9,M,,*57
$GNRMC,000041.90,A,3348.1149,S,15051.7110,E,090.8,274.4,010126,,*3A
$GNGGA,000042.00,3348.1174,S,15051.7112,E,4,18,0.6,30.0,M,46.9,M,,*51
$GNRMC,000042.00,A,3348.1174,S,15051.7112,E,090.9,274.4,010126,,*3D
$GNGGA,000042.10,3348.1198,S,15051.7119,E,4,18,0.6,30.0,M,46.9,M,,*59
$GNRMC,000042.10,A,3348.1198,S,15051.7119,E,090.9,283.2,010126,,*3B
$GNGGA,000042.20,3348.1223,S,15051.7126,E,4,18,0.6,30.0,M,46.9,M,,*55
$GNRMC,000042.20,A,3348.1223,S,15051.7126,E,091.0,283.2,010126,,*3F
$GNGGA,000042.30,3348.1248,S,15051.7133,E,4,18,0.6,30.0,M,46.9,M,,*5D
$GNRMC,000042.30,A,3348.1248,S,15051.7133,E,091.0,283.2,010126,,*37
$GNGGA,000042.40,3348.1272,S,15051.7139,E,4,18,0.6,30.0,M,46.9,M,,*59
$GNRMC,000042.40,A,3348.1272,S,15051.7139,E,091.1,283.2,010126,,*32
$GNGGA,000042.50,3348.1297,S,15051.7146,E,4,18,0.6,30.0,M,46.9,M,,*5B
$GNRMC,000042.50,A,3348.1297,S,15051.7146,E,091.2,283.2,010126,,*33
$GNGGA,000042.60,3348.1320,S,15051.7157,E,4,18,0.6,30.0,M,46.9,M,,*55
$GNRMC,000042.60,A,3348.1320,S,15051.7157,E,091.2,291.4,010126,,*38
$GNGGA,000042.70,3348.1344,S,15051.7168,E,4,18,0.6,30.0,M,46.9,M,,*5A
$GNRMC,000042.70,A,3348.1344,S,15051.7168,E,091.3,291.4,010126,,*36
$GNGGA,000042.80,3348.1368,S,15051.7179,E,4,18,0.6,30.0,M,46.9,M,,*5B
$GNRMC,000042.80,A,3348.1368,S,15051.7179,E,091.3,291.4,010126,,*37
$GNGGA,000042.90,3348.1391,S,15051.7191,E,4,18,0.6,30.0,M,46.9,M,,*5A
$GNRMC,000042.90,A,3348.1391,S,15051.7191,E,091.4,291.4,010126,,*31
$GNGGA,000043.00,3348.1415,S,15051.7202,E,4,18,0.6,30.0,M,46.9,M,,*50
$GNRMC,000043.00,A,3348.1415,S,15051.7202,E,091.5,291.4,010126,,*3A
$GNGGA,000043.10,3348.1437,S,15051.7216,E,4,18,0.6,30.0,M,46.9,M,,*54
$GNRMC,000043.10,A,3348.1437,S,15051.7216,E,091.5,299.0,010126,,*32
$GNGGA,000043.20,3348.1460,S,15051.7230,E,4,18,0.6,30.0,M,46.9,M,,*51
$GNRMC,000043.20,A,3348.1460,S,15051.7230,E,091.6,299.0,010126,,*34
$GNGGA,000043.30,3348.1482,S,15051.7245,E,4,18,0.6,30.0,M,46.9,M,,*5E
$GNRMC,000043.30,A,3348.1482,S,15051.7245,E,091.6,299.0,010126,,*3B
$GNGGA,000043.40,3348.1504,S,15051.7260,E,4,18,0.6,30.0,M,46.9,M,,*51
$GNRMC,000043.40,A,3348.1504,S,15051.7260,E,091.7,299.0,010126,,*35
$GNGGA,000043.50,3348.1526,S,15051.7275,E,4,18,0.6,30.0,M,46.9,M,,*54
$GNRMC,000043.50,A,3348.1526,S,15051.7275,E,091.7,299.0,010126,,*30
$GNGGA,000043.60,3348.1548,S,15051.7290,E,4,18,0.6,30.0,M,46.9,M,,*54
$GNRMC,000043.60,A,3348.1548,S,15051.7290,E,091.8,305.8,010126,,*33
$GNGGA,000043.70,3348.1569,S,15051.7308,E,4,18,0.6,30.0,M,46.9,M,,*56
$GNRMC,000043.70,A,3348.1569,S,15051.7308,E,091.8,305.8,010126,,*31
$GNGGA,000043.80,3348.1590,S,15051.7326,E,4,18,0.6,30.0,M,46.9,M,,*53
$GNRMC,000043.80,A,3348.1590,S,15051.7326,E,091.9,305.8,010126,,*35
$GNGGA,000043.90,3348.1610,S,15051.7344,E,4,18,0.6,30.0,M,46.9,M,,*5D
$GNRMC,000043.90,A,3348.1610,S,15051.7344,E,092.0,305.8,010126,,*31
$GNGGA,000044.00,3348.1631,S,15051.7362,E,4,18,0.6,30.0,M,46.9,M,,*54
$GNRMC,000044.00,A,3348.1631,S,15051.7362,E,092.0,305.8,010126,,*38
$GNGGA,000044.10,3348.1652,S,15051.7380,E,4,18,0.6,30.0,M,46.9,M,,*5C
$GNRMC,000044.10,A,3348.1652,S,15051.7380,E,092.1,305.8,010126,,*31
$GNGGA,000044.20,3348.1672,S,15051.7399,E,4,18,0.6,30.0,M,46.9,M,,*55
$GNRMC,000044.20,A,3348.1672,S,15051.7399,E,092.1,311.8,010126,,*3D
$GNGGA,000044.30,3348.1691,S,15051.7420,E,4,18,0.6,30.0,M,46.9,M,,*5C
$GNRMC,000044.30,A,3348.1691,S,15051.7420,E,092.2,311.8,010126,,*37
$GNGGA,000044.40,3348.1710,S,15051.7441,E,4,18,0.6,30.0,M,46.9,M,,*54
$GNRMC,000044.40,A,3348.1710,S,15051.7441,E,092.2,311.8,010126,,*3F
$GNGGA,000044.50,3348.1729,S,15051.7461,E,4,18,0.6,30.0,M,46.9,M,,*5D
$GNRMC,000044.50,A,3348.1729,S,15051.7461,E,092.3,311.8,010126,,*37
$GNGGA,000044.60,3348.1748,S,15051.7482,E,4,18,0.6,30.0,M,46.9,M,,*54
$GNRMC,000044.60,A,3348.1748,S,15051.7482,E,092.3,311.8,010126,,*3E
$GNGGA,000044.70,3348.1767,S,15051.7502,E,4,18,0.6,30.0,M,46.9,M,,*51
$GNRMC,000044.70,A,3348.1767,S,15051.7502,E,092.4,311.8,010126,,*3C
$GNGGA,000044.80,3348.1785,S,15051.7524,E,4,18,0.6,30.0,M,46.9,M,,*56
$GNRMC,000044.80,A,3348.1785,S,15051.7524,E,092.4,317.1,010126,,*34
$GNGGA,000044.90,3348.1803,S,15051.7546,E,4,18,0.6,30.0,M,46.9,M,,*52
$GNRMC,000044.90,A,3348.1803,S,15051.7546,E,092.5,317.1,010126,,*31
$GNGGA,000045.00,3348.1820,S,15051.7569,E,4,18,0.6,30.0,M,46.9,M,,*56
$GNRMC,000045.00,A,3348.1820,S,15051.7569,E,092.6,317.1,010126,,*36
$GNGGA,000045.10,3348.1838,S,15051.7591,E,4,18,0.6,30.0,M,46.9,M,,*59
$GNRMC,000045.10,A,3348.1838,S,15051.7591,E,092.6,317.1,010126,,*39
$GNGGA,000045.20,3348.1855,S,15051.7614,E,4,18,0.6,30.0,M,46.9,M,,*5F
$GNRMC,000045.20,A,3348.1855,S,15051.7614,E,092.7,317.1,010126,,*3E
$GNGGA,000045.30,3348.1873,S,15051.7637,E,4,18,0.6,30.0,M,46.9,M,,*5B
$GNRMC,000045.30,A,3348.1873,S,15051.7637,E,092.7,317.1,010126,,*3A
$GNGGA,000045.40,3348.1890,S,15051.7659,E,4,18,0.6,30.0,M,46.9,M,,*59
$GNRMC,000045.40,A,3348.1890,S,15051.7659,E,092.8,317.1,010126,,*37
$GNGGA,000045.50,3348.1906,S,15051.7684,E,4,18,0.6,30.0,M,46.9,M,,*56
$GNRMC,000045.50,A,3348.1906,S,15051.7684,E,092.8,321.8,010126,,*34
$GNGGA,000045.60,3348.1922,S,15051.7708,E,4,18,0.6,30.0,M,46.9,M,,*56
$GNRMC,000045.60,A,3348.1922,S,15051.7708,E,092.9,321.8,010126,,*35
$GNGGA,000045.70,3348.1938,S,15051.7732,E,4,18,0.6,30.0,M,46.9,M,,*55
$GNRMC,000045.70,A,3348.1938,S,15051.7732,E,092.9,321.8,010126,,*36
$GNGGA,000045.80,3348.1954,S,15051.7757,E,4,18,0.6,30.0,M,46.9,M,,*53
$GNRMC,000045.80,A,3348.1954,S,15051.7757,E,092.9,321.8,010126,,*30
$GNGGA,000045.90,3348.1970,S,15051.7781,E,4,18,0.6,30.0,M,46.9,M,,*5F
$GNRMC,000045.90,A,3348.1970,S,15051.7781,E,093.0,321.8,010126,,*34
$GNGGA,000046.00,3348.1986,S,15051.7806,E,4,18,0.6,30.0,M,46.9,M,,*5C
$GNRMC,000046.00,A,3348.1986,S,15051.7806,E,093.0,321.8,010126,,*37
$GNGGA,000046.10,3348.2002,S,15051.7830,E,4,18,0.6,30.0,M,46.9,M,,*5E
$GNRMC,000046.10,A,3348.2002,S,15051.7830,E,093.1,325.9,010126,,*31
$GNGGA,000046.20,3348.2017,S,15051.7856,E,4,18,0.6,30.0,M,46.9,M,,*59
$GNRMC,000046.20,A,3348.2017,S,15051.7856,E,093.1,325.9,010126,,*36
$GNGGA,000046.30,3348.2031,S,15051.7882,E,4,18,0.6,30.0,M,46.9,M,,*55
$GNRMC,000046.30,A,3348.2031,S,15051.7882,E,093.2,325.9,010126,,*39
$GNGGA,000046.40,3348.2046,S,15051.7907,E,4,18,0.6,30.0,M,46.9,M,,*5E
$GNRMC,000046.40,A,3348.2046,S,15051.7907,E,093.2,325.9,010126,,*32
$GNGGA,000046.50,3348.2060,S,15051.7933,E,4,18,0.6,30.0,M,46.9,M,,*5C
$GNRMC,000046.50,A,3348.2060,S,15051.7933,E,093.3,325.9,010126,,*31
$GNGGA,000046.60,3348.2075,S,15051.7959,E,4,18,0.6,30.0,M,46.9,M,,*57
$GNRMC,000046.60,A,3348.2075,S,15051.7959,E,093.3,325.9,010126,,*3A
$GNGGA,000046.70,3348.2089,S,15051.7985,E,4,18,0.6,30.0,M,46.9,M,,*54
$GNRMC,000046.70,A,3348.2089,S,15051.7985,E,093.4,325.9,010126,,*3E
$GNGGA,000046.80,3348.2104,S,15051.8011,E,4,18,0.6,30.0,M,46.9,M,,*54
$GNRMC,000046.80,A,3348.2104,S,15051.8011,E,093.4,325.9,010126,,*3E
$GNGGA,000046.90,3348.2117,S,15051.8037,E,4,18,0.6,30.0,M,46.9,M,,*53
$GNRMC,000046.90,A,3348.2117,S,15051.8037,E,093.4,329.6,010126,,*3A
$GNGGA,000047.00,3348.2130,S,15051.8064,E,4,18,0.6,30.0,M,46.9,M,,*58
$GNRMC,000047.00,A,3348.2130,S,15051.8064,E,093.5,329.6,010126,,*30
$GNGGA,000047.10,3348.2144,S,15051.8091,E,4,18,0.6,30.0,M,46.9,M,,*50
$GNRMC,000047.10,A,3348.2144,S,15051.8091,E,093.5,329.6,010126,,*38
$GNGGA,000047.20,3348.2157,S,15051.8118,E,4,18,0.6,30.0,M,46.9,M,,*51
$GNRMC,000047.20,A,3348.2157,S,15051.8118,E,093.6,329.6,010126,,*3A
$GNGGA,000047.30,3348.2170,S,15051.8145,E,4,18,0.6,30.0,M,46.9,M,,*5D
$GNRMC,000047.30,A,3348.2170,S,15051.8145,E,093.6,329.6,010126,,*36
$GNGGA,000047.40,3348.2183,S,15051.8172,E,4,18,0.6,30.0,M,46.9,M,,*52
$GNRMC,000047.40,A,3348.2183,S,15051.8172,E,093.6,329.6,010126,,*39
$GNGGA,000047.50,3348.2196,S,15051.8199,E,4,18,0.6,30.0,M,46.9,M,,*52
$GNRMC,000047.50,A,3348.2196,S,15051.8199,E,093.7,329.6,010126,,*38
$GNGGA,000047.60,3348.2209,S,15051.8226,E,4,18,0.6,30.0,M,46.9,M,,*53
$GNRMC,000047.60,A,3348.2209,S,15051.8226,E,093.7,332.8,010126,,*3D
$GNGGA,000047.70,3348.2221,S,15051.8254,E,4,18,0.6,30.0,M,46.9,M,,*5D
$GNRMC,000047.70,A,3348.2221,S,15051.8254,E,093.7,332.8,010126,,*33
$GNGGA,000047.80,3348.2233,S,15051.8282,E,4,18,0.6,30.0,M,46.9,M,,*5A
$GNRMC,000047.80,A,3348.2233,S,15051.8282,E,093.8,332.8,010126,,*3B
$GNGGA,000047.90,3348.2245,S,15051.8309,E,4,18,0.6,30.0,M,46.9,M,,*58
$GNRMC,000047.90,A,3348.2245,S,15051.8309,E,093.8,332.8,010126,,*39
$GNGGA,000048.00,3348.2257,S,15051.8337,E,4,18,0.6,30.0,M,46.9,M,,*50
$GNRMC,000048.00,A,3348.2257,S,15051.8337,E,093.8,332.8,010126,,*31
$GNGGA,000048.10,3348.2269,S,15051.8365,E,4,18,0.6,30.0,M,46.9,M,,*5B
$GNRMC,000048.10,A,3348.2269,S,15051.8365,E,093.9,332.8,010126,,*3B
$GNGGA,000048.20,3348.2281,S,15051.8393,E,4,18,0.6,30.0,M,46.9,M,,*57
$GNRMC,000048.20,A,3348.2281,S,15051.8393,E,093.9,332.8,010126,,*37
$GNGGA,000048.30,3348.2292,S,15051.8421,E,4,18,0.6,30.0,M,46.9,M,,*5A
$GNRMC,000048.30,A,3348.2292,S,15051.8421,E,093.9,332.8,010126,,*3A
$GNGGA,000048.40,3348.2304,S,15051.8449,E,4,18,0.6,30.0,M,46.9,M,,*5D
$GNRMC,000048.40,A,3348.2304,S,15051.8449,E,094.0,332.8,010126,,*33
$GNGGA,000048.50,3348.2315,S,15051.8478,E,4,18,0.6,30.0,M,46.9,M,,*5E
$GNRMC,000048.50,A,3348.2315,S,15051.8478,E,094.0,335.8,010126,,*37
$GNGGA,000048.60,3348.2326,S,15051.8506,E,4,18,0.6,30.0,M,46.9,M,,*55
$GNRMC,000048.60,A,3348.2326,S,15051.8506,E,094.0,335.8,010126,,*3C
$GNGGA,000048.70,3348.2337,S,15051.8535,E,4,18,0.6,30.0,M,46.9,M,,*54
$GNRMC,000048.70,A,3348.2337,S,15051.8535,E,094.1,335.8,010126,,*3C
$GNGGA,000048.80,3348.2347,S,15051.8563,E,4,18,0.6,30.0,M,46.9,M,,*5F
$GNRMC,000048.80,A,3348.2347,S,15051.8563,E,094.1,335.8,010126,,*37
$GNGGA,000048.90,3348.2358,S,15051.8592,E,4,18,0.6,30.0,M,46.9,M,,*5E
$GNRMC,000048.90,A,3348.2358,S,15051.8592,E,094.1,335.8,010126,,*36
$GNGGA,000049.00,3348.2369,S,15051.8621,E,4,18,0.6,30.0,M,46.9,M,,*5F
$GNRMC,000049.00,A,3348.2369,S,15051.8621,E,094.1,335.8,010126,,*37
$GNGGA,000049.10,3348.2379,S,15051.8649,E,4,18,0.6,30.0,M,46.9,M,,*51
$GNRMC,000049.10,A,3348.2379,S,15051.8649,E,094.2,335.8,010126,,*3A
$GNGGA,000049.20,3348.2390,S,15051.8678,E,4,18,0.6,30.0,M,46.9,M,,*57
$GNRMC,000049.20,A,3348.2390,S,15051.8678,E,094.2,335.8,010126,,*3C
$GNGGA,000049.30,3348.2400,S,15051.8707,E,4,18,0.6,30.0,M,46.9,M,,*51
$GNRMC,000049.30,A,3348.2400,S,15051.8707,E,094.2,338.5,010126,,*3A
$GNGGA,000049.40,3348.2410,S,15051.8736,E,4,18,0.6,30.0,M,46.9,M,,*55
$GNRMC,000049.40,A,3348.2410,S,15051.8736,E,094.2,338.5,010126,,*3E
$GNGGA,000049.50,3348.2419,S,15051.8766,E,4,18,0.6,30.0,M,46.9,M,,*58
$GNRMC,000049.50,A,3348.2419,S,15051.8766,E,094.2,338.5,010126,,*33
$GNGGA,000049.60,3348.2429,S,15051.8795,E,4,18,0.6,30.0,M,46.9,M,,*54
$GNRMC,000049.60,A,3348.2429,S,15051.8795,E,094.3,338.5,010126,,*3E
$GNGGA,000049.70,3348.2439,S,15051.8824,E,4,18,0.6,30.0,M,46.9,M,,*51
$GNRMC,000049.70,A,3348.2439,S,15051.8824,E,094.3,338.5,010126,,*3B
$GNGGA,000049.80,3348.2448,S,15051.8854,E,4,18,0.6,30.0,M,46.9,M,,*5F
$GNRMC,000049.80,A,3348.2448,S,15051.8854,E,094.3,338.5,010126,,*35
$GNGGA,000049.90,3348.2458,S,15051.8883,E,4,18,0.6,30.0,M,46.9,M,,*55
$GNRMC,000049.90,A,3348.2458,S,15051.8883,E,094.3,338.5,010126,,*3F
$GNGGA,000050.00,3348.2467,S,15051.8912,E,4,18,0.6,30.0,M,46.9,M,,*51
$GNRMC,000050.00,A,3348.2467,S,15051.8912,E,094.3,338.5,010126,,*3B
$GNGGA,000050.10,3348.2477,S,15051.8942,E,4,18,0.6,30.0,M,46.9,M,,*54
$GNRMC,000050.10,A,3348.2477,S,15051.8942,E,094.4,338.5,010126,,*39
$GNGGA,000050.20,3348.2486,S,15051.8971,E,4,18,0.6,30.0,M,46.9,M,,*59
$GNRMC,000050.20,A,3348.2486,S,15051.8971,E,094.4,340.9,010126,,*37
$GNGGA,000050.30,3348.2495,S,15051.9001,E,4,18,0.6,30.0,M,46.9,M,,*55
$GNRMC,000050.30,A,3348.2495,S,15051.9001,E,094.4,340.9,010126,,*3B
$GNGGA,000050.40,3348.2503,S,15051.9031,E,4,18,0.6,30.0,M,46.9,M,,*5F
$GNRMC,000050.40,A,3348.2503,S,15051.9031,E,094.4,340.9,010126,,*31
$GNGGA,000050.50,3348.2512,S,15051.9061,E,4,18,0.6,30.0,M,46.9,M,,*5B
$GNRMC,000050.50,A,3348.2512,S,15051.9061,E,094.4,340.9,010126,,*35
$GNGGA,000050.60,3348.2520,S,15051.9090,E,4,18,0.6,30.0,M,46.9,M,,*57
$GNRMC,000050.60,A,3348.2520,S,15051.9090,E,094.4,340.9,010126,,*39
$GNGGA,000050.70,3348.2529,S,15051.9120,E,4,18,0.6,30.0,M,46.9,M,,*55
$GNRMC,000050.70,A,3348.2529,S,15051.9120,E,094.4,340.9,010126,,*3B
$GNGGA,000050.80,3348.2537,S,15051.9150,E,4,18,0.6,30.0,M,46.9,M,,*52
$GNRMC,000050.80,A,3348.2537,S,15051.9150,E,094.4,340.9,010126,,*3C
$GNGGA,000050.90,3348.2546,S,15051.9180,E,4,18,0.6,30.0,M,46.9,M,,*58
$GNRMC,000050.90,A,3348.2546,S,15051.9180,E,094.4,340.9,010126,,*36
$GNGGA,000051.00,3348.2555,S,15051.9210,E,4,18,0.6,30.0,M,46.9,M,,*58
$GNRMC,000051.00,A,3348.2555,S,15051.9210,E,094.4,340.9,010126,,*36
$GNGGA,000051.10,3348.2563,S,15051.9240,E,4,18,0.6,30.0,M,46.9,M,,*59
$GNRMC,000051.10,A,3348.2563,S,15051.9240,E,094.5,343.2,010126,,*3E
$GNGGA,000051.20,3348.2570,S,15051.9270,E,4,18,0.6,30.0,M,46.9,M,,*5B
$GNRMC,000051.20,A,3348.2570,S,15051.9270,E,094.5,343.2,010126,,*3C
$GNGGA,000051.30,3348.2578,S,15051.9300,E,4,18,0.6,30.0,M,46.9,M,,*54
$GNRMC,000051.30,A,3348.2578,S,15051.9300,E,094.5,343.2,010126,,*33
$GNGGA,000051.40,3348.2585,S,15051.9330,E,4,18,0.6,30.0,M,46.9,M,,*52
$GNRMC,000051.40,A,3348.2585,S,15051.9330,E,094.5,343.2,010126,,*35
$GNGGA,000051.50,3348.2593,S,15051.9360,E,4,18,0.6,30.0,M,46.9,M,,*51
$GNRMC,000051.50,A,3348.2593,S,15051.9360,E,094.5,343.2,010126,,*36
$GNGGA,000051.60,3348.2601,S,15051.9391,E,4,18,0.6,30.0,M,46.9,M,,*54
$GNRMC,000051.60,A,3348.2601,S,15051.9391,E,094.5,343.2,010126,,*33
$GNGGA,000051.70,3348.2608,S,15051.9421,E,4,18,0.6,30.0,M,46.9,M,,*50
$GNRMC,000051.70,A,3348.2608,S,15051.9421,E,094.5,343.2,010126,,*37
$GNGGA,000051.80,3348.2616,S,15051.9451,E,4,18,0.6,30.0,M,46.9,M,,*57
$GNRMC,000051.80,A,3348.2616,S,15051.9451,E,094.5,343.2,010126,,*30
$GNGGA,000051.90,3348.2623,S,15051.9481,E,4,18,0.6,30.0,M,46.9,M,,*5D
$GNRMC,000051.90,A,3348.2623,S,15051.9481,E,094.5,343.2,010126,,*3A
$GNGGA,000052.00,3348.2631,S,15051.9511,E,4,18,0.6,30.0,M,46.9,M,,*5C
$GNRMC,000052.00,A,3348.2631,S,15051.9511,E,094.5,343.2,010126,,*3B
$GNGGA,000052.10,3348.2638,S,15051.9542,E,4,18,0.6,30.0,M,46.9,M,,*52
$GNRMC,000052.10,A,3348.2638,S,15051.9542,E,094.5,345.3,010126,,*32
$GNGGA,000052.20,3348.2644,S,15051.9572,E,4,18,0.6,30.0,M,46.9,M,,*59
$GNRMC,000052.20,A,3348.2644,S,15051.9572,E,094.5,345.3,010126,,*39
$GNGGA,000052.30,3348.2651,S,15051.9603,E,4,18,0.6,30.0,M,46.9,M,,*59
$GNRMC,000052.30,A,3348.2651,S,15051.9603,E,094.5,345.3,010126,,*39
$GNGGA,000052.40,3348.2658,S,15051.9633,E,4,18,0.6,30.0,M,46.9,M,,*54
$GNRMC,000052.40,A,3348.2658,S,15051.9633,E,094.4,345.3,010126,,*35
$GNGGA,000052.50,3348.2664,S,15051.9664,E,4,18,0.6,30.0,M,46.9,M,,*58
$GNRMC,000052.50,A,3348.2664,S,15051.9664,E,094.4,345.3,010126,,*39
$GNGGA,000052.60,3348.2671,S,15051.9695,E,4,18,0.6,30.0,M,46.9,M,,*51
$GNRMC,000052.60,A,3348.2671,S,15051.9695,E,094.4,345.3,010126,,*30
$GNGGA,000052.70,3348.2678,S,15051.9725,E,4,18,0.6,30.0,M,46.9,M,,*53
$GNRMC,000052.70,A,3348.2678,S,15051.9725,E,094.4,345.3,010126,,*32
$GNGGA,000052.80,3348.2684,S,15051.9756,E,4,18,0.6,30.0,M,46.9,M,,*5B
$GNRMC,000052.80,A,3348.2684,S,15051.9756,E,094.4,345.3,010126,,*3A
$GNGGA,000052.90,3348.2691,S,15051.9786,E,4,18,0.6,30.0,M,46.9,M,,*53
$GNRMC,000052.90,A,3348.2691,S,15051.9786,E,094.4,345.3,010126,,*32
$GNGGA,000053.00,3348.2697,S,15051.9817,E,4,18,0.6,30.0,M,46.9,M,,*5A
$GNRMC,000053.00,A,3348.2697,S,15051.9817,E,094.4,345.3,010126,,*3B
$GNGGA,000053.10,3348.2703,S,15051.9847,E,4,18,0.6,30.0,M,46.9,M,,*52
$GNRMC,000053.10,A,3348.2703,S,15051.9847,E,094.4,347.3,010126,,*31
$GNGGA,000053.20,3348.2709,S,15051.9878,E,4,18,0.6,30.0,M,46.9,M,,*57
$GNRMC,000053.20,A,3348.2709,S,15051.9878,E,094.4,347.3,010126,,*34
$GNGGA,000053.30,3348.2715,S,15051.9909,E,4,18,0.6,30.0,M,46.9,M,,*5C
$GNRMC,000053.30,A,3348.2715,S,15051.9909,E,094.3,347.3,010126,,*38
$GNGGA,000053.40,3348.2721,S,15051.9940,E,4,18,0.6,30.0,M,46.9,M,,*51
$GNRMC,000053.40,A,3348.2721,S,15051.9940,E,094.3,347.3,010126,,*35
$GNGGA,000053.50,3348.2726,S,15051.9970,E,4,18,0.6,30.0,M,46.9,M,,*54
$GNRMC,000053.50,A,3348.2726,S,15051.9970,E,094.3,347.3,010126,,*30
$GNGGA,000053.60,3348.2732,S,15052.0001,E,4,18,0.6,30.0,M,46.9,M,,*57
$GNRMC,000053.60,A,3348.2732,S,15052.0001,E,094.3,347.3,010126,,*33
$GNGGA,000053.70,3348.2738,S,15052.0032,E,4,18,0.6,30.0,M,46.9,M,,*5C
$GNRMC,000053.70,A,3348.2738,S,15052.0032,E,094.3,347.3,010126,,*38
$GNGGA,000053.80,3348.2744,S,15052.0063,E,4,18,0.6,30.0,M,46.9,M,,*5C
$GNRMC,000053.80,A,3348.2744,S,15052.0063,E,094.3,347.3,010126,,*38
$GNGGA,000053.90,3348.2749,S,15052.0093,E,4,18,0.6,30.0,M,46.9,M,,*5F
$GNRMC,000053.90,A,3348.2749,S,15052.0093,E,094.2,347.3,010126,,*3A
$GNGGA,000054.00,3348.2755,S,15052.0124,E,4,18,0.6,30.0,M,46.9,M,,*51
$GNRMC,000054.00,A,3348.2755,S,15052.0124,E,094.2,347.3,010126,,*34
$GNGGA,000054.10,3348.2760,S,15052.0155,E,4,18,0.6,30.0,M,46.9,M,,*50
$GNRMC,000054.10,A,3348.2760,S,15052.0155,E,094.2,349.2,010126,,*3A
$GNGGA,000054.20,3348.2765,S,15052.0186,E,4,18,0.6,30.0,M,46.9,M,,*58
$GNRMC,000054.20,A,3348.2765,S,15052.0186,E,094.2,349.2,010126,,*32
$GNGGA,000054.30,3348.2770,S,15052.0217,E,4,18,0.6,30.0,M,46.9,M,,*56
$GNRMC,000054.30,A,3348.2770,S,15052.0217,E,094.1,349.2,010126,,*3F
$GNGGA,000054.40,3348.2775,S,15052.0247,E,4,18,0.6,30.0,M,46.9,M,,*51
$GNRMC,000054.40,A,3348.2775,S,15052.0247,E,094.1,349.2,010126,,*38
$GNGGA,000054.50,3348.2780,S,15052.0278,E,4,18,0.6,30.0,M,46.9,M,,*56
$GNRMC,000054.50,A,3348.2780,S,15052.0278,E,094.1,349.2,010126,,*3F
$GNGGA,000054.60,3348.2785,S,15052.0309,E,4,18,0.6,30.0,M,46.9,M,,*57
$GNRMC,000054.60,A,3348.2785,S,15052.0309,E,094.1,349.2,010126,,*3E
$GNGGA,000054.70,3348.2790,S,15052.0340,E,4,18,0.6,30.0,M,46.9,M,,*5F
$GNRMC,000054.70,A,3348.2790,S,15052.0340,E,094.0,349.2,010126,,*37
$GNGGA,000054.80,3348.2795,S,15052.0371,E,4,18,0.6,30.0,M,46.9,M,,*57
$GNRMC,000054.80,A,3348.2795,S,15052.0371,E,094.0,349.2,010126,,*3F
$GNGGA,000054.90,3348.2799,S,15052.0402,E,4,18,0.6,30.0,M,46.9,M,,*59
$GNRMC,000054.90,A,3348.2799,S,15052.0402,E,094.0,349.2,010126,,*31
$GNGGA,000055.00,3348.2804,S,15052.0433,E,4,18,0.6,30.0,M,46.9,M,,*58
$GNRMC,000055.00,A,3348.2804,S,15052.0433,E,094.0,349.2,010126,,*30
$GNGGA,000055.10,3348.2809,S,15052.0464,E,4,18,0.6,30.0,M,46.9,M,,*56
$GNRMC,000055.10,A,3348.2809,S,15052.0464,E,093.9,351.0,010126,,*3B
$GNGGA,000055.20,3348.2813,S,15052.0495,E,4,18,0.6,30.0,M,46.9,M,,*50
$GNRMC,000055.20,A,3348.2813,S,15052.0495,E,093.9,351.0,010126,,*3D
$GNGGA,000055.30,3348.2817,S,15052.0526,E,4,18,0.6,30.0,M,46.9,M,,*5C
$GNRMC,000055.30,A,3348.2817,S,15052.0526,E,093.9,351.0,010126,,*31
$GNGGA,000055.40,3348.2821,S,15052.0556,E,4,18,0.6,30.0,M,46.9,M,,*59
$GNRMC,000055.40,A,3348.2821,S,15052.0556,E,093.8,351.0,010126,,*35
$GNGGA,000055.50,3348.2825,S,15052.0587,E,4,18,0.6,30.0,M,46.9,M,,*50
$GNRMC,000055.50,A,3348.2825,S,15052.0587,E,093.8,351.0,010126,,*3C
$GNGGA,000055.60,3348.2829,S,15052.0618,E,4,18,0.6,30.0,M,46.9,M,,*5A
$GNRMC,000055.60,A,3348.2829,S,15052.0618,E,093.8,351.0,010126,,*36
$GNGGA,000055.70,3348.2834,S,15052.0649,E,4,18,0.6,30.0,M,46.9,M,,*53
$GNRMC,000055.70,A,3348.2834,S,15052.0649,E,093.7,351.0,010126,,*30
$GNGGA,000055.80,3348.2838,S,15052.0680,E,4,18,0.6,30.0,M,46.9,M,,*55
$GNRMC,000055.80,A,3348.2838,S,15052.0680,E,093.7,351.0,010126,,*36
$GNGGA,000055.90,3348.2842,S,15052.0711,E,4,18,0.6,30.0,M,46.9,M,,*50
$GNRMC,000055.90,A,3348.2842,S,15052.0711,E,093.7,351.0,010126,,*33
$GNGGA,000056.00,3348.2846,S,15052.0742,E,4,18,0.6,30.0,M,46.9,M,,*58
$GNRMC,000056.00,A,3348.2846,S,15052.0742,E,093.6,351.0,010126,,*3A
$GNGGA,000056.10,3348.2850,S,15052.0773,E,4,18,0.6,30.0,M,46.9,M,,*5C
$GNRMC,000056.10,A,3348.2850,S,15052.0773,E,093.6,351.0,010126,,*3E
$GNGGA,000056.20,3348.2854,S,15052.0804,E,4,18,0.6,30.0,M,46.9,M,,*54
$GNRMC,000056.20,A,3348.2854,S,15052.0804,E,093.5,352.7,010126,,*31
$GNGGA,000056.30,3348.2857,S,15052.0835,E,4,18,0.6,30.0,M,46.9,M,,*54
$GNRMC,000056.30,A,3348.2857,S,15052.0835,E,093.5,352.7,010126,,*31
$GNGGA,000056.40,3348.2860,S,15052.0866,E,4,18,0.6,30.0,M,46.9,M,,*51
$GNRMC,000056.40,A,3348.2860,S,15052.0866,E,093.5,352.7,010126,,*34
$GNGGA,000056.50,3348.2863,S,15052.0897,E,4,18,0.6,30.0,M,46.9,M,,*5D
$GNRMC,000056.50,A,3348.2863,S,15052.0897,E,093.4,352.7,010126,,*39
$GNGGA,000056.60,3348.2867,S,15052.0928,E,4,18,0.6,30.0,M,46.9,M,,*5F
$GNRMC,000056.60,A,3348.2867,S,15052.0928,E,093.4,352.7,010126,,*3B
$GNGGA,000056.70,3348.2870,S,15052.0959,E,4,18,0.6,30.0,M,46.9,M,,*5E
$GNRMC,000056.70,A,3348.2870,S,15052.0959,E,093.3,352.7,010126,,*3D
$GNGGA,000056.80,3348.2873,S,15052.0990,E,4,18,0.6,30.0,M,46.9,M,,*57
$GNRMC,000056.80,A,3348.2873,S,15052.0990,E,093.3,352.7,010126,,*34
$GNGGA,000056.90,3348.2877,S,15052.1021,E,4,18,0.6,30.0,M,46.9,M,,*50
$GNRMC,000056.90,A,3348.2877,S,15052.1021,E,093.3,352.7,010126,,*33
$GNGGA,000057.00,3348.2880,S,15052.1051,E,4,18,0.6,30.0,M,46.9,M,,*57
$GNRMC,000057.00,A,3348.2880,S,15052.1051,E,093.2,352.7,010126,,*35
$GNGGA,000057.10,3348.2883,S,15052.1082,E,4,18,0.6,30.0,M,46.9,M,,*5B
$GNRMC,000057.10,A,3348.2883,S,15052.1082,E,093.2,352.7,010126,,*39
$GNGGA,000057.20,3348.2886,S,15052.1113,E,4,18,0.6,30.0,M,46.9,M,,*54
$GNRMC,000057.20,A,3348.2886,S,15052.1113,E,093.1,352.7,010126,,*35
$GNGGA,000057.30,3348.2889,S,15052.1144,E,4,18,0.6,30.0,M,46.9,M,,*58
$GNRMC,000057.30,A,3348.2889,S,15052.1144,E,093.1,354.4,010126,,*3C
$GNGGA,000057.40,3348.2892,S,15052.1175,E,4,18,0.6,30.0,M,46.9,M,,*57
$GNRMC,000057.40,A,3348.2892,S,15052.1175,E,093.0,354.4,010126,,*32
$GNGGA,000057.50,3348.2894,S,15052.1206,E,4,18,0.6,30.0,M,46.9,M,,*57
$GNRMC,000057.50,A,3348.2894,S,15052.1206,E,093.0,354.4,010126,,*32
$GNGGA,000057.60,3348.2897,S,15052.1237,E,4,18,0.6,30.0,M,46.9,M,,*55
$GNRMC,000057.60,A,3348.2897,S,15052.1237,E,092.9,354.4,010126,,*38
$GNGGA,000057.70,3348.2899,S,15052.1268,E,4,18,0.6,30.0,M,46.9,M,,*50
$GNRMC,000057.70,A,3348.2899,S,15052.1268,E,092.9,354.4,010126,,*3D
$GNGGA,000057.80,3348.2902,S,15052.1299,E,4,18,0.6,30.0,M,46.9,M,,*52
$GNRMC,000057.80,A,3348.2902,S,15052.1299,E,092.8,354.4,010126,,*3E
$GNGGA,000057.90,3348.2905,S,15052.1330,E,4,18,0.6,30.0,M,46.9,M,,*56
$GNRMC,000057.90,A,3348.2905,S,15052.1330,E,092.8,354.4,010126,,*3A
$GNGGA,000058.00,3348.2907,S,15052.1360,E,4,18,0.6,30.0,M,46.9,M,,*57
$GNRMC,000058.00,A,3348.2907,S,15052.1360,E,092.7,354.4,010126,,*34
$GNGGA,000058.10,3348.2910,S,15052.1391,E,4,18,0.6,30.0,M,46.9,M,,*5E
$GNRMC,000058.10,A,3348.2910,S,15052.1391,E,092.7,354.4,010126,,*3D
$GNGGA,000058.20,3348.2912,S,15052.1422,E,4,18,0.6,30.0,M,46.9,M,,*50
$GNRMC,000058.20,A,3348.2912,S,15052.1422,E,092.6,354.4,010126,,*32
$GNGGA,000058.30,3348.2915,S,15052.1453,E,4,18,0.6,30.0,M,46.9,M,,*50
$GNRMC,000058.30,A,3348.2915,S,15052.1453,E,092.6,354.4,010126,,*32
$GNGGA,000058.40,3348.2917,S,15052.1484,E,4,18,0.6,30.0,M,46.9,M,,*5F
$GNRMC,000058.40,A,3348.2917,S,15052.1484,E,092.5,356.0,010126,,*38
$GNGGA,000058.50,3348.2919,S,15052.1514,E,4,18,0.6,30.0,M,46.9,M,,*58
$GNRMC,000058.50,A,3348.2919,S,15052.1514,E,092.5,356.0,010126,,*3F
$GNGGA,000058.60,3348.2921,S,15052.1545,E,4,18,0.6,30.0,M,46.9,M,,*54
$GNRMC,000058.60,A,3348.2921,S,15052.1545,E,092.4,356.0,010126,,*32
$GNGGA,000058.70,3348.2922,S,15052.1576,E,4,18,0.6,30.0,M,46.9,M,,*56
$GNRMC,000058.70,A,3348.2922,S,15052.1576,E,092.4,356.0,010126,,*30
$GNGGA,000058.80,3348.2924,S,15052.1607,E,4,18,0.6,30.0,M,46.9,M,,*5A
$GNRMC,000058.80,A,3348.2924,S,15052.1607,E,092.3,356.0,010126,,*3B
$GNGGA,000058.90,3348.2926,S,15052.1638,E,4,18,0.6,30.0,M,46.9,M,,*55
$GNRMC,000058.90,A,3348.2926,S,15052.1638,E,092.3,356.0,010126,,*34
$GNGGA,000059.00,3348.2928,S,15052.1668,E,4,18,0.6,30.0,M,46.9,M,,*56
$GNRMC,000059.00,A,3348.2928,S,15052.1668,E,092.2,356.0,010126,,*36
$GNGGA,000059.10,3348.2929,S,15052.1699,E,4,18,0.6,30.0,M,46.9,M,,*58
$GNRMC,000059.10,A,3348.2929,S,15052.1699,E,092.2,356.0,010126,,*38
$GNGGA,000059.20,3348.2931,S,15052.1730,E,4,18,0.6,30.0,M,46.9,M,,*50
$GNRMC,000059.20,A,3348.2931,S,15052.1730,E,092.1,356.0,010126,,*33
$GNGGA,000059.30,3348.2933,S,15052.1761,E,4,18,0.6,30.0,M,46.9,M,,*57
$GNRMC,000059.30,A,3348.2933,S,15052.1761,E,092.1,356.0,010126,,*34
$GNGGA,000059.40,3348.2935,S,15052.1791,E,4,18,0.6,30.0,M,46.9,M,,*59
$GNRMC,000059.40,A,3348.2935,S,15052.1791,E,092.0,356.0,010126,,*3B
$GNGGA,000059.50,3348.2936,S,15052.1822,E,4,18,0.6,30.0,M,46.9,M,,*5C
$GNRMC,000059.50,A,3348.2936,S,15052.1822,E,091.9,356.0,010126,,*34
$GNGGA,000059.60,3348.2938,S,15052.1853,E,4,18,0.6,30.0,M,46.9,M,,*57
$GNRMC,000059.60,A,3348.2938,S,15052.1853,E,091.9,357.6,010126,,*38
$GNGGA,000059.70,3348.2939,S,15052.1883,E,4,18,0.6,30.0,M,46.9,M,,*5A
$GNRMC,000059.70,A,3348.2939,S,15052.1883,E,091.8,357.6,010126,,*34
$GNGGA,000059.80,3348.2940,S,15052.1914,E,4,18,0.6,30.0,M,46.9,M,,*54
$GNRMC,000059.80,A,3348.2940,S,15052.1914,E,091.8,357.6,010126,,*3A
$GNGGA,000059.90,3348.2941,S,15052.1945,E,4,18,0.6,30.0,M,46.9,M,,*50
$GNRMC,000059.90,A,3348.2941,S,15052.1945,E,091.7,357.6,010126,,*31
