$GNGGA,000000.00,3348.0647,S,15052.7854,E,4,18,0.6,30.0,M,46.9,M,,*59
$GNRMC,000000.00,A,3348.0647,S,15052.7854,E,104.2,119.0,010126,,*3E
$GNGGA,000000.10,3348.0622,S,15052.7837,E,4,18,0.6,30.0,M,46.9,M,,*5E
$GNRMC,000000.10,A,3348.0622,S,15052.7837,E,104.3,119.0,010126,,*38
$GNGGA,000000.20,3348.0596,S,15052.7820,E,4,18,0.6,30.0,M,46.9,M,,*57
$GNRMC,000000.20,A,3348.0596,S,15052.7820,E,104.4,119.0,010126,,*36
$GNGGA,000000.30,3348.0571,S,15052.7803,E,4,18,0.6,30.0,M,46.9,M,,*5E
$GNRMC,000000.30,A,3348.0571,S,15052.7803,E,104.5,119.0,010126,,*3E
$GNGGA,000000.40,3348.0546,S,15052.7785,E,4,18,0.6,30.0,M,46.9,M,,*5C
$GNRMC,000000.40,A,3348.0546,S,15052.7785,E,104.6,125.8,010126,,*38
$GNGGA,000000.50,3348.0523,S,15052.7764,E,4,18,0.6,30.0,M,46.9,M,,*51
$GNRMC,000000.50,A,3348.0523,S,15052.7764,E,104.6,125.8,010126,,*35
$GNGGA,000000.60,3348.0499,S,15052.7744,E,4,18,0.6,30.0,M,46.9,M,,*50
$GNRMC,000000.60,A,3348.0499,S,15052.7744,E,104.7,125.8,010126,,*35
$GNGGA,000000.70,3348.0476,S,15052.7723,E,4,18,0.6,30.0,M,46.9,M,,*51
$GNRMC,000000.70,A,3348.0476,S,15052.7723,E,104.8,125.8,010126,,*3B
$GNGGA,000000.80,3348.0452,S,15052.7703,E,4,18,0.6,30.0,M,46.9,M,,*5A
$GNRMC,000000.80,A,3348.0452,S,15052.7703,E,104.9,125.8,010126,,*31
$GNGGA,000000.90,3348.0429,S,15052.7681,E,4,18,0.6,30.0,M,46.9,M,,*5C
$GNRMC,000000.90,A,3348.0429,S,15052.7681,E,104.9,131.8,010126,,*32
$GNGGA,000001.00,3348.0408,S,15052.7658,E,4,18,0.6,30.0,M,46.9,M,,*53
$GNRMC,000001.00,A,3348.0408,S,15052.7658,E,105.0,131.8,010126,,*35
$GNGGA,000001.10,3348.0386,S,15052.7635,E,4,18,0.6,30.0,M,46.9,M,,*58
$GNRMC,000001.10,A,3348.0386,S,15052.7635,E,105.1,131.8,010126,,*3F
$GNGGA,000001.20,3348.0364,S,15052.7611,E,4,18,0.6,30.0,M,46.9,M,,*51
$GNRMC,000001.20,A,3348.0364,S,15052.7611,E,105.2,131.8,010126,,*35
$GNGGA,000001.30,3348.0342,S,15052.7588,E,4,18,0.6,30.0,M,46.9,M,,*57
$GNRMC,000001.30,A,3348.0342,S,15052.7588,E,105.3,131.8,010126,,*32
$GNGGA,000001.40,3348.0321,S,15052.7564,E,4,18,0.6,30.0,M,46.9,M,,*57
$GNRMC,000001.40,A,3348.0321,S,15052.7564,E,105.3,137.1,010126,,*3D
$GNGGA,000001.50,3348.0301,S,15052.7538,E,4,18,0.6,30.0,M,46.9,M,,*5D
$GNRMC,000001.50,A,3348.0301,S,15052.7538,E,105.4,137.1,010126,,*30
$GNGGA,000001.60,3348.0281,S,15052.7513,E,4,18,0.6,30.0,M,46.9,M,,*5E
$GNRMC,000001.60,A,3348.0281,S,15052.7513,E,105.5,137.1,010126,,*32
$GNGGA,000001.70,3348.0261,S,15052.7487,E,4,18,0.6,30.0,M,46.9,M,,*5D
$GNRMC,000001.70,A,3348.0261,S,15052.7487,E,105.6,137.1,010126,,*32
$GNGGA,000001.80,3348.0241,S,15052.7461,E,4,18,0.6,30.0,M,46.9,M,,*58
$GNRMC,000001.80,A,3348.0241,S,15052.7461,E,105.6,137.1,010126,,*37
$GNGGA,000001.90,3348.0221,S,15052.7435,E,4,18,0.6,30.0,M,46.9,M,,*5E
$GNRMC,000001.90,A,3348.0221,S,15052.7435,E,105.7,137.1,010126,,*30
$GNGGA,000002.00,3348.0202,S,15052.7409,E,4,18,0.6,30.0,M,46.9,M,,*5A
$GNRMC,000002.00,A,3348.0202,S,15052.7409,E,105.8,141.8,010126,,*33
$GNGGA,000002.10,3348.0183,S,15052.7381,E,4,18,0.6,30.0,M,46.9,M,,*56
$GNRMC,000002.10,A,3348.0183,S,15052.7381,E,105.8,141.8,010126,,*3F
$GNGGA,000002.20,3348.0165,S,15052.7353,E,4,18,0.6,30.0,M,46.9,M,,*52
$GNRMC,000002.20,A,3348.0165,S,15052.7353,E,105.9,141.8,010126,,*3A
$GNGGA,000002.30,3348.0147,S,15052.7325,E,4,18,0.6,30.0,M,46.9,M,,*52
$GNRMC,000002.30,A,3348.0147,S,15052.7325,E,106.0,141.8,010126,,*30
$GNGGA,000002.40,3348.0129,S,15052.7298,E,4,18,0.6,30.0,M,46.9,M,,*5A
$GNRMC,000002.40,A,3348.0129,S,15052.7298,E,106.0,141.8,010126,,*38
$GNGGA,000002.50,3348.0111,S,15052.7270,E,4,18,0.6,30.0,M,46.9,M,,*56
$GNRMC,000002.50,A,3348.0111,S,15052.7270,E,106.1,141.8,010126,,*35
$GNGGA,000002.60,3348.0093,S,15052.7241,E,4,18,0.6,30.0,M,46.9,M,,*5C
$GNRMC,000002.60,A,3348.0093,S,15052.7241,E,106.2,145.9,010126,,*39
$GNGGA,000002.70,3348.0076,S,15052.7212,E,4,18,0.6,30.0,M,46.9,M,,*50
$GNRMC,000002.70,A,3348.0076,S,15052.7212,E,106.2,145.9,010126,,*35
$GNGGA,000002.80,3348.0060,S,15052.7183,E,4,18,0.6,30.0,M,46.9,M,,*53
$GNRMC,000002.80,A,3348.0060,S,15052.7183,E,106.3,145.9,010126,,*37
$GNGGA,000002.90,3348.0043,S,15052.7153,E,4,18,0.6,30.0,M,46.9,M,,*5E
$GNRMC,000002.90,A,3348.0043,S,15052.7153,E,106.4,145.9,010126,,*3D
$GNGGA,000003.00,3348.0027,S,15052.7124,E,4,18,0.6,30.0,M,46.9,M,,*54
$GNRMC,000003.00,A,3348.0027,S,15052.7124,E,106.4,145.9,010126,,*37
$GNGGA,000003.10,3348.0010,S,15052.7094,E,4,18,0.6,30.0,M,46.9,M,,*5B
$GNRMC,000003.10,A,3348.0010,S,15052.7094,E,106.5,145.9,010126,,*39
$GNGGA,000003.20,3347.9994,S,15052.7065,E,4,18,0.6,30.0,M,46.9,M,,*55
$GNRMC,000003.20,A,3347.9994,S,15052.7065,E,106.5,145.9,010126,,*37
$GNGGA,000003.30,3347.9979,S,15052.7034,E,4,18,0.6,30.0,M,46.9,M,,*53
$GNRMC,000003.30,A,3347.9979,S,15052.7034,E,106.6,149.6,010126,,*31
$GNGGA,000003.40,3347.9964,S,15052.7004,E,4,18,0.6,30.0,M,46.9,M,,*5B
$GNRMC,000003.40,A,3347.9964,S,15052.7004,E,106.7,149.6,010126,,*38
$GNGGA,000003.50,3347.9949,S,15052.6973,E,4,18,0.6,30.0,M,46.9,M,,*5D
$GNRMC,000003.50,A,3347.9949,S,15052.6973,E,106.7,149.6,010126,,*3E
$GNGGA,000003.60,3347.9934,S,15052.6942,E,4,18,0.6,30.0,M,46.9,M,,*56
$GNRMC,000003.60,A,3347.9934,S,15052.6942,E,106.8,149.6,010126,,*3A
$GNGGA,000003.70,3347.9919,S,15052.6911,E,4,18,0.6,30.0,M,46.9,M,,*5E
$GNRMC,000003.70,A,3347.9919,S,15052.6911,E,106.8,149.6,010126,,*32
$GNGGA,000003.80,3347.9904,S,15052.6881,E,4,18,0.6,30.0,M,46.9,M,,*55
$GNRMC,000003.80,A,3347.9904,S,15052.6881,E,106.9,149.6,010126,,*38
$GNGGA,000003.90,3347.9889,S,15052.6850,E,4,18,0.6,30.0,M,46.9,M,,*5C
$GNRMC,000003.90,A,3347.9889,S,15052.6850,E,106.9,152.8,010126,,*35
$GNGGA,000004.00,3347.9875,S,15052.6818,E,4,18,0.6,30.0,M,46.9,M,,*5D
$GNRMC,000004.00,A,3347.9875,S,15052.6818,E,107.0,152.8,010126,,*3C
$GNGGA,000004.10,3347.9862,S,15052.6786,E,4,18,0.6,30.0,M,46.9,M,,*52
$GNRMC,000004.10,A,3347.9862,S,15052.6786,E,107.0,152.8,010126,,*33
$GNGGA,000004.20,3347.9848,S,15052.6754,E,4,18,0.6,30.0,M,46.9,M,,*56
$GNRMC,000004.20,A,3347.9848,S,15052.6754,E,107.1,152.8,010126,,*36
$GNGGA,000004.30,3347.9835,S,15052.6722,E,4,18,0.6,30.0,M,46.9,M,,*5C
$GNRMC,000004.30,A,3347.9835,S,15052.6722,E,107.1,152.8,010126,,*3C
$GNGGA,000004.40,3347.9821,S,15052.6691,E,4,18,0.6,30.0,M,46.9,M,,*57
$GNRMC,000004.40,A,3347.9821,S,15052.6691,E,107.2,152.8,010126,,*34
$GNGGA,000004.50,3347.9807,S,15052.6659,E,4,18,0.6,30.0,M,46.9,M,,*56
$GNRMC,000004.50,A,3347.9807,S,15052.6659,E,107.2,152.8,010126,,*35
$GNGGA,000004.60,3347.9794,S,15052.6627,E,4,18,0.6,30.0,M,46.9,M,,*59
$GNRMC,000004.60,A,3347.9794,S,15052.6627,E,107.3,155.8,010126,,*3C
$GNGGA,000004.70,3347.9782,S,15052.6594,E,4,18,0.6,30.0,M,46.9,M,,*54
$GNRMC,000004.70,A,3347.9782,S,15052.6594,E,107.3,155.8,010126,,*31
$GNGGA,000004.80,3347.9770,S,15052.6561,E,4,18,0.6,30.0,M,46.9,M,,*5C
$GNRMC,000004.80,A,3347.9770,S,15052.6561,E,107.3,155.8,010126,,*39
$GNGGA,000004.90,3347.9757,S,15052.6529,E,4,18,0.6,30.0,M,46.9,M,,*54
$GNRMC,000004.90,A,3347.9757,S,15052.6529,E,107.4,155.8,010126,,*36
$GNGGA,000005.00,3347.9745,S,15052.6496,E,4,18,0.6,30.0,M,46.9,M,,*5A
$GNRMC,000005.00,A,3347.9745,S,15052.6496,E,107.4,155.8,010126,,*38
$GNGGA,000005.10,3347.9733,S,15052.6463,E,4,18,0.6,30.0,M,46.9,M,,*50
$GNRMC,000005.10,A,3347.9733,S,15052.6463,E,107.5,155.8,010126,,*33
$GNGGA,000005.20,3347.9721,S,15052.6430,E,4,18,0.6,30.0,M,46.9,M,,*56
$GNRMC,000005.20,A,3347.9721,S,15052.6430,E,107.5,155.8,010126,,*35
$GNGGA,000005.30,3347.9708,S,15052.6398,E,4,18,0.6,30.0,M,46.9,M,,*59
$GNRMC,000005.30,A,3347.9708,S,15052.6398,E,107.5,155.8,010126,,*3A
$GNGGA,000005.40,3347.9697,S,15052.6365,E,4,18,0.6,30.0,M,46.9,M,,*5B
$GNRMC,000005.40,A,3347.9697,S,15052.6365,E,107.6,158.5,010126,,*3B
$GNGGA,000005.50,3347.9686,S,15052.6331,E,4,18,0.6,30.0,M,46.9,M,,*5B
$GNRMC,000005.50,A,3347.9686,S,15052.6331,E,107.6,158.5,010126,,*3B
$GNGGA,000005.60,3347.9675,S,15052.6298,E,4,18,0.6,30.0,M,46.9,M,,*56
$GNRMC,000005.60,A,3347.9675,S,15052.6298,E,107.6,158.5,010126,,*36
$GNGGA,000005.70,3347.9664,S,15052.6264,E,4,18,0.6,30.0,M,46.9,M,,*54
$GNRMC,000005.70,A,3347.9664,S,15052.6264,E,107.6,158.5,010126,,*34
$GNGGA,000005.80,3347.9653,S,15052.6231,E,4,18,0.6,30.0,M,46.9,M,,*5F
$GNRMC,000005.80,A,3347.9653,S,15052.6231,E,107.7,158.5,010126,,*3E
$GNGGA,000005.90,3347.9642,S,15052.6197,E,4,18,0.6,30.0,M,46.9,M,,*51
$GNRMC,000005.90,A,3347.9642,S,15052.6197,E,107.7,158.5,010126,,*30
$GNGGA,000006.00,3347.9631,S,15052.6164,E,4,18,0.6,30.0,M,46.9,M,,*53
$GNRMC,000006.00,A,3347.9631,S,15052.6164,E,107.7,158.5,010126,,*32
$GNGGA,000006.10,3347.9620,S,15052.6130,E,4,18,0.6,30.0,M,46.9,M,,*53
$GNRMC,000006.10,A,3347.9620,S,15052.6130,E,107.7,158.5,010126,,*32
$GNGGA,000006.20,3347.9610,S,15052.6096,E,4,18,0.6,30.0,M,46.9,M,,*5E
$GNRMC,000006.20,A,3347.9610,S,15052.6096,E,107.8,160.9,010126,,*37
$GNGGA,000006.30,3347.9601,S,15052.6062,E,4,18,0.6,30.0,M,46.9,M,,*54
$GNRMC,000006.30,A,3347.9601,S,15052.6062,E,107.8,160.9,010126,,*3D
$GNGGA,000006.40,3347.9591,S,15052.6028,E,4,18,0.6,30.0,M,46.9,M,,*57
$GNRMC,000006.40,A,3347.9591,S,15052.6028,E,107.8,160.9,010126,,*3E
$GNGGA,000006.50,3347.9581,S,15052.5994,E,4,18,0.6,30.0,M,46.9,M,,*5A
$GNRMC,000006.50,A,3347.9581,S,15052.5994,E,107.8,160.9,010126,,*33
$GNGGA,000006.60,3347.9571,S,15052.5960,E,4,18,0.6,30.0,M,46.9,M,,*5D
$GNRMC,000006.60,A,3347.9571,S,15052.5960,E,107.8,160.9,010126,,*34
$GNGGA,000006.70,3347.9562,S,15052.5926,E,4,18,0.6,30.0,M,46.9,M,,*5C
$GNRMC,000006.70,A,3347.9562,S,15052.5926,E,107.8,160.9,010126,,*35
$GNGGA,000006.80,3347.9552,S,15052.5892,E,4,18,0.6,30.0,M,46.9,M,,*5E
$GNRMC,000006.80,A,3347.9552,S,15052.5892,E,107.8,160.9,010126,,*37
$GNGGA,000006.90,3347.9542,S,15052.5858,E,4,18,0.6,30.0,M,46.9,M,,*58
$GNRMC,000006.90,A,3347.9542,S,15052.5858,E,107.9,160.9,010126,,*30
$GNGGA,000007.00,3347.9533,S,15052.5824,E,4,18,0.6,30.0,M,46.9,M,,*5D
$GNRMC,000007.00,A,3347.9533,S,15052.5824,E,107.9,163.2,010126,,*3D
$GNGGA,000007.10,3347.9524,S,15052.5789,E,4,18,0.6,30.0,M,46.9,M,,*52
$GNRMC,000007.10,A,3347.9524,S,15052.5789,E,107.9,163.2,010126,,*32
$GNGGA,000007.20,3347.9516,S,15052.5755,E,4,18,0.6,30.0,M,46.9,M,,*51
$GNRMC,000007.20,A,3347.9516,S,15052.5755,E,107.9,163.2,010126,,*31
$GNGGA,000007.30,3347.9507,S,15052.5720,E,4,18,0.6,30.0,M,46.9,M,,*52
$GNRMC,000007.30,A,3347.9507,S,15052.5720,E,107.9,163.2,010126,,*32
$GNGGA,000007.40,3347.9499,S,15052.5686,E,4,18,0.6,30.0,M,46.9,M,,*5E
$GNRMC,000007.40,A,3347.9499,S,15052.5686,E,107.9,163.2,010126,,*3E
$GNGGA,000007.50,3347.9490,S,15052.5651,E,4,18,0.6,30.0,M,46.9,M,,*5C
$GNRMC,000007.50,A,3347.9490,S,15052.5651,E,107.9,163.2,010126,,*3C
$GNGGA,000007.60,3347.9481,S,15052.5617,E,4,18,0.6,30.0,M,46.9,M,,*5D
$GNRMC,000007.60,A,3347.9481,S,15052.5617,E,107.9,163.2,010126,,*3D
$GNGGA,000007.70,3347.9473,S,15052.5582,E,4,18,0.6,30.0,M,46.9,M,,*5E
$GNRMC,000007.70,A,3347.9473,S,15052.5582,E,107.9,163.2,010126,,*3E
$GNGGA,000007.80,3347.9464,S,15052.5548,E,4,18,0.6,30.0,M,46.9,M,,*51
$GNRMC,000007.80,A,3347.9464,S,15052.5548,E,107.9,165.3,010126,,*36
$GNGGA,000007.90,3347.9457,S,15052.5513,E,4,18,0.6,30.0,M,46.9,M,,*5E
$GNRMC,000007.90,A,3347.9457,S,15052.5513,E,107.9,165.3,010126,,*39
$GNGGA,000008.00,3347.9449,S,15052.5478,E,4,18,0.6,30.0,M,46.9,M,,*5B
$GNRMC,000008.00,A,3347.9449,S,15052.5478,E,107.9,165.3,010126,,*3C
$GNGGA,000008.10,3347.9442,S,15052.5443,E,4,18,0.6,30.0,M,46.9,M,,*59
$GNRMC,000008.10,A,3347.9442,S,15052.5443,E,107.9,165.3,010126,,*3E
$GNGGA,000008.20,3347.9434,S,15052.5408,E,4,18,0.6,30.0,M,46.9,M,,*54
$GNRMC,000008.20,A,3347.9434,S,15052.5408,E,107.8,165.3,010126,,*32
$GNGGA,000008.30,3347.9426,S,15052.5373,E,4,18,0.6,30.0,M,46.9,M,,*5D
$GNRMC,000008.30,A,3347.9426,S,15052.5373,E,107.8,165.3,010126,,*3B
$GNGGA,000008.40,3347.9419,S,15052.5338,E,4,18,0.6,30.0,M,46.9,M,,*59
$GNRMC,000008.40,A,3347.9419,S,15052.5338,E,107.8,165.3,010126,,*3F
$GNGGA,000008.50,3347.9411,S,15052.5304,E,4,18,0.6,30.0,M,46.9,M,,*5F
$GNRMC,000008.50,A,3347.9411,S,15052.5304,E,107.8,165.3,010126,,*39
$GNGGA,000008.60,3347.9404,S,15052.5269,E,4,18,0.6,30.0,M,46.9,M,,*52
$GNRMC,000008.60,A,3347.9404,S,15052.5269,E,107.8,165.3,010126,,*34
$GNGGA,000008.70,3347.9397,S,15052.5234,E,4,18,0.6,30.0,M,46.9,M,,*56
$GNRMC,000008.70,A,3347.9397,S,15052.5234,E,107.8,167.3,010126,,*32
$GNGGA,000008.80,3347.9390,S,15052.5199,E,4,18,0.6,30.0,M,46.9,M,,*5A
$GNRMC,000008.80,A,3347.9390,S,15052.5199,E,107.7,167.3,010126,,*31
$GNGGA,000008.90,3347.9384,S,15052.5163,E,4,18,0.6,30.0,M,46.9,M,,*5B
$GNRMC,000008.90,A,3347.9384,S,15052.5163,E,107.7,167.3,010126,,*30
$GNGGA,000009.00,3347.9377,S,15052.5128,E,4,18,0.6,30.0,M,46.9,M,,*50
$GNRMC,000009.00,A,3347.9377,S,15052.5128,E,107.7,167.3,010126,,*3B
$GNGGA,000009.10,3347.9371,S,15052.5093,E,4,18,0.6,30.0,M,46.9,M,,*56
$GNRMC,000009.10,A,3347.9371,S,15052.5093,E,107.7,167.3,010126,,*3D
$GNGGA,000009.20,3347.9364,S,15052.5058,E,4,18,0.6,30.0,M,46.9,M,,*56
$GNRMC,000009.20,A,3347.9364,S,15052.5058,E,107.7,167.3,010126,,*3D
$GNGGA,000009.30,3347.9357,S,15052.5023,E,4,18,0.6,30.0,M,46.9,M,,*5B
$GNRMC,000009.30,A,3347.9357,S,15052.5023,E,107.6,167.3,010126,,*31
$GNGGA,000009.40,3347.9351,S,15052.4988,E,4,18,0.6,30.0,M,46.9,M,,*53
$GNRMC,000009.40,A,3347.9351,S,15052.4988,E,107.6,167.3,010126,,*39
$GNGGA,000009.50,3347.9344,S,15052.4953,E,4,18,0.6,30.0,M,46.9,M,,*50
$GNRMC,000009.50,A,3347.9344,S,15052.4953,E,107.6,167.3,010126,,*3A
$GNGGA,000009.60,3347.9339,S,15052.4918,E,4,18,0.6,30.0,M,46.9,M,,*56
$GNRMC,000009.60,A,3347.9339,S,15052.4918,E,107.5,169.2,010126,,*30
$GNGGA,000009.70,3347.9333,S,15052.4882,E,4,18,0.6,30.0,M,46.9,M,,*5F
$GNRMC,000009.70,A,3347.9333,S,15052.4882,E,107.5,169.2,010126,,*39
$GNGGA,000009.80,3347.9327,S,15052.4847,E,4,18,0.6,30.0,M,46.9,M,,*5C
$GNRMC,000009.80,A,3347.9327,S,15052.4847,E,107.5,169.2,010126,,*3A
$GNGGA,000009.90,3347.9322,S,15052.4812,E,4,18,0.6,30.0,M,46.9,M,,*58
$GNRMC,000009.90,A,3347.9322,S,15052.4812,E,107.4,169.2,010126,,*3F
$GNGGA,000010.00,3347.9316,S,15052.4777,E,4,18,0.6,30.0,M,46.9,M,,*52
$GNRMC,000010.00,A,3347.9316,S,15052.4777,E,107.4,169.2,010126,,*35
$GNGGA,000010.10,3347.9311,S,15052.4741,E,4,18,0.6,30.0,M,46.9,M,,*51
$GNRMC,000010.10,A,3347.9311,S,15052.4741,E,107.4,169.2,010126,,*36
$GNGGA,000010.20,3347.9305,S,15052.4706,E,4,18,0.6,30.0,M,46.9,M,,*54
$GNRMC,000010.20,A,3347.9305,S,15052.4706,E,107.3,169.2,010126,,*34
$GNGGA,000010.30,3347.9299,S,15052.4671,E,4,18,0.6,30.0,M,46.9,M,,*50
$GNRMC,000010.30,A,3347.9299,S,15052.4671,E,107.3,169.2,010126,,*30
$GNGGA,000010.40,3347.9294,S,15052.4636,E,4,18,0.6,30.0,M,46.9,M,,*59
$GNRMC,000010.40,A,3347.9294,S,15052.4636,E,107.2,169.2,010126,,*38
$GNGGA,000010.50,3347.9289,S,15052.4600,E,4,18,0.6,30.0,M,46.9,M,,*51
$GNRMC,000010.50,A,3347.9289,S,15052.4600,E,107.2,171.0,010126,,*3B
$GNGGA,000010.60,3347.9284,S,15052.4565,E,4,18,0.6,30.0,M,46.9,M,,*5F
$GNRMC,000010.60,A,3347.9284,S,15052.4565,E,107.1,171.0,010126,,*36
$GNGGA,000010.70,3347.9280,S,15052.4530,E,4,18,0.6,30.0,M,46.9,M,,*5A
$GNRMC,000010.70,A,3347.9280,S,15052.4530,E,107.1,171.0,010126,,*33
$GNGGA,000010.80,3347.9275,S,15052.4494,E,4,18,0.6,30.0,M,46.9,M,,*50
$GNRMC,000010.80,A,3347.9275,S,15052.4494,E,107.0,171.0,010126,,*38
$GNGGA,000010.90,3347.9270,S,15052.4459,E,4,18,0.6,30.0,M,46.9,M,,*55
$GNRMC,000010.90,A,3347.9270,S,15052.4459,E,107.0,171.0,010126,,*3D
$GNGGA,000011.00,3347.9266,S,15052.4424,E,4,18,0.6,30.0,M,46.9,M,,*50
$GNRMC,000011.00,A,3347.9266,S,15052.4424,E,106.9,171.0,010126,,*30
$GNGGA,000011.10,3347.9261,S,15052.4389,E,4,18,0.6,30.0,M,46.9,M,,*56
$GNRMC,000011.10,A,3347.9261,S,15052.4389,E,106.9,171.0,010126,,*36
$GNGGA,000011.20,3347.9256,S,15052.4353,E,4,18,0.6,30.0,M,46.9,M,,*56
$GNRMC,000011.20,A,3347.9256,S,15052.4353,E,106.8,171.0,010126,,*37
$GNGGA,000011.30,3347.9252,S,15052.4318,E,4,18,0.6,30.0,M,46.9,M,,*5C
$GNRMC,000011.30,A,3347.9252,S,15052.4318,E,106.8,171.0,010126,,*3D
$GNGGA,000011.40,3347.9247,S,15052.4283,E,4,18,0.6,30.0,M,46.9,M,,*5C
$GNRMC,000011.40,A,3347.9247,S,15052.4283,E,106.7,172.7,010126,,*36
$GNGGA,000011.50,3347.9243,S,15052.4247,E,4,18,0.6,30.0,M,46.9,M,,*51
$GNRMC,000011.50,A,3347.9243,S,15052.4247,E,106.7,172.7,010126,,*3B
$GNGGA,000011.60,3347.9240,S,15052.4212,E,4,18,0.6,30.0,M,46.9,M,,*51
$GNRMC,000011.60,A,3347.9240,S,15052.4212,E,106.6,172.7,010126,,*3A
$GNGGA,000011.70,3347.9236,S,15052.4177,E,4,18,0.6,30.0,M,46.9,M,,*51
$GNRMC,000011.70,A,3347.9236,S,15052.4177,E,106.6,172.7,010126,,*3A
$GNGGA,000011.80,3347.9232,S,15052.4141,E,4,18,0.6,30.0,M,46.9,M,,*5F
$GNRMC,000011.80,A,3347.9232,S,15052.4141,E,106.5,172.7,010126,,*37
$GNGGA,000011.90,3347.9228,S,15052.4106,E,4,18,0.6,30.0,M,46.9,M,,*56
$GNRMC,000011.90,A,3347.9228,S,15052.4106,E,106.4,172.7,010126,,*3F
$GNGGA,000012.00,3347.9225,S,15052.4071,E,4,18,0.6,30.0,M,46.9,M,,*50
$GNRMC,000012.00,A,3347.9225,S,15052.4071,E,106.4,172.7,010126,,*39
$GNGGA,000012.10,3347.9221,S,15052.4036,E,4,18,0.6,30.0,M,46.9,M,,*56
$GNRMC,000012.10,A,3347.9221,S,15052.4036,E,106.3,172.7,010126,,*38
$GNGGA,000012.20,3347.9217,S,15052.4000,E,4,18,0.6,30.0,M,46.9,M,,*55
$GNRMC,000012.20,A,3347.9217,S,15052.4000,E,106.3,172.7,010126,,*3B
$GNGGA,000012.30,3347.9213,S,15052.3965,E,4,18,0.6,30.0,M,46.9,M,,*5D
$GNRMC,000012.30,A,3347.9213,S,15052.3965,E,106.2,172.7,010126,,*32
$GNGGA,000012.40,3347.9210,S,15052.3930,E,4,18,0.6,30.0,M,46.9,M,,*59
$GNRMC,000012.40,A,3347.9210,S,15052.3930,E,106.1,174.4,010126,,*30
$GNGGA,000012.50,3347.9207,S,15052.3895,E,4,18,0.6,30.0,M,46.9,M,,*50
$GNRMC,000012.50,A,3347.9207,S,15052.3895,E,106.1,174.4,010126,,*39
$GNGGA,000012.60,3347.9204,S,15052.3859,E,4,18,0.6,30.0,M,46.9,M,,*50
$GNRMC,000012.60,A,3347.9204,S,15052.3859,E,106.0,174.4,010126,,*38
$GNGGA,000012.70,3347.9202,S,15052.3824,E,4,18,0.6,30.0,M,46.9,M,,*5D
$GNRMC,000012.70,A,3347.9202,S,15052.3824,E,105.9,174.4,010126,,*3F
$GNGGA,000012.80,3347.9199,S,15052.3789,E,4,18,0.6,30.0,M,46.9,M,,*5B
$GNRMC,000012.80,A,3347.9199,S,15052.3789,E,105.9,174.4,010126,,*39
$GNGGA,000012.90,3347.9196,S,15052.3754,E,4,18,0.6,30.0,M,46.9,M,,*55
$GNRMC,000012.90,A,3347.9196,S,15052.3754,E,105.8,174.4,010126,,*36
$GNGGA,000013.00,3347.9193,S,15052.3719,E,4,18,0.6,30.0,M,46.9,M,,*51
$GNRMC,000013.00,A,3347.9193,S,15052.3719,E,105.7,174.4,010126,,*3D
$GNGGA,000013.10,3347.9190,S,15052.3683,E,4,18,0.6,30.0,M,46.9,M,,*51
$GNRMC,000013.10,A,3347.9190,S,15052.3683,E,105.6,174.4,010126,,*3C
$GNGGA,000013.20,3347.9187,S,15052.3648,E,4,18,0.6,30.0,M,46.9,M,,*53
$GNRMC,000013.20,A,3347.9187,S,15052.3648,E,105.6,174.4,010126,,*3E
$GNGGA,000013.30,3347.9184,S,15052.3613,E,4,18,0.6,30.0,M,46.9,M,,*5F
$GNRMC,000013.30,A,3347.9184,S,15052.3613,E,105.5,174.4,010126,,*31
$GNGGA,000013.40,3347.9182,S,15052.3578,E,4,18,0.6,30.0,M,46.9,M,,*50
$GNRMC,000013.40,A,3347.9182,S,15052.3578,E,105.4,176.0,010126,,*39
$GNGGA,000013.50,3347.9180,S,15052.3543,E,4,18,0.6,30.0,M,46.9,M,,*5B
$GNRMC,000013.50,A,3347.9180,S,15052.3543,E,105.3,176.0,010126,,*35
$GNGGA,000013.60,3347.9178,S,15052.3508,E,4,18,0.6,30.0,M,46.9,M,,*50
$GNRMC,000013.60,A,3347.9178,S,15052.3508,E,105.3,176.0,010126,,*3E
$GNGGA,000013.70,3347.9176,S,15052.3473,E,4,18,0.6,30.0,M,46.9,M,,*52
$GNRMC,000013.70,A,3347.9176,S,15052.3473,E,105.2,176.0,010126,,*3D
$GNGGA,000013.80,3347.9174,S,15052.3438,E,4,18,0.6,30.0,M,46.9,M,,*50
$GNRMC,000013.80,A,3347.9174,S,15052.3438,E,105.1,176.0,010126,,*3C
$GNGGA,000013.90,3347.9172,S,15052.3403,E,4,18,0.6,30.0,M,46.9,M,,*5F
$GNRMC,000013.90,A,3347.9172,S,15052.3403,E,105.0,176.0,010126,,*32
$GNGGA,000014.00,3347.9170,S,15052.3368,E,4,18,0.6,30.0,M,46.9,M,,*59
$GNRMC,000014.00,A,3347.9170,S,15052.3368,E,105.0,176.0,010126,,*34
$GNGGA,000014.10,3347.9168,S,15052.3333,E,4,18,0.6,30.0,M,46.9,M,,*5F
$GNRMC,000014.10,A,3347.9168,S,15052.3333,E,104.9,176.0,010126,,*3A
$GNGGA,000014.20,3347.9166,S,15052.3298,E,4,18,0.6,30.0,M,46.9,M,,*52
$GNRMC,000014.20,A,3347.9166,S,15052.3298,E,104.8,176.0,010126,,*36
$GNGGA,000014.30,3347.9164,S,15052.3263,E,4,18,0.6,30.0,M,46.9,M,,*55
$GNRMC,000014.30,A,3347.9164,S,15052.3263,E,104.7,176.0,010126,,*3E
$GNGGA,000014.40,3347.9162,S,15052.3228,E,4,18,0.6,30.0,M,46.9,M,,*5B
$GNRMC,000014.40,A,3347.9162,S,15052.3228,E,104.7,177.6,010126,,*37
$GNGGA,000014.50,3347.9161,S,15052.3193,E,4,18,0.6,30.0,M,46.9,M,,*5A
$GNRMC,000014.50,A,3347.9161,S,15052.3193,E,104.6,177.6,010126,,*37
$GNGGA,000014.60,3347.9160,S,15052.3158,E,4,18,0.6,30.0,M,46.9,M,,*5F
$GNRMC,000014.60,A,3347.9160,S,15052.3158,E,104.5,177.6,010126,,*31
$GNGGA,000014.70,3347.9159,S,15052.3123,E,4,18,0.6,30.0,M,46.9,M,,*58
$GNRMC,000014.70,A,3347.9159,S,15052.3123,E,104.4,177.6,010126,,*37
$GNGGA,000014.80,3347.9157,S,15052.3088,E,4,18,0.6,30.0,M,46.9,M,,*59
$GNRMC,000014.80,A,3347.9157,S,15052.3088,E,104.3,177.6,010126,,*31
$GNGGA,000014.90,3347.9156,S,15052.3053,E,4,18,0.6,30.0,M,46.9,M,,*5F
$GNRMC,000014.90,A,3347.9156,S,15052.3053,E,104.3,177.6,010126,,*37
$GNGGA,000015.00,3347.9155,S,15052.3019,E,4,18,0.6,30.0,M,46.9,M,,*5A
$GNRMC,000015.00,A,3347.9155,S,15052.3019,E,104.2,177.6,010126,,*33
$GNGGA,000015.10,3347.9154,S,15052.2984,E,4,18,0.6,30.0,M,46.9,M,,*56
$GNRMC,000015.10,A,3347.9154,S,15052.2984,E,104.1,177.6,010126,,*3C
$GNGGA,000015.20,3347.9153,S,15052.2949,E,4,18,0.6,30.0,M,46.9,M,,*53
$GNRMC,000015.20,A,3347.9153,S,15052.2949,E,104.0,177.6,010126,,*38
$GNGGA,000015.30,3347.9151,S,15052.2914,E,4,18,0.6,30.0,M,46.9,M,,*58
$GNRMC,000015.30,A,3347.9151,S,15052.2914,E,103.9,177.6,010126,,*3D
$GNGGA,000015.40,3347.9151,S,15052.2880,E,4,18,0.6,30.0,M,46.9,M,,*53
$GNRMC,000015.40,A,3347.9151,S,15052.2880,E,103.8,179.2,010126,,*3D
$GNGGA,000015.50,3347.9150,S,15052.2845,E,4,18,0.6,30.0,M,46.9,M,,*5A
$GNRMC,000015.50,A,3347.9150,S,15052.2845,E,103.8,179.2,010126,,*34
$GNGGA,000015.60,3347.9150,S,15052.2810,E,4,18,0.6,30.0,M,46.9,M,,*59
$GNRMC,000015.60,A,3347.9150,S,15052.2810,E,103.7,179.2,010126,,*38
$GNGGA,000015.70,3347.9149,S,15052.2776,E,4,18,0.6,30.0,M,46.9,M,,*5F
$GNRMC,000015.70,A,3347.9149,S,15052.2776,E,103.6,179.2,010126,,*3F
$GNGGA,000015.80,3347.9149,S,15052.2741,E,4,18,0.6,30.0,M,46.9,M,,*54
$GNRMC,000015.80,A,3347.9149,S,15052.2741,E,103.5,179.2,010126,,*37
$GNGGA,000015.90,3347.9149,S,15052.2707,E,4,18,0.6,30.0,M,46.9,M,,*57
$GNRMC,000015.90,A,3347.9149,S,15052.2707,E,103.4,179.2,010126,,*35
$GNGGA,000016.00,3347.9148,S,15052.2672,E,4,18,0.6,30.0,M,46.9,M,,*5F
$GNRMC,000016.00,A,3347.9148,S,15052.2672,E,103.3,179.2,010126,,*3A
$GNGGA,000016.10,3347.9148,S,15052.2638,E,4,18,0.6,30.0,M,46.9,M,,*50
$GNRMC,000016.10,A,3347.9148,S,15052.2638,E,103.3,179.2,010126,,*35
$GNGGA,000016.20,3347.9147,S,15052.2603,E,4,18,0.6,30.0,M,46.9,M,,*54
$GNRMC,000016.20,A,3347.9147,S,15052.2603,E,103.2,179.2,010126,,*30
$GNGGA,000016.30,3347.9147,S,15052.2569,E,4,18,0.6,30.0,M,46.9,M,,*5A
$GNRMC,000016.30,A,3347.9147,S,15052.2569,E,103.1,179.2,010126,,*3D
$GNGGA,000016.40,3347.9147,S,15052.2534,E,4,18,0.6,30.0,M,46.9,M,,*55
$GNRMC,000016.40,A,3347.9147,S,15052.2534,E,103.0,180.8,010126,,*3F
$GNGGA,000016.50,3347.9147,S,15052.2500,E,4,18,0.6,30.0,M,46.9,M,,*53
$GNRMC,000016.50,A,3347.9147,S,15052.2500,E,102.9,180.8,010126,,*31
$GNGGA,000016.60,3347.9148,S,15052.2465,E,4,18,0.6,30.0,M,46.9,M,,*5D
$GNRMC,000016.60,A,3347.9148,S,15052.2465,E,102.8,180.8,010126,,*3E
$GNGGA,000016.70,3347.9148,S,15052.2431,E,4,18,0.6,30.0,M,46.9,M,,*5D
$GNRMC,000016.70,A,3347.9148,S,15052.2431,E,102.8,180.8,010126,,*3E
$GNGGA,000016.80,3347.9148,S,15052.2397,E,4,18,0.6,30.0,M,46.9,M,,*59
$GNRMC,000016.80,A,3347.9148,S,15052.2397,E,102.7,180.8,010126,,*35
$GNGGA,000016.90,3347.9149,S,15052.2362,E,4,18,0.6,30.0,M,46.9,M,,*53
$GNRMC,000016.90,A,3347.9149,S,15052.2362,E,102.6,180.8,010126,,*3E
$GNGGA,000017.00,3347.9149,S,15052.2328,E,4,18,0.6,30.0,M,46.9,M,,*55
$GNRMC,000017.00,A,3347.9149,S,15052.2328,E,102.5,180.8,010126,,*3B
$GNGGA,000017.10,3347.9150,S,15052.2294,E,4,18,0.6,30.0,M,46.9,M,,*5A
$GNRMC,000017.10,A,3347.9150,S,15052.2294,E,102.4,180.8,010126,,*35
$GNGGA,000017.20,3347.9150,S,15052.2260,E,4,18,0.6,30.0,M,46.9,M,,*52
$GNRMC,000017.20,A,3347.9150,S,15052.2260,E,102.3,180.8,010126,,*3A
$GNGGA,000017.30,3347.9150,S,15052.2225,E,4,18,0.6,30.0,M,46.9,M,,*52
$GNRMC,000017.30,A,3347.9150,S,15052.2225,E,102.3,180.8,010126,,*3A
$GNGGA,000017.40,3347.9151,S,15052.2191,E,4,18,0.6,30.0,M,46.9,M,,*58
$GNRMC,000017.40,A,3347.9151,S,15052.2191,E,102.2,180.8,010126,,*31
$GNGGA,000017.50,3347.9152,S,15052.2157,E,4,18,0.6,30.0,M,46.9,M,,*50
$GNRMC,000017.50,A,3347.9152,S,15052.2157,E,102.1,182.4,010126,,*34
$GNGGA,000017.60,3347.9153,S,15052.2123,E,4,18,0.6,30.0,M,46.9,M,,*51
$GNRMC,000017.60,A,3347.9153,S,15052.2123,E,102.0,182.4,010126,,*34
$GNGGA,000017.70,3347.9154,S,15052.2089,E,4,18,0.6,30.0,M,46.9,M,,*56
$GNRMC,000017.70,A,3347.9154,S,15052.2089,E,101.9,182.4,010126,,*39
$GNGGA,000017.80,3347.9155,S,15052.2055,E,4,18,0.6,30.0,M,46.9,M,,*59
$GNRMC,000017.80,A,3347.9155,S,15052.2055,E,101.9,182.4,010126,,*36
$GNGGA,000017.90,3347.9156,S,15052.2021,E,4,18,0.6,30.0,M,46.9,M,,*58
$GNRMC,000017.90,A,3347.9156,S,15052.2021,E,101.8,182.4,010126,,*36
$GNGGA,000018.00,3347.9158,S,15052.1987,E,4,18,0.6,30.0,M,46.9,M,,*56
$GNRMC,000018.00,A,3347.9158,S,15052.1987,E,101.7,182.4,010126,,*37
$GNGGA,000018.10,3347.9159,S,15052.1953,E,4,18,0.6,30.0,M,46.9,M,,*5F
$GNRMC,000018.10,A,3347.9159,S,15052.1953,E,101.6,182.4,010126,,*3F
$GNGGA,000018.20,3347.9160,S,15052.1919,E,4,18,0.6,30.0,M,46.9,M,,*58
$GNRMC,000018.20,A,3347.9160,S,15052.1919,E,101.5,182.4,010126,,*3B
$GNGGA,000018.30,3347.9161,S,15052.1885,E,4,18,0.6,30.0,M,46.9,M,,*5C
$GNRMC,000018.30,A,3347.9161,S,15052.1885,E,101.5,182.4,010126,,*3F
$GNGGA,000018.40,3347.9162,S,15052.1851,E,4,18,0.6,30.0,M,46.9,M,,*51
$GNRMC,000018.40,A,3347.9162,S,15052.1851,E,101.4,182.4,010126,,*33
$GNGGA,000018.50,3347.9164,S,15052.1818,E,4,18,0.6,30.0,M,46.9,M,,*5B
$GNRMC,000018.50,A,3347.9164,S,15052.1818,E,101.3,184.0,010126,,*3C
$GNGGA,000018.60,3347.9166,S,15052.1784,E,4,18,0.6,30.0,M,46.9,M,,*50
$GNRMC,000018.60,A,3347.9166,S,15052.1784,E,101.2,184.0,010126,,*36
$GNGGA,000018.70,3347.9168,S,15052.1750,E,4,18,0.6,30.0,M,46.9,M,,*56
$GNRMC,000018.70,A,3347.9168,S,15052.1750,E,101.2,184.0,010126,,*30
$GNGGA,000018.80,3347.9170,S,15052.1716,E,4,18,0.6,30.0,M,46.9,M,,*52
$GNRMC,000018.80,A,3347.9170,S,15052.1716,E,101.1,184.0,010126,,*37
$GNGGA,000018.90,3347.9172,S,15052.1683,E,4,18,0.6,30.0,M,46.9,M,,*5C
$GNRMC,000018.90,A,3347.9172,S,15052.1683,E,101.0,184.0,010126,,*38
$GNGGA,000019.00,3347.9173,S,15052.1649,E,4,18,0.6,30.0,M,46.9,M,,*53
$GNRMC,000019.00,A,3347.9173,S,15052.1649,E,100.9,184.0,010126,,*3F
$GNGGA,000019.10,3347.9175,S,15052.1615,E,4,18,0.6,30.0,M,46.9,M,,*5D
$GNRMC,000019.10,A,3347.9175,S,15052.1615,E,100.9,184.0,010126,,*31
$GNGGA,000019.20,3347.9177,S,15052.1582,E,4,18,0.6,30.0,M,46.9,M,,*51
$GNRMC,000019.20,A,3347.9177,S,15052.1582,E,100.8,184.0,010126,,*3C
$GNGGA,000019.30,3347.9179,S,15052.1548,E,4,18,0.6,30.0,M,46.9,M,,*58
$GNRMC,000019.30,A,3347.9179,S,15052.1548,E,100.7,184.0,010126,,*3A
$GNGGA,000019.40,3347.9181,S,15052.1515,E,4,18,0.6,30.0,M,46.9,M,,*50
$GNRMC,000019.40,A,3347.9181,S,15052.1515,E,100.7,184.0,010126,,*32
$GNGGA,000019.50,3347.9183,S,15052.1481,E,4,18,0.6,30.0,M,46.9,M,,*5F
$GNRMC,000019.50,A,3347.9183,S,15052.1481,E,100.6,184.0,010126,,*3C
$GNGGA,000019.60,3347.9186,S,15052.1448,E,4,18,0.6,30.0,M,46.9,M,,*5C
$GNRMC,000019.60,A,3347.9186,S,15052.1448,E,100.5,185.6,010126,,*3B
$GNGGA,000019.70,3347.9189,S,15052.1414,E,4,18,0.6,30.0,M,46.9,M,,*5B
$GNRMC,000019.70,A,3347.9189,S,15052.1414,E,100.4,185.6,010126,,*3D
$GNGGA,000019.80,3347.9191,S,15052.1381,E,4,18,0.6,30.0,M,46.9,M,,*56
$GNRMC,000019.80,A,3347.9191,S,15052.1381,E,100.4,185.6,010126,,*30
$GNGGA,000019.90,3347.9194,S,15052.1347,E,4,18,0.6,30.0,M,46.9,M,,*58
$GNRMC,000019.90,A,3347.9194,S,15052.1347,E,100.3,185.6,010126,,*39
$GNGGA,000020.00,3347.9197,S,15052.1314,E,4,18,0.6,30.0,M,46.9,M,,*5E
$GNRMC,000020.00,A,3347.9197,S,15052.1314,E,100.2,185.6,010126,,*3E
$GNGGA,000020.10,3347.9199,S,15052.1281,E,4,18,0.6,30.0,M,46.9,M,,*5C
$GNRMC,000020.10,A,3347.9199,S,15052.1281,E,100.2,185.6,010126,,*3C
$GNGGA,000020.20,3347.9202,S,15052.1248,E,4,18,0.6,30.0,M,46.9,M,,*5B
$GNRMC,000020.20,A,3347.9202,S,15052.1248,E,100.1,185.6,010126,,*38
$GNGGA,000020.30,3347.9205,S,15052.1214,E,4,18,0.6,30.0,M,46.9,M,,*54
$GNRMC,000020.30,A,3347.9205,S,15052.1214,E,100.0,185.6,010126,,*36
$GNGGA,000020.40,3347.9208,S,15052.1181,E,4,18,0.6,30.0,M,46.9,M,,*51
$GNRMC,000020.40,A,3347.9208,S,15052.1181,E,100.0,185.6,010126,,*33
$GNGGA,000020.50,3347.9210,S,15052.1148,E,4,18,0.6,30.0,M,46.9,M,,*5C
$GNRMC,000020.50,A,3347.9210,S,15052.1148,E,099.9,185.6,010126,,*36
$GNGGA,000020.60,3347.9213,S,15052.1115,E,4,18,0.6,30.0,M,46.9,M,,*54
$GNRMC,000020.60,A,3347.9213,S,15052.1115,E,099.9,187.3,010126,,*39
$GNGGA,000020.70,3347.9217,S,15052.1081,E,4,18,0.6,30.0,M,46.9,M,,*5D
$GNRMC,000020.70,A,3347.9217,S,15052.1081,E,099.8,187.3,010126,,*31
$GNGGA,000020.80,3347.9220,S,15052.1048,E,4,18,0.6,30.0,M,46.9,M,,*53
$GNRMC,000020.80,A,3347.9220,S,15052.1048,E,099.7,187.3,010126,,*30
$GNGGA,000020.90,3347.9224,S,15052.1015,E,4,18,0.6,30.0,M,46.9,M,,*5E
$GNRMC,000020.90,A,3347.9224,S,15052.1015,E,099.7,187.3,010126,,*3D
$GNGGA,000021.00,3347.9228,S,15052.0982,E,4,18,0.6,30.0,M,46.9,M,,*5C
$GNRMC,000021.00,A,3347.9228,S,15052.0982,E,099.6,187.3,010126,,*3E
$GNGGA,000021.10,3347.9231,S,15052.0949,E,4,18,0.6,30.0,M,46.9,M,,*52
$GNRMC,000021.10,A,3347.9231,S,15052.0949,E,099.6,187.3,010126,,*30
$GNGGA,000021.20,3347.9235,S,15052.0916,E,4,18,0.6,30.0,M,46.9,M,,*5F
$GNRMC,000021.20,A,3347.9235,S,15052.0916,E,099.5,187.3,010126,,*3E
$GNGGA,000021.30,3347.9238,S,15052.0883,E,4,18,0.6,30.0,M,46.9,M,,*5E
$GNRMC,000021.30,A,3347.9238,S,15052.0883,E,099.5,187.3,010126,,*3F
$GNGGA,000021.40,3347.9242,S,15052.0850,E,4,18,0.6,30.0,M,46.9,M,,*5A
$GNRMC,000021.40,A,3347.9242,S,15052.0850,E,099.4,187.3,010126,,*3A
$GNGGA,000021.50,3347.9245,S,15052.0817,E,4,18,0.6,30.0,M,46.9,M,,*5F
$GNRMC,000021.50,A,3347.9245,S,15052.0817,E,099.3,187.3,010126,,*38
$GNGGA,000021.60,3347.9249,S,15052.0785,E,4,18,0.6,30.0,M,46.9,M,,*54
$GNRMC,000021.60,A,3347.9249,S,15052.0785,E,099.3,189.0,010126,,*3E
$GNGGA,000021.70,3347.9253,S,15052.0752,E,4,18,0.6,30.0,M,46.9,M,,*54
$GNRMC,000021.70,A,3347.9253,S,15052.0752,E,099.2,189.0,010126,,*3F
$GNGGA,000021.80,3347.9257,S,15052.0719,E,4,18,0.6,30.0,M,46.9,M,,*50
$GNRMC,000021.80,A,3347.9257,S,15052.0719,E,099.2,189.0,010126,,*3B
$GNGGA,000021.90,3347.9262,S,15052.0686,E,4,18,0.6,30.0,M,46.9,M,,*50
$GNRMC,000021.90,A,3347.9262,S,15052.0686,E,099.1,189.0,010126,,*38
$GNGGA,000022.00,3347.9266,S,15052.0654,E,4,18,0.6,30.0,M,46.9,M,,*51
$GNRMC,000022.00,A,3347.9266,S,15052.0654,E,099.1,189.0,010126,,*39
$GNGGA,000022.10,3347.9270,S,15052.0621,E,4,18,0.6,30.0,M,46.9,M,,*55
$GNRMC,000022.10,A,3347.9270,S,15052.0621,E,099.1,189.0,010126,,*3D
$GNGGA,000022.20,3347.9275,S,15052.0588,E,4,18,0.6,30.0,M,46.9,M,,*53
$GNRMC,000022.20,A,3347.9275,S,15052.0588,E,099.0,189.0,010126,,*3A
$GNGGA,000022.30,3347.9279,S,15052.0556,E,4,18,0.6,30.0,M,46.9,M,,*5D
$GNRMC,000022.30,A,3347.9279,S,15052.0556,E,099.0,189.0,010126,,*34
$GNGGA,000022.40,3347.9283,S,15052.0523,E,4,18,0.6,30.0,M,46.9,M,,*5D
$GNRMC,000022.40,A,3347.9283,S,15052.0523,E,098.9,189.0,010126,,*3C
$GNGGA,000022.50,3347.9287,S,15052.0490,E,4,18,0.6,30.0,M,46.9,M,,*51
$GNRMC,000022.50,A,3347.9287,S,15052.0490,E,098.9,189.0,010126,,*30
$GNGGA,000022.60,3347.9292,S,15052.0458,E,4,18,0.6,30.0,M,46.9,M,,*52
$GNRMC,000022.60,A,3347.9292,S,15052.0458,E,098.8,190.8,010126,,*32
$GNGGA,000022.70,3347.9297,S,15052.0425,E,4,18,0.6,30.0,M,46.9,M,,*5C
$GNRMC,000022.70,A,3347.9297,S,15052.0425,E,098.8,190.8,010126,,*3C
$GNGGA,000022.80,3347.9302,S,15052.0393,E,4,18,0.6,30.0,M,46.9,M,,*54
$GNRMC,000022.80,A,3347.9302,S,15052.0393,E,098.8,190.8,010126,,*34
$GNGGA,000022.90,3347.9307,S,15052.0360,E,4,18,0.6,30.0,M,46.9,M,,*5C
$GNRMC,000022.90,A,3347.9307,S,15052.0360,E,098.7,190.8,010126,,*33
$GNGGA,000023.00,3347.9312,S,15052.0328,E,4,18,0.6,30.0,M,46.9,M,,*5C
$GNRMC,000023.00,A,3347.9312,S,15052.0328,E,098.7,190.8,010126,,*33
$GNGGA,000023.10,3347.9317,S,15052.0296,E,4,18,0.6,30.0,M,46.9,M,,*5C
$GNRMC,000023.10,A,3347.9317,S,15052.0296,E,098.6,190.8,010126,,*32
$GNGGA,000023.20,3347.9323,S,15052.0263,E,4,18,0.6,30.0,M,46.9,M,,*52
$GNRMC,000023.20,A,3347.9323,S,15052.0263,E,098.6,190.8,010126,,*3C
$GNGGA,000023.30,3347.9328,S,15052.0231,E,4,18,0.6,30.0,M,46.9,M,,*5F
$GNRMC,000023.30,A,3347.9328,S,15052.0231,E,098.6,190.8,010126,,*31
$GNGGA,000023.40,3347.9333,S,15052.0199,E,4,18,0.6,30.0,M,46.9,M,,*53
$GNRMC,000023.40,A,3347.9333,S,15052.0199,E,098.5,190.8,010126,,*3E
$GNGGA,000023.50,3347.9338,S,15052.0166,E,4,18,0.6,30.0,M,46.9,M,,*59
$GNRMC,000023.50,A,3347.9338,S,15052.0166,E,098.5,190.8,010126,,*34
$GNGGA,000023.60,3347.9343,S,15052.0134,E,4,18,0.6,30.0,M,46.9,M,,*51
$GNRMC,000023.60,A,3347.9343,S,15052.0134,E,098.5,192.7,010126,,*31
$GNGGA,000023.70,3347.9349,S,15052.0102,E,4,18,0.6,30.0,M,46.9,M,,*5F
$GNRMC,000023.70,A,3347.9349,S,15052.0102,E,098.5,192.7,010126,,*3F
$GNGGA,000023.80,3347.9355,S,15052.0070,E,4,18,0.6,30.0,M,46.9,M,,*59
$GNRMC,000023.80,A,3347.9355,S,15052.0070,E,098.4,192.7,010126,,*38
$GNGGA,000023.90,3347.9361,S,15052.0038,E,4,18,0.6,30.0,M,46.9,M,,*53
$GNRMC,000023.90,A,3347.9361,S,15052.0038,E,098.4,192.7,010126,,*32
$GNGGA,000024.00,3347.9367,S,15052.0006,E,4,18,0.6,30.0,M,46.9,M,,*56
$GNRMC,000024.00,A,3347.9367,S,15052.0006,E,098.4,192.7,010126,,*37
$GNGGA,000024.10,3347.9373,S,15051.9974,E,4,18,0.6,30.0,M,46.9,M,,*54
$GNRMC,000024.10,A,3347.9373,S,15051.9974,E,098.4,192.7,010126,,*35
$GNGGA,000024.20,3347.9379,S,15051.9941,E,4,18,0.6,30.0,M,46.9,M,,*5B
$GNRMC,000024.20,A,3347.9379,S,15051.9941,E,098.3,192.7,010126,,*3D
$GNGGA,000024.30,3347.9385,S,15051.9909,E,4,18,0.6,30.0,M,46.9,M,,*55
$GNRMC,000024.30,A,3347.9385,S,15051.9909,E,098.3,192.7,010126,,*33
$GNGGA,000024.40,3347.9391,S,15051.9877,E,4,18,0.6,30.0,M,46.9,M,,*5F
$GNRMC,000024.40,A,3347.9391,S,15051.9877,E,098.3,192.7,010126,,*39
$GNGGA,000024.50,3347.9397,S,15051.9845,E,4,18,0.6,30.0,M,46.9,M,,*59
$GNRMC,000024.50,A,3347.9397,S,15051.9845,E,098.3,192.7,010126,,*3F
$GNGGA,000024.60,3347.9403,S,15051.9813,E,4,18,0.6,30.0,M,46.9,M,,*53
$GNRMC,000024.60,A,3347.9403,S,15051.9813,E,098.3,194.7,010126,,*33
$GNGGA,000024.70,3347.9410,S,15051.9782,E,4,18,0.6,30.0,M,46.9,M,,*57
$GNRMC,000024.70,A,3347.9410,S,15051.9782,E,098.3,194.7,010126,,*37
$GNGGA,000024.80,3347.9417,S,15051.9750,E,4,18,0.6,30.0,M,46.9,M,,*50
$GNRMC,000024.80,A,3347.9417,S,15051.9750,E,098.2,194.7,010126,,*31
$GNGGA,000024.90,3347.9424,S,15051.9718,E,4,18,0.6,30.0,M,46.9,M,,*5D
$GNRMC,000024.90,A,3347.9424,S,15051.9718,E,098.2,194.7,010126,,*3C
$GNGGA,000025.00,3347.9431,S,15051.9686,E,4,18,0.6,30.0,M,46.9,M,,*57
$GNRMC,000025.00,A,3347.9431,S,15051.9686,E,098.2,194.7,010126,,*36
$GNGGA,000025.10,3347.9438,S,15051.9655,E,4,18,0.6,30.0,M,46.9,M,,*51
$GNRMC,000025.10,A,3347.9438,S,15051.9655,E,098.2,194.7,010126,,*30
$GNGGA,000025.20,3347.9445,S,15051.9623,E,4,18,0.6,30.0,M,46.9,M,,*59
$GNRMC,000025.20,A,3347.9445,S,15051.9623,E,098.2,194.7,010126,,*38
$GNGGA,000025.30,3347.9452,S,15051.9591,E,4,18,0.6,30.0,M,46.9,M,,*54
$GNRMC,000025.30,A,3347.9452,S,15051.9591,E,098.2,194.7,010126,,*35
$GNGGA,000025.40,3347.9458,S,15051.9559,E,4,18,0.6,30.0,M,46.9,M,,*5D
$GNRMC,000025.40,A,3347.9458,S,15051.9559,E,098.2,194.7,010126,,*3C
$GNGGA,000025.50,3347.9465,S,15051.9528,E,4,18,0.6,30.0,M,46.9,M,,*54
$GNRMC,000025.50,A,3347.9465,S,15051.9528,E,098.2,194.7,010126,,*35
$GNGGA,000025.60,3347.9473,S,15051.9496,E,4,18,0.6,30.0,M,46.9,M,,*54
$GNRMC,000025.60,A,3347.9473,S,15051.9496,E,098.2,196.8,010126,,*38
$GNGGA,000025.70,3347.9481,S,15051.9465,E,4,18,0.6,30.0,M,46.9,M,,*54
$GNRMC,000025.70,A,3347.9481,S,15051.9465,E,098.2,196.8,010126,,*38
$GNGGA,000025.80,3347.9489,S,15051.9433,E,4,18,0.6,30.0,M,46.9,M,,*50
$GNRMC,000025.80,A,3347.9489,S,15051.9433,E,098.2,196.8,010126,,*3C
$GNGGA,000025.90,3347.9497,S,15051.9402,E,4,18,0.6,30.0,M,46.9,M,,*5C
$GNRMC,000025.90,A,3347.9497,S,15051.9402,E,098.2,196.8,010126,,*30
$GNGGA,000026.00,3347.9504,S,15051.9371,E,4,18,0.6,30.0,M,46.9,M,,*5E
$GNRMC,000026.00,A,3347.9504,S,15051.9371,E,098.2,196.8,010126,,*32
$GNGGA,000026.10,3347.9512,S,15051.9339,E,4,18,0.6,30.0,M,46.9,M,,*54
$GNRMC,000026.10,A,3347.9512,S,15051.9339,E,098.2,196.8,010126,,*38
$GNGGA,000026.20,3347.9520,S,15051.9308,E,4,18,0.6,30.0,M,46.9,M,,*54
$GNRMC,000026.20,A,3347.9520,S,15051.9308,E,098.2,196.8,010126,,*38
$GNGGA,000026.30,3347.9528,S,15051.9276,E,4,18,0.6,30.0,M,46.9,M,,*55
$GNRMC,000026.30,A,3347.9528,S,15051.9276,E,098.2,196.8,010126,,*39
$GNGGA,000026.40,3347.9536,S,15051.9245,E,4,18,0.6,30.0,M,46.9,M,,*5D
$GNRMC,000026.40,A,3347.9536,S,15051.9245,E,098.2,196.8,010126,,*31
$GNGGA,000026.50,3347.9544,S,15051.9214,E,4,18,0.6,30.0,M,46.9,M,,*5D
$GNRMC,000026.50,A,3347.9544,S,15051.9214,E,098.2,199.1,010126,,*37
$GNGGA,000026.60,3347.9553,S,15051.9183,E,4,18,0.6,30.0,M,46.9,M,,*55
$GNRMC,000026.60,A,3347.9553,S,15051.9183,E,098.2,199.1,010126,,*3F
$GNGGA,000026.70,3347.9562,S,15051.9152,E,4,18,0.6,30.0,M,46.9,M,,*5A
$GNRMC,000026.70,A,3347.9562,S,15051.9152,E,098.2,199.1,010126,,*30
$GNGGA,000026.80,3347.9571,S,15051.9121,E,4,18,0.6,30.0,M,46.9,M,,*53
$GNRMC,000026.80,A,3347.9571,S,15051.9121,E,098.2,199.1,010126,,*39
$GNGGA,000026.90,3347.9580,S,15051.9090,E,4,18,0.6,30.0,M,46.9,M,,*57
$GNRMC,000026.90,A,3347.9580,S,15051.9090,E,098.2,199.1,010126,,*3D
$GNGGA,000027.00,3347.9589,S,15051.9059,E,4,18,0.6,30.0,M,46.9,M,,*53
$GNRMC,000027.00,A,3347.9589,S,15051.9059,E,098.2,199.1,010126,,*39
$GNGGA,000027.10,3347.9598,S,15051.9028,E,4,18,0.6,30.0,M,46.9,M,,*54
$GNRMC,000027.10,A,3347.9598,S,15051.9028,E,098.3,199.1,010126,,*3F
$GNGGA,000027.20,3347.9607,S,15051.8997,E,4,18,0.6,30.0,M,46.9,M,,*5E
$GNRMC,000027.20,A,3347.9607,S,15051.8997,E,098.3,199.1,010126,,*35
$GNGGA,000027.30,3347.9616,S,15051.8966,E,4,18,0.6,30.0,M,46.9,M,,*51
$GNRMC,000027.30,A,3347.9616,S,15051.8966,E,098.3,199.1,010126,,*3A
$GNGGA,000027.40,3347.9625,S,15051.8935,E,4,18,0.6,30.0,M,46.9,M,,*50
$GNRMC,000027.40,A,3347.9625,S,15051.8935,E,098.3,201.5,010126,,*3D
$GNGGA,000027.50,3347.9635,S,15051.8904,E,4,18,0.6,30.0,M,46.9,M,,*52
$GNRMC,000027.50,A,3347.9635,S,15051.8904,E,098.3,201.5,010126,,*3F
$GNGGA,000027.60,3347.9645,S,15051.8874,E,4,18,0.6,30.0,M,46.9,M,,*50
$GNRMC,000027.60,A,3347.9645,S,15051.8874,E,098.4,201.5,010126,,*3A
$GNGGA,000027.70,3347.9655,S,15051.8843,E,4,18,0.6,30.0,M,46.9,M,,*54
$GNRMC,000027.70,A,3347.9655,S,15051.8843,E,098.4,201.5,010126,,*3E
$GNGGA,000027.80,3347.9665,S,15051.8813,E,4,18,0.6,30.0,M,46.9,M,,*5D
$GNRMC,000027.80,A,3347.9665,S,15051.8813,E,098.4,201.5,010126,,*37
$GNGGA,000027.90,3347.9675,S,15051.8782,E,4,18,0.6,30.0,M,46.9,M,,*5A
$GNRMC,000027.90,A,3347.9675,S,15051.8782,E,098.4,201.5,010126,,*30
$GNGGA,000028.00,3347.9685,S,15051.8752,E,4,18,0.6,30.0,M,46.9,M,,*5E
$GNRMC,000028.00,A,3347.9685,S,15051.8752,E,098.5,201.5,010126,,*35
$GNGGA,000028.10,3347.9695,S,15051.8721,E,4,18,0.6,30.0,M,46.9,M,,*5A
$GNRMC,000028.10,A,3347.9695,S,15051.8721,E,098.5,201.5,010126,,*31
$GNGGA,000028.20,3347.9705,S,15051.8690,E,4,18,0.6,30.0,M,46.9,M,,*5A
$GNRMC,000028.20,A,3347.9705,S,15051.8690,E,098.5,204.2,010126,,*33
$GNGGA,000028.30,3347.9717,S,15051.8660,E,4,18,0.6,30.0,M,46.9,M,,*57
$GNRMC,000028.30,A,3347.9717,S,15051.8660,E,098.5,204.2,010126,,*3E
$GNGGA,000028.40,3347.9728,S,15051.8630,E,4,18,0.6,30.0,M,46.9,M,,*59
$GNRMC,000028.40,A,3347.9728,S,15051.8630,E,098.6,204.2,010126,,*33
$GNGGA,000028.50,3347.9739,S,15051.8600,E,4,18,0.6,30.0,M,46.9,M,,*5B
$GNRMC,000028.50,A,3347.9739,S,15051.8600,E,098.6,204.2,010126,,*31
$GNGGA,000028.60,3347.9750,S,15051.8570,E,4,18,0.6,30.0,M,46.9,M,,*53
$GNRMC,000028.60,A,3347.9750,S,15051.8570,E,098.6,204.2,010126,,*39
$GNGGA,000028.70,3347.9761,S,15051.8540,E,4,18,0.6,30.0,M,46.9,M,,*53
$GNRMC,000028.70,A,3347.9761,S,15051.8540,E,098.7,204.2,010126,,*38
$GNGGA,000028.80,3347.9773,S,15051.8510,E,4,18,0.6,30.0,M,46.9,M,,*5A
$GNRMC,000028.80,A,3347.9773,S,15051.8510,E,098.7,204.2,010126,,*31
$GNGGA,000028.90,3347.9784,S,15051.8480,E,4,18,0.6,30.0,M,46.9,M,,*5B
$GNRMC,000028.90,A,3347.9784,S,15051.8480,E,098.8,204.2,010126,,*3F
$GNGGA,000029.00,3347.9795,S,15051.8450,E,4,18,0.6,30.0,M,46.9,M,,*5E
$GNRMC,000029.00,A,3347.9795,S,15051.8450,E,098.8,207.2,010126,,*39
$GNGGA,000029.10,3347.9808,S,15051.8421,E,4,18,0.6,30.0,M,46.9,M,,*52
$GNRMC,000029.10,A,3347.9808,S,15051.8421,E,098.8,207.2,010126,,*35
$GNGGA,000029.20,3347.9820,S,15051.8391,E,4,18,0.6,30.0,M,46.9,M,,*57
$GNRMC,000029.20,A,3347.9820,S,15051.8391,E,098.9,207.2,010126,,*31
$GNGGA,000029.30,3347.9833,S,15051.8362,E,4,18,0.6,30.0,M,46.9,M,,*58
$GNRMC,000029.30,A,3347.9833,S,15051.8362,E,098.9,207.2,010126,,*3E
$GNGGA,000029.40,3347.9845,S,15051.8332,E,4,18,0.6,30.0,M,46.9,M,,*5B
$GNRMC,000029.40,A,3347.9845,S,15051.8332,E,099.0,207.2,010126,,*35
$GNGGA,000029.50,3347.9858,S,15051.8303,E,4,18,0.6,30.0,M,46.9,M,,*54
$GNRMC,000029.50,A,3347.9858,S,15051.8303,E,099.0,207.2,010126,,*3A
$GNGGA,000029.60,3347.9870,S,15051.8274,E,4,18,0.6,30.0,M,46.9,M,,*5C
$GNRMC,000029.60,A,3347.9870,S,15051.8274,E,099.0,207.2,010126,,*32
$GNGGA,000029.70,3347.9883,S,15051.8244,E,4,18,0.6,30.0,M,46.9,M,,*52
$GNRMC,000029.70,A,3347.9883,S,15051.8244,E,099.1,207.2,010126,,*3D
$GNGGA,000029.80,3347.9896,S,15051.8215,E,4,18,0.6,30.0,M,46.9,M,,*5D
$GNRMC,000029.80,A,3347.9896,S,15051.8215,E,099.1,210.4,010126,,*32
$GNGGA,000029.90,3347.9910,S,15051.8187,E,4,18,0.6,30.0,M,46.9,M,,*5B
$GNRMC,000029.90,A,3347.9910,S,15051.8187,E,099.2,210.4,010126,,*37
$GNGGA,000030.00,3347.9924,S,15051.8158,E,4,18,0.6,30.0,M,46.9,M,,*5F
$GNRMC,000030.00,A,3347.9924,S,15051.8158,E,099.2,210.4,010126,,*33
$GNGGA,000030.10,3347.9938,S,15051.8129,E,4,18,0.6,30.0,M,46.9,M,,*55
$GNRMC,000030.10,A,3347.9938,S,15051.8129,E,099.3,210.4,010126,,*38
$GNGGA,000030.20,3347.9952,S,15051.8101,E,4,18,0.6,30.0,M,46.9,M,,*50
$GNRMC,000030.20,A,3347.9952,S,15051.8101,E,099.3,210.4,010126,,*3D
$GNGGA,000030.30,3347.9966,S,15051.8072,E,4,18,0.6,30.0,M,46.9,M,,*53
$GNRMC,000030.30,A,3347.9966,S,15051.8072,E,099.4,210.4,010126,,*39
$GNGGA,000030.40,3347.9980,S,15051.8044,E,4,18,0.6,30.0,M,46.9,M,,*59
$GNRMC,000030.40,A,3347.9980,S,15051.8044,E,099.4,210.4,010126,,*33
$GNGGA,000030.50,3347.9994,S,15051.8015,E,4,18,0.6,30.0,M,46.9,M,,*59
$GNRMC,000030.50,A,3347.9994,S,15051.8015,E,099.5,214.1,010126,,*33
$GNGGA,000030.60,3348.0009,S,15051.7987,E,4,18,0.6,30.0,M,46.9,M,,*5C
$GNRMC,000030.60,A,3348.0009,S,15051.7987,E,099.6,214.1,010126,,*35
$GNGGA,000030.70,3348.0025,S,15051.7960,E,4,18,0.6,30.0,M,46.9,M,,*5A
$GNRMC,000030.70,A,3348.0025,S,15051.7960,E,099.6,214.1,010126,,*33
$GNGGA,000030.80,3348.0040,S,15051.7932,E,4,18,0.6,30.0,M,46.9,M,,*51
$GNRMC,000030.80,A,3348.0040,S,15051.7932,E,099.7,214.1,010126,,*39
$GNGGA,000030.90,3348.0056,S,15051.7905,E,4,18,0.6,30.0,M,46.9,M,,*53
$GNRMC,000030.90,A,3348.0056,S,15051.7905,E,099.7,214.1,010126,,*3B
$GNGGA,000031.00,3348.0071,S,15051.7877,E,4,18,0.6,30.0,M,46.9,M,,*5A
$GNRMC,000031.00,A,3348.0071,S,15051.7877,E,099.8,214.1,010126,,*3D
$GNGGA,000031.10,3348.0087,S,15051.7850,E,4,18,0.6,30.0,M,46.9,M,,*57
$GNRMC,000031.10,A,3348.0087,S,15051.7850,E,099.8,214.1,010126,,*30
$GNGGA,000031.20,3348.0103,S,15051.7822,E,4,18,0.6,30.0,M,46.9,M,,*5C
$GNRMC,000031.20,A,3348.0103,S,15051.7822,E,099.9,218.2,010126,,*35
$GNGGA,000031.30,3348.0120,S,15051.7796,E,4,18,0.6,30.0,M,46.9,M,,*5C
$GNRMC,000031.30,A,3348.0120,S,15051.7796,E,100.0,218.2,010126,,*3D
$GNGGA,000031.40,3348.0137,S,15051.7770,E,4,18,0.6,30.0,M,46.9,M,,*55
$GNRMC,000031.40,A,3348.0137,S,15051.7770,E,100.0,218.2,010126,,*34
$GNGGA,000031.50,3348.0154,S,15051.7744,E,4,18,0.6,30.0,M,46.9,M,,*56
$GNRMC,000031.50,A,3348.0154,S,15051.7744,E,100.1,218.2,010126,,*36
$GNGGA,000031.60,3348.0172,S,15051.7717,E,4,18,0.6,30.0,M,46.9,M,,*57
$GNRMC,000031.60,A,3348.0172,S,15051.7717,E,100.2,218.2,010126,,*34
$GNGGA,000031.70,3348.0189,S,15051.7691,E,4,18,0.6,30.0,M,46.9,M,,*5D
$GNRMC,000031.70,A,3348.0189,S,15051.7691,E,100.2,218.2,010126,,*3E
$GNGGA,000031.80,3348.0206,S,15051.7665,E,4,18,0.6,30.0,M,46.9,M,,*5D
$GNRMC,000031.80,A,3348.0206,S,15051.7665,E,100.3,218.2,010126,,*3F
$GNGGA,000031.90,3348.0225,S,15051.7640,E,4,18,0.6,30.0,M,46.9,M,,*5A
$GNRMC,000031.90,A,3348.0225,S,15051.7640,E,100.4,222.9,010126,,*3D
$GNGGA,000032.00,3348.0244,S,15051.7615,E,4,18,0.6,30.0,M,46.9,M,,*57
$GNRMC,000032.00,A,3348.0244,S,15051.7615,E,100.4,222.9,010126,,*30
$GNGGA,000032.10,3348.0263,S,15051.7591,E,4,18,0.6,30.0,M,46.9,M,,*5C
$GNRMC,000032.10,A,3348.0263,S,15051.7591,E,100.5,222.9,010126,,*3A
$GNGGA,000032.20,3348.0282,S,15051.7566,E,4,18,0.6,30.0,M,46.9,M,,*58
$GNRMC,000032.20,A,3348.0282,S,15051.7566,E,100.6,222.9,010126,,*3D
$GNGGA,000032.30,3348.0301,S,15051.7542,E,4,18,0.6,30.0,M,46.9,M,,*55
$GNRMC,000032.30,A,3348.0301,S,15051.7542,E,100.6,222.9,010126,,*30
$GNGGA,000032.40,3348.0320,S,15051.7517,E,4,18,0.6,30.0,M,46.9,M,,*51
$GNRMC,000032.40,A,3348.0320,S,15051.7517,E,100.7,222.9,010126,,*35
$GNGGA,000032.50,3348.0340,S,15051.7494,E,4,18,0.6,30.0,M,46.9,M,,*5C
$GNRMC,000032.50,A,3348.0340,S,15051.7494,E,100.8,228.2,010126,,*36
$GNGGA,000032.60,3348.0361,S,15051.7472,E,4,18,0.6,30.0,M,46.9,M,,*54
$GNRMC,000032.60,A,3348.0361,S,15051.7472,E,100.9,228.2,010126,,*3F
$GNGGA,000032.70,3348.0382,S,15051.7449,E,4,18,0.6,30.0,M,46.9,M,,*50
$GNRMC,000032.70,A,3348.0382,S,15051.7449,E,100.9,228.2,010126,,*3B
$GNGGA,000032.80,3348.0403,S,15051.7427,E,4,18,0.6,30.0,M,46.9,M,,*59
$GNRMC,000032.80,A,3348.0403,S,15051.7427,E,101.0,228.2,010126,,*3A
$GNGGA,000032.90,3348.0424,S,15051.7405,E,4,18,0.6,30.0,M,46.9,M,,*5D
$GNRMC,000032.90,A,3348.0424,S,15051.7405,E,101.1,228.2,010126,,*3F
$GNGGA,000033.00,3348.0445,S,15051.7383,E,4,18,0.6,30.0,M,46.9,M,,*5B
$GNRMC,000033.00,A,3348.0445,S,15051.7383,E,101.2,234.2,010126,,*37
$GNGGA,000033.10,3348.0468,S,15051.7363,E,4,18,0.6,30.0,M,46.9,M,,*5B
$GNRMC,000033.10,A,3348.0468,S,15051.7363,E,101.2,234.2,010126,,*37
$GNGGA,000033.20,3348.0491,S,15051.7343,E,4,18,0.6,30.0,M,46.9,M,,*5C
$GNRMC,000033.20,A,3348.0491,S,15051.7343,E,101.3,234.2,010126,,*31
$GNGGA,000033.30,3348.0514,S,15051.7324,E,4,18,0.6,30.0,M,46.9,M,,*50
$GNRMC,000033.30,A,3348.0514,S,15051.7324,E,101.4,234.2,010126,,*3A
$GNGGA,000033.40,3348.0537,S,15051.7304,E,4,18,0.6,30.0,M,46.9,M,,*54
$GNRMC,000033.40,A,3348.0537,S,15051.7304,E,101.5,234.2,010126,,*3F
$GNGGA,000033.50,3348.0560,S,15051.7284,E,4,18,0.6,30.0,M,46.9,M,,*5E
$GNRMC,000033.50,A,3348.0560,S,15051.7284,E,101.5,241.0,010126,,*35
$GNGGA,000033.60,3348.0584,S,15051.7268,E,4,18,0.6,30.0,M,46.9,M,,*55
$GNRMC,000033.60,A,3348.0584,S,15051.7268,E,101.6,241.0,010126,,*3D
$GNGGA,000033.70,3348.0609,S,15051.7251,E,4,18,0.6,30.0,M,46.9,M,,*58
$GNRMC,000033.70,A,3348.0609,S,15051.7251,E,101.7,241.0,010126,,*31
$GNGGA,000033.80,3348.0634,S,15051.7235,E,4,18,0.6,30.0,M,46.9,M,,*5B
$GNRMC,000033.80,A,3348.0634,S,15051.7235,E,101.8,241.0,010126,,*3D
$GNGGA,000033.90,3348.0658,S,15051.7218,E,4,18,0.6,30.0,M,46.9,M,,*5F
$GNRMC,000033.90,A,3348.0658,S,15051.7218,E,101.9,241.0,010126,,*38
$GNGGA,000034.00,3348.0683,S,15051.7203,E,4,18,0.6,30.0,M,46.9,M,,*5D
$GNRMC,000034.00,A,3348.0683,S,15051.7203,E,101.9,248.6,010126,,*35
$GNGGA,000034.10,3348.0710,S,15051.7190,E,4,18,0.6,30.0,M,46.9,M,,*5E
$GNRMC,000034.10,A,3348.0710,S,15051.7190,E,102.0,248.6,010126,,*3C
$GNGGA,000034.20,3348.0736,S,15051.7178,E,4,18,0.6,30.0,M,46.9,M,,*5F
$GNRMC,000034.20,A,3348.0736,S,15051.7178,E,102.1,248.6,010126,,*3C
$GNGGA,000034.30,3348.0762,S,15051.7165,E,4,18,0.6,30.0,M,46.9,M,,*53
$GNRMC,000034.30,A,3348.0762,S,15051.7165,E,102.2,248.6,010126,,*33
$GNGGA,000034.40,3348.0789,S,15051.7153,E,4,18,0.6,30.0,M,46.9,M,,*54
$GNRMC,000034.40,A,3348.0789,S,15051.7153,E,102.3,248.6,010126,,*35
$GNGGA,000034.50,3348.0816,S,15051.7143,E,4,18,0.6,30.0,M,46.9,M,,*5D
$GNRMC,000034.50,A,3348.0816,S,15051.7143,E,102.3,256.8,010126,,*3D
$GNGGA,000034.60,3348.0844,S,15051.7135,E,4,18,0.6,30.0,M,46.9,M,,*58
$GNRMC,000034.60,A,3348.0844,S,15051.7135,E,102.4,256.8,010126,,*3F
$GNGGA,000034.70,3348.0871,S,15051.7127,E,4,18,0.6,30.0,M,46.9,M,,*5C
$GNRMC,000034.70,A,3348.0871,S,15051.7127,E,102.5,256.8,010126,,*3A
$GNGGA,000034.80,3348.0899,S,15051.7119,E,4,18,0.6,30.0,M,46.9,M,,*58
$GNRMC,000034.80,A,3348.0899,S,15051.7119,E,102.6,256.8,010126,,*3D
$GNGGA,000034.90,3348.0927,S,15051.7112,E,4,18,0.6,30.0,M,46.9,M,,*56
$GNRMC,000034.90,A,3348.0927,S,15051.7112,E,102.7,265.6,010126,,*3C
$GNGGA,000035.00,3348.0955,S,15051.7109,E,4,18,0.6,30.0,M,46.9,M,,*51
$GNRMC,000035.00,A,3348.0955,S,15051.7109,E,102.7,265.6,010126,,*3B
$GNGGA,000035.10,3348.0984,S,15051.7107,E,4,18,0.6,30.0,M,46.9,M,,*52
$GNRMC,000035.10,A,3348.0984,S,15051.7107,E,102.8,265.6,010126,,*37
$GNGGA,000035.20,3348.1012,S,15051.7104,E,4,18,0.6,30.0,M,46.9,M,,*55
$GNRMC,000035.20,A,3348.1012,S,15051.7104,E,102.9,265.6,010126,,*31
$GNGGA,000035.30,3348.1040,S,15051.7101,E,4,18,0.6,30.0,M,46.9,M,,*56
$GNRMC,000035.30,A,3348.1040,S,15051.7101,E,103.0,265.6,010126,,*3A
$GNGGA,000035.40,3348.1069,S,15051.7102,E,4,18,0.6,30.0,M,46.9,M,,*59
$GNRMC,000035.40,A,3348.1069,S,15051.7102,E,103.1,274.4,010126,,*36
$GNGGA,000035.50,3348.1097,S,15051.7105,E,4,18,0.6,30.0,M,46.9,M,,*5E
$GNRMC,000035.50,A,3348.1097,S,15051.7105,E,103.2,274.4,010126,,*32
$GNGGA,000035.60,3348.1126,S,15051.7107,E,4,18,0.6,30.0,M,46.9,M,,*54
$GNRMC,000035.60,A,3348.1126,S,15051.7107,E,103.2,274.4,010126,,*38
$GNGGA,000035.70,3348.1155,S,15051.7110,E,4,18,0.6,30.0,M,46.9,M,,*57
$GNRMC,000035.70,A,3348.1155,S,15051.7110,E,103.3,274.4,010126,,*3A
$GNGGA,000035.80,3348.1183,S,15051.7114,E,4,18,0.6,30.0,M,46.9,M,,*57
$GNRMC,000035.80,A,3348.1183,S,15051.7114,E,103.4,283.2,010126,,*33
$GNGGA,000035.90,3348.1211,S,15051.7122,E,4,18,0.6,30.0,M,46.9,M,,*5B
$GNRMC,000035.90,A,3348.1211,S,15051.7122,E,103.5,283.2,010126,,*3E
$GNGGA,000036.00,3348.1239,S,15051.7130,E,4,18,0.6,30.0,M,46.9,M,,*58
$GNRMC,000036.00,A,3348.1239,S,15051.7130,E,103.6,283.2,010126,,*3E
$GNGGA,000036.10,3348.1267,S,15051.7138,E,4,18,0.6,30.0,M,46.9,M,,*5A
$GNRMC,000036.10,A,3348.1267,S,15051.7138,E,103.7,283.2,010126,,*3D
$GNGGA,000036.20,3348.1295,S,15051.7146,E,4,18,0.6,30.0,M,46.9,M,,*5D
$GNRMC,000036.20,A,3348.1295,S,15051.7146,E,103.7,283.2,010126,,*3A
$GNGGA,000036.30,3348.1322,S,15051.7158,E,4,18,0.6,30.0,M,46.9,M,,*5E
$GNRMC,000036.30,A,3348.1322,S,15051.7158,E,103.8,291.4,010126,,*33
$GNGGA,000036.40,3348.1349,S,15051.7171,E,4,18,0.6,30.0,M,46.9,M,,*5F
$GNRMC,000036.40,A,3348.1349,S,15051.7171,E,103.9,291.4,010126,,*33
$GNGGA,000036.50,3348.1376,S,15051.7183,E,4,18,0.6,30.0,M,46.9,M,,*5F
$GNRMC,000036.50,A,3348.1376,S,15051.7183,E,104.0,291.4,010126,,*3D
$GNGGA,000036.60,3348.1402,S,15051.7196,E,4,18,0.6,30.0,M,46.9,M,,*5C
$GNRMC,000036.60,A,3348.1402,S,15051.7196,E,104.1,291.4,010126,,*3F
$GNGGA,000036.70,3348.1429,S,15051.7210,E,4,18,0.6,30.0,M,46.9,M,,*59
$GNRMC,000036.70,A,3348.1429,S,15051.7210,E,104.2,299.0,010126,,*35
$GNGGA,000036.80,3348.1454,S,15051.7227,E,4,18,0.6,30.0,M,46.9,M,,*58
$GNRMC,000036.80,A,3348.1454,S,15051.7227,E,104.2,299.0,010126,,*34
$GNGGA,000036.90,3348.1479,S,15051.7244,E,4,18,0.6,30.0,M,46.9,M,,*53
$GNRMC,000036.90,A,3348.1479,S,15051.7244,E,104.3,299.0,010126,,*3E
$GNGGA,000037.00,3348.1505,S,15051.7260,E,4,18,0.6,30.0,M,46.9,M,,*57
$GNRMC,000037.00,A,3348.1505,S,15051.7260,E,104.4,299.0,010126,,*3D
$GNGGA,000037.10,3348.1530,S,15051.7277,E,4,18,0.6,30.0,M,46.9,M,,*56
$GNRMC,000037.10,A,3348.1530,S,15051.7277,E,104.5,299.0,010126,,*3D
$GNGGA,000037.20,3348.1555,S,15051.7296,E,4,18,0.6,30.0,M,46.9,M,,*59
$GNRMC,000037.20,A,3348.1555,S,15051.7296,E,104.6,305.8,010126,,*3D
$GNGGA,000037.30,3348.1578,S,15051.7316,E,4,18,0.6,30.0,M,46.9,M,,*5E
$GNRMC,000037.30,A,3348.1578,S,15051.7316,E,104.6,305.8,010126,,*3A
$GNGGA,000037.40,3348.1602,S,15051.7337,E,4,18,0.6,30.0,M,46.9,M,,*54
$GNRMC,000037.40,A,3348.1602,S,15051.7337,E,104.7,305.8,010126,,*31
$GNGGA,000037.50,3348.1625,S,15051.7357,E,4,18,0.6,30.0,M,46.9,M,,*56
$GNRMC,000037.50,A,3348.1625,S,15051.7357,E,104.8,305.8,010126,,*3C
$GNGGA,000037.60,3348.1649,S,15051.7378,E,4,18,0.6,30.0,M,46.9,M,,*52
$GNRMC,000037.60,A,3348.1649,S,15051.7378,E,104.9,305.8,010126,,*39
$GNGGA,000037.70,3348.1672,S,15051.7400,E,4,18,0.6,30.0,M,46.9,M,,*53
$GNRMC,000037.70,A,3348.1672,S,15051.7400,E,105.0,311.8,010126,,*35
$GNGGA,000037.80,3348.1693,S,15051.7423,E,4,18,0.6,30.0,M,46.9,M,,*52
$GNRMC,000037.80,A,3348.1693,S,15051.7423,E,105.0,311.8,010126,,*34
$GNGGA,000037.90,3348.1715,S,15051.7446,E,4,18,0.6,30.0,M,46.9,M,,*5F
$GNRMC,000037.90,A,3348.1715,S,15051.7446,E,105.1,311.8,010126,,*38
$GNGGA,000038.00,3348.1737,S,15051.7470,E,4,18,0.6,30.0,M,46.9,M,,*5C
$GNRMC,000038.00,A,3348.1737,S,15051.7470,E,105.2,311.8,010126,,*38
$GNGGA,000038.10,3348.1759,S,15051.7493,E,4,18,0.6,30.0,M,46.9,M,,*58
$GNRMC,000038.10,A,3348.1759,S,15051.7493,E,105.3,311.8,010126,,*3D
$GNGGA,000038.20,3348.1780,S,15051.7517,E,4,18,0.6,30.0,M,46.9,M,,*52
$GNRMC,000038.20,A,3348.1780,S,15051.7517,E,105.3,317.1,010126,,*38
$GNGGA,000038.30,3348.1800,S,15051.7543,E,4,18,0.6,30.0,M,46.9,M,,*55
$GNRMC,000038.30,A,3348.1800,S,15051.7543,E,105.4,317.1,010126,,*38
$GNGGA,000038.40,3348.1820,S,15051.7568,E,4,18,0.6,30.0,M,46.9,M,,*59
$GNRMC,000038.40,A,3348.1820,S,15051.7568,E,105.5,317.1,010126,,*35
$GNGGA,000038.50,3348.1840,S,15051.7594,E,4,18,0.6,30.0,M,46.9,M,,*5D
$GNRMC,000038.50,A,3348.1840,S,15051.7594,E,105.6,317.1,010126,,*32
$GNGGA,000038.60,3348.1860,S,15051.7620,E,4,18,0.6,30.0,M,46.9,M,,*50
$GNRMC,000038.60,A,3348.1860,S,15051.7620,E,105.6,317.1,010126,,*3F
$GNGGA,000038.70,3348.1880,S,15051.7646,E,4,18,0.6,30.0,M,46.9,M,,*5F
$GNRMC,000038.70,A,3348.1880,S,15051.7646,E,105.7,317.1,010126,,*31
$GNGGA,000038.80,3348.1899,S,15051.7672,E,4,18,0.6,30.0,M,46.9,M,,*5F
$GNRMC,000038.80,A,3348.1899,S,15051.7672,E,105.8,321.8,010126,,*32
$GNGGA,000038.90,3348.1917,S,15051.7700,E,4,18,0.6,30.0,M,46.9,M,,*5D
$GNRMC,000038.90,A,3348.1917,S,15051.7700,E,105.8,321.8,010126,,*30
$GNGGA,000039.00,3348.1935,S,15051.7728,E,4,18,0.6,30.0,M,46.9,M,,*5F
$GNRMC,000039.00,A,3348.1935,S,15051.7728,E,105.9,321.8,010126,,*33
$GNGGA,000039.10,3348.1954,S,15051.7756,E,4,18,0.6,30.0,M,46.9,M,,*50
$GNRMC,000039.10,A,3348.1954,S,15051.7756,E,106.0,321.8,010126,,*36
$GNGGA,000039.20,3348.1972,S,15051.7784,E,4,18,0.6,30.0,M,46.9,M,,*58
$GNRMC,000039.20,A,3348.1972,S,15051.7784,E,106.0,321.8,010126,,*3E
$GNGGA,000039.30,3348.1990,S,15051.7811,E,4,18,0.6,30.0,M,46.9,M,,*56
$GNRMC,000039.30,A,3348.1990,S,15051.7811,E,106.1,321.8,010126,,*31
$GNGGA,000039.40,3348.2008,S,15051.7840,E,4,18,0.6,30.0,M,46.9,M,,*5E
$GNRMC,000039.40,A,3348.2008,S,15051.7840,E,106.2,325.9,010126,,*3F
$GNGGA,000039.50,3348.2024,S,15051.7869,E,4,18,0.6,30.0,M,46.9,M,,*5A
$GNRMC,000039.50,A,3348.2024,S,15051.7869,E,106.2,325.9,010126,,*3B
$GNGGA,000039.60,3348.2041,S,15051.7899,E,4,18,0.6,30.0,M,46.9,M,,*55
$GNRMC,000039.60,A,3348.2041,S,15051.7899,E,106.3,325.9,010126,,*35
$GNGGA,000039.70,3348.2057,S,15051.7928,E,4,18,0.6,30.0,M,46.9,M,,*58
$GNRMC,000039.70,A,3348.2057,S,15051.7928,E,106.4,325.9,010126,,*3F
$GNGGA,000039.80,3348.2074,S,15051.7957,E,4,18,0.6,30.0,M,46.9,M,,*5E
$GNRMC,000039.80,A,3348.2074,S,15051.7957,E,106.4,325.9,010126,,*39
$GNGGA,000039.90,3348.2090,S,15051.7987,E,4,18,0.6,30.0,M,46.9,M,,*58
$GNRMC,000039.90,A,3348.2090,S,15051.7987,E,106.5,325.9,010126,,*3E
$GNGGA,000040.00,3348.2107,S,15051.8016,E,4,18,0.6,30.0,M,46.9,M,,*5E
$GNRMC,000040.00,A,3348.2107,S,15051.8016,E,106.5,325.9,010126,,*38
$GNGGA,000040.10,3348.2122,S,15051.8047,E,4,18,0.6,30.0,M,46.9,M,,*5C
$GNRMC,000040.10,A,3348.2122,S,15051.8047,E,106.6,329.6,010126,,*3A
$GNGGA,000040.20,3348.2137,S,15051.8078,E,4,18,0.6,30.0,M,46.9,M,,*57
$GNRMC,000040.20,A,3348.2137,S,15051.8078,E,106.7,329.6,010126,,*30
$GNGGA,000040.30,3348.2152,S,15051.8108,E,4,18,0.6,30.0,M,46.9,M,,*53
$GNRMC,000040.30,A,3348.2152,S,15051.8108,E,106.7,329.6,010126,,*34
$GNGGA,000040.40,3348.2167,S,15051.8139,E,4,18,0.6,30.0,M,46.9,M,,*50
$GNRMC,000040.40,A,3348.2167,S,15051.8139,E,106.8,329.6,010126,,*38
$GNGGA,000040.50,3348.2182,S,15051.8170,E,4,18,0.6,30.0,M,46.9,M,,*57
$GNRMC,000040.50,A,3348.2182,S,15051.8170,E,106.8,329.6,010126,,*3F
$GNGGA,000040.60,3348.2197,S,15051.8201,E,4,18,0.6,30.0,M,46.9,M,,*55
$GNRMC,000040.60,A,3348.2197,S,15051.8201,E,106.9,329.6,010126,,*3C
$GNGGA,000040.70,3348.2212,S,15051.8232,E,4,18,0.6,30.0,M,46.9,M,,*5A
$GNRMC,000040.70,A,3348.2212,S,15051.8232,E,106.9,332.8,010126,,*37
$GNGGA,000040.80,3348.2225,S,15051.8263,E,4,18,0.6,30.0,M,46.9,M,,*55
$GNRMC,000040.80,A,3348.2225,S,15051.8263,E,107.0,332.8,010126,,*30
$GNGGA,000040.90,3348.2239,S,15051.8295,E,4,18,0.6,30.0,M,46.9,M,,*50
$GNRMC,000040.90,A,3348.2239,S,15051.8295,E,107.0,332.8,010126,,*35
$GNGGA,000041.00,3348.2252,S,15051.8327,E,4,18,0.6,30.0,M,46.9,M,,*5D
$GNRMC,000041.00,A,3348.2252,S,15051.8327,E,107.1,332.8,010126,,*39
$GNGGA,000041.10,3348.2266,S,15051.8359,E,4,18,0.6,30.0,M,46.9,M,,*52
$GNRMC,000041.10,A,3348.2266,S,15051.8359,E,107.1,332.8,010126,,*36
$GNGGA,000041.20,3348.2280,S,15051.8391,E,4,18,0.6,30.0,M,46.9,M,,*5D
$GNRMC,000041.20,A,3348.2280,S,15051.8391,E,107.2,332.8,010126,,*3A
$GNGGA,000041.30,3348.2293,S,15051.8423,E,4,18,0.6,30.0,M,46.9,M,,*50
$GNRMC,000041.30,A,3348.2293,S,15051.8423,E,107.2,332.8,010126,,*37
$GNGGA,000041.40,3348.2307,S,15051.8455,E,4,18,0.6,30.0,M,46.9,M,,*5A
$GNRMC,000041.40,A,3348.2307,S,15051.8455,E,107.3,335.8,010126,,*3B
$GNGGA,000041.50,3348.2319,S,15051.8487,E,4,18,0.6,30.0,M,46.9,M,,*5B
$GNRMC,000041.50,A,3348.2319,S,15051.8487,E,107.3,335.8,010126,,*3A
$GNGGA,000041.60,3348.2331,S,15051.8520,E,4,18,0.6,30.0,M,46.9,M,,*5E
$GNRMC,000041.60,A,3348.2331,S,15051.8520,E,107.3,335.8,010126,,*3F
$GNGGA,000041.70,3348.2343,S,15051.8553,E,4,18,0.6,30.0,M,46.9,M,,*5E
$GNRMC,000041.70,A,3348.2343,S,15051.8553,E,107.4,335.8,010126,,*38
$GNGGA,000041.80,3348.2355,S,15051.8585,E,4,18,0.6,30.0,M,46.9,M,,*5D
$GNRMC,000041.80,A,3348.2355,S,15051.8585,E,107.4,335.8,010126,,*3B
$GNGGA,000041.90,3348.2368,S,15051.8618,E,4,18,0.6,30.0,M,46.9,M,,*55
$GNRMC,000041.90,A,3348.2368,S,15051.8618,E,107.5,335.8,010126,,*32
$GNGGA,000042.00,3348.2380,S,15051.8651,E,4,18,0.6,30.0,M,46.9,M,,*54
$GNRMC,000042.00,A,3348.2380,S,15051.8651,E,107.5,335.8,010126,,*33
$GNGGA,000042.10,3348.2392,S,15051.8684,E,4,18,0.6,30.0,M,46.9,M,,*5E
$GNRMC,000042.10,A,3348.2392,S,15051.8684,E,107.5,335.8,010126,,*39
$GNGGA,000042.20,3348.2403,S,15051.8717,E,4,18,0.6,30.0,M,46.9,M,,*59
$GNRMC,000042.20,A,3348.2403,S,15051.8717,E,107.6,338.5,010126,,*3D
$GNGGA,000042.30,3348.2414,S,15051.8750,E,4,18,0.6,30.0,M,46.9,M,,*5D
$GNRMC,000042.30,A,3348.2414,S,15051.8750,E,107.6,338.5,010126,,*39
$GNGGA,000042.40,3348.2425,S,15051.8784,E,4,18,0.6,30.0,M,46.9,M,,*51
$GNRMC,000042.40,A,3348.2425,S,15051.8784,E,107.6,338.5,010126,,*35
$GNGGA,000042.50,3348.2436,S,15051.8817,E,4,18,0.6,30.0,M,46.9,M,,*57
$GNRMC,000042.50,A,3348.2436,S,15051.8817,E,107.6,338.5,010126,,*33
$GNGGA,000042.60,3348.2447,S,15051.8851,E,4,18,0.6,30.0,M,46.9,M,,*50
$GNRMC,000042.60,A,3348.2447,S,15051.8851,E,107.7,338.5,010126,,*35
$GNGGA,000042.70,3348.2458,S,15051.8884,E,4,18,0.6,30.0,M,46.9,M,,*57
$GNRMC,000042.70,A,3348.2458,S,15051.8884,E,107.7,338.5,010126,,*32
$GNGGA,000042.80,3348.2469,S,15051.8917,E,4,18,0.6,30.0,M,46.9,M,,*51
$GNRMC,000042.80,A,3348.2469,S,15051.8917,E,107.7,338.5,010126,,*34
$GNGGA,000042.90,3348.2480,S,15051.8951,E,4,18,0.6,30.0,M,46.9,M,,*55
$GNRMC,000042.90,A,3348.2480,S,15051.8951,E,107.7,338.5,010126,,*30
$GNGGA,000043.00,3348.2490,S,15051.8985,E,4,18,0.6,30.0,M,46.9,M,,*55
$GNRMC,000043.00,A,3348.2490,S,15051.8985,E,107.8,340.9,010126,,*3C
$GNGGA,000043.10,3348.2500,S,15051.9019,E,4,18,0.6,30.0,M,46.9,M,,*51
$GNRMC,000043.10,A,3348.2500,S,15051.9019,E,107.8,340.9,010126,,*38
$GNGGA,000043.20,3348.2510,S,15051.9053,E,4,18,0.6,30.0,M,46.9,M,,*5D
$GNRMC,000043.20,A,3348.2510,S,15051.9053,E,107.8,340.9,010126,,*34
$GNGGA,000043.30,3348.2519,S,15051.9087,E,4,18,0.6,30.0,M,46.9,M,,*5C
$GNRMC,000043.30,A,3348.2519,S,15051.9087,E,107.8,340.9,010126,,*35
$GNGGA,000043.40,3348.2529,S,15051.9121,E,4,18,0.6,30.0,M,46.9,M,,*55
$GNRMC,000043.40,A,3348.2529,S,15051.9121,E,107.8,340.9,010126,,*3C
$GNGGA,000043.50,3348.2539,S,15051.9155,E,4,18,0.6,30.0,M,46.9,M,,*56
$GNRMC,000043.50,A,3348.2539,S,15051.9155,E,107.8,340.9,010126,,*3F
$GNGGA,000043.60,3348.2549,S,15051.9189,E,4,18,0.6,30.0,M,46.9,M,,*53
$GNRMC,000043.60,A,3348.2549,S,15051.9189,E,107.8,340.9,010126,,*3A
$GNGGA,000043.70,3348.2558,S,15051.9223,E,4,18,0.6,30.0,M,46.9,M,,*51
$GNRMC,000043.70,A,3348.2558,S,15051.9223,E,107.9,340.9,010126,,*39
$GNGGA,000043.80,3348.2567,S,15051.9258,E,4,18,0.6,30.0,M,46.9,M,,*5E
$GNRMC,000043.80,A,3348.2567,S,15051.9258,E,107.9,343.2,010126,,*3E
$GNGGA,000043.90,3348.2576,S,15051.9292,E,4,18,0.6,30.0,M,46.9,M,,*59
$GNRMC,000043.90,A,3348.2576,S,15051.9292,E,107.9,343.2,010126,,*39
$GNGGA,000044.00,3348.2585,S,15051.9327,E,4,18,0.6,30.0,M,46.9,M,,*54
$GNRMC,000044.00,A,3348.2585,S,15051.9327,E,107.9,343.2,010126,,*34
$GNGGA,000044.10,3348.2593,S,15051.9361,E,4,18,0.6,30.0,M,46.9,M,,*50
$GNRMC,000044.10,A,3348.2593,S,15051.9361,E,107.9,343.2,010126,,*30
$GNGGA,000044.20,3348.2602,S,15051.9396,E,4,18,0.6,30.0,M,46.9,M,,*50
$GNRMC,000044.20,A,3348.2602,S,15051.9396,E,107.9,343.2,010126,,*30
$GNGGA,000044.30,3348.2611,S,15051.9430,E,4,18,0.6,30.0,M,46.9,M,,*58
$GNRMC,000044.30,A,3348.2611,S,15051.9430,E,107.9,343.2,010126,,*38
$GNGGA,000044.40,3348.2619,S,15051.9465,E,4,18,0.6,30.0,M,46.9,M,,*57
$GNRMC,000044.40,A,3348.2619,S,15051.9465,E,107.9,343.2,010126,,*37
$GNGGA,000044.50,3348.2628,S,15051.9499,E,4,18,0.6,30.0,M,46.9,M,,*57
$GNRMC,000044.50,A,3348.2628,S,15051.9499,E,107.9,343.2,010126,,*37
$GNGGA,000044.60,3348.2636,S,15051.9534,E,4,18,0.6,30.0,M,46.9,M,,*5D
$GNRMC,000044.60,A,3348.2636,S,15051.9534,E,107.9,345.3,010126,,*3A
$GNGGA,000044.70,3348.2644,S,15051.9569,E,4,18,0.6,30.0,M,46.9,M,,*51
$GNRMC,000044.70,A,3348.2644,S,15051.9569,E,107.9,345.3,010126,,*36
$GNGGA,000044.80,3348.2651,S,15051.9604,E,4,18,0.6,30.0,M,46.9,M,,*52
$GNRMC,000044.80,A,3348.2651,S,15051.9604,E,107.9,345.3,010126,,*35
$GNGGA,000044.90,3348.2659,S,15051.9638,E,4,18,0.6,30.0,M,46.9,M,,*54
$GNRMC,000044.90,A,3348.2659,S,15051.9638,E,107.9,345.3,010126,,*33
$GNGGA,000045.00,3348.2666,S,15051.9673,E,4,18,0.6,30.0,M,46.9,M,,*5F
$GNRMC,000045.00,A,3348.2666,S,15051.9673,E,107.8,345.3,010126,,*39
$GNGGA,000045.10,3348.2674,S,15051.9708,E,4,18,0.6,30.0,M,46.9,M,,*50
$GNRMC,000045.10,A,3348.2674,S,15051.9708,E,107.8,345.3,010126,,*36
$GNGGA,000045.20,3348.2681,S,15051.9743,E,4,18,0.6,30.0,M,46.9,M,,*56
$GNRMC,000045.20,A,3348.2681,S,15051.9743,E,107.8,345.3,010126,,*30
$GNGGA,000045.30,3348.2689,S,15051.9778,E,4,18,0.6,30.0,M,46.9,M,,*57
$GNRMC,000045.30,A,3348.2689,S,15051.9778,E,107.8,345.3,010126,,*31
$GNGGA,000045.40,3348.2697,S,15051.9813,E,4,18,0.6,30.0,M,46.9,M,,*5D
$GNRMC,000045.40,A,3348.2697,S,15051.9813,E,107.8,345.3,010126,,*3B
$GNGGA,000045.50,3348.2703,S,15051.9848,E,4,18,0.6,30.0,M,46.9,M,,*5E
$GNRMC,000045.50,A,3348.2703,S,15051.9848,E,107.8,347.3,010126,,*3A
$GNGGA,000045.60,3348.2710,S,15051.9883,E,4,18,0.6,30.0,M,46.9,M,,*58
$GNRMC,000045.60,A,3348.2710,S,15051.9883,E,107.7,347.3,010126,,*33
$GNGGA,000045.70,3348.2717,S,15051.9918,E,4,18,0.6,30.0,M,46.9,M,,*5D
$GNRMC,000045.70,A,3348.2717,S,15051.9918,E,107.7,347.3,010126,,*36
$GNGGA,000045.80,3348.2723,S,15051.9953,E,4,18,0.6,30.0,M,46.9,M,,*5A
$GNRMC,000045.80,A,3348.2723,S,15051.9953,E,107.7,347.3,010126,,*31
$GNGGA,000045.90,3348.2730,S,15051.9988,E,4,18,0.6,30.0,M,46.9,M,,*5F
$GNRMC,000045.90,A,3348.2730,S,15051.9988,E,107.7,347.3,010126,,*34
$GNGGA,000046.00,3348.2736,S,15052.0023,E,4,18,0.6,30.0,M,46.9,M,,*51
$GNRMC,000046.00,A,3348.2736,S,15052.0023,E,107.6,347.3,010126,,*3B
$GNGGA,000046.10,3348.2743,S,15052.0058,E,4,18,0.6,30.0,M,46.9,M,,*5E
$GNRMC,000046.10,A,3348.2743,S,15052.0058,E,107.6,347.3,010126,,*34
$GNGGA,000046.20,3348.2749,S,15052.0093,E,4,18,0.6,30.0,M,46.9,M,,*50
$GNRMC,000046.20,A,3348.2749,S,15052.0093,E,107.6,347.3,010126,,*3A
$GNGGA,000046.30,3348.2756,S,15052.0128,E,4,18,0.6,30.0,M,46.9,M,,*5E
$GNRMC,000046.30,A,3348.2756,S,15052.0128,E,107.6,347.3,010126,,*34
$GNGGA,000046.40,3348.2762,S,15052.0164,E,4,18,0.6,30.0,M,46.9,M,,*56
$GNRMC,000046.40,A,3348.2762,S,15052.0164,E,107.5,349.2,010126,,*30
$GNGGA,000046.50,3348.2767,S,15052.0199,E,4,18,0.6,30.0,M,46.9,M,,*50
$GNRMC,000046.50,A,3348.2767,S,15052.0199,E,107.5,349.2,010126,,*36
$GNGGA,000046.60,3348.2773,S,15052.0234,E,4,18,0.6,30.0,M,46.9,M,,*52
$GNRMC,000046.60,A,3348.2773,S,15052.0234,E,107.5,349.2,010126,,*34
$GNGGA,000046.70,3348.2778,S,15052.0270,E,4,18,0.6,30.0,M,46.9,M,,*58
$GNRMC,000046.70,A,3348.2778,S,15052.0270,E,107.4,349.2,010126,,*3F
$GNGGA,000046.80,3348.2784,S,15052.0305,E,4,18,0.6,30.0,M,46.9,M,,*57
$GNRMC,000046.80,A,3348.2784,S,15052.0305,E,107.4,349.2,010126,,*30
$GNGGA,000046.90,3348.2790,S,15052.0340,E,4,18,0.6,30.0,M,46.9,M,,*52
$GNRMC,000046.90,A,3348.2790,S,15052.0340,E,107.4,349.2,010126,,*35
$GNGGA,000047.00,3348.2795,S,15052.0375,E,4,18,0.6,30.0,M,46.9,M,,*59
$GNRMC,000047.00,A,3348.2795,S,15052.0375,E,107.3,349.2,010126,,*39
$GNGGA,000047.10,3348.2801,S,15052.0410,E,4,18,0.6,30.0,M,46.9,M,,*5E
$GNRMC,000047.10,A,3348.2801,S,15052.0410,E,107.3,349.2,010126,,*3E
$GNGGA,000047.20,3348.2806,S,15052.0446,E,4,18,0.6,30.0,M,46.9,M,,*59
$GNRMC,000047.20,A,3348.2806,S,15052.0446,E,107.2,349.2,010126,,*38
$GNGGA,000047.30,3348.2811,S,15052.0481,E,4,18,0.6,30.0,M,46.9,M,,*55
$GNRMC,000047.30,A,3348.2811,S,15052.0481,E,107.2,351.0,010126,,*3F
$GNGGA,000047.40,3348.2816,S,15052.0516,E,4,18,0.6,30.0,M,46.9,M,,*5A
$GNRMC,000047.40,A,3348.2816,S,15052.0516,E,107.1,351.0,010126,,*33
$GNGGA,000047.50,3348.2821,S,15052.0552,E,4,18,0.6,30.0,M,46.9,M,,*5F
$GNRMC,000047.50,A,3348.2821,S,15052.0552,E,107.1,351.0,010126,,*36
$GNGGA,000047.60,3348.2825,S,15052.0587,E,4,18,0.6,30.0,M,46.9,M,,*50
$GNRMC,000047.60,A,3348.2825,S,15052.0587,E,107.0,351.0,010126,,*38
$GNGGA,000047.70,3348.2830,S,15052.0622,E,4,18,0.6,30.0,M,46.9,M,,*59
$GNRMC,000047.70,A,3348.2830,S,15052.0622,E,107.0,351.0,010126,,*31
$GNGGA,000047.80,3348.2835,S,15052.0658,E,4,18,0.6,30.0,M,46.9,M,,*5E
$GNRMC,000047.80,A,3348.2835,S,15052.0658,E,106.9,351.0,010126,,*3E
$GNGGA,000047.90,3348.2839,S,15052.0693,E,4,18,0.6,30.0,M,46.9,M,,*54
$GNRMC,000047.90,A,3348.2839,S,15052.0693,E,106.9,351.0,010126,,*34
$GNGGA,000048.00,3348.2844,S,15052.0728,E,4,18,0.6,30.0,M,46.9,M,,*59
$GNRMC,000048.00,A,3348.2844,S,15052.0728,E,106.8,351.0,010126,,*38
$GNGGA,000048.10,3348.2849,S,15052.0763,E,4,18,0.6,30.0,M,46.9,M,,*5A
$GNRMC,000048.10,A,3348.2849,S,15052.0763,E,106.8,351.0,010126,,*3B
$GNGGA,000048.20,3348.2853,S,15052.0799,E,4,18,0.6,30.0,M,46.9,M,,*57
$GNRMC,000048.20,A,3348.2853,S,15052.0799,E,106.7,352.7,010126,,*3D
$GNGGA,000048.30,3348.2857,S,15052.0834,E,4,18,0.6,30.0,M,46.9,M,,*5A
$GNRMC,000048.30,A,3348.2857,S,15052.0834,E,106.7,352.7,010126,,*30
$GNGGA,000048.40,3348.2861,S,15052.0869,E,4,18,0.6,30.0,M,46.9,M,,*50
$GNRMC,000048.40,A,3348.2861,S,15052.0869,E,106.6,352.7,010126,,*3B
$GNGGA,000048.50,3348.2864,S,15052.0905,E,4,18,0.6,30.0,M,46.9,M,,*5F
$GNRMC,000048.50,A,3348.2864,S,15052.0905,E,106.6,352.7,010126,,*34
$GNGGA,000048.60,3348.2868,S,15052.0940,E,4,18,0.6,30.0,M,46.9,M,,*51
$GNRMC,000048.60,A,3348.2868,S,15052.0940,E,106.5,352.7,010126,,*39
$GNGGA,000048.70,3348.2872,S,15052.0975,E,4,18,0.6,30.0,M,46.9,M,,*5D
$GNRMC,000048.70,A,3348.2872,S,15052.0975,E,106.4,352.7,010126,,*34
$GNGGA,000048.80,3348.2876,S,15052.1011,E,4,18,0.6,30.0,M,46.9,M,,*5C
$GNRMC,000048.80,A,3348.2876,S,15052.1011,E,106.4,352.7,010126,,*35
$GNGGA,000048.90,3348.2879,S,15052.1046,E,4,18,0.6,30.0,M,46.9,M,,*50
$GNRMC,000048.90,A,3348.2879,S,15052.1046,E,106.3,352.7,010126,,*3E
$GNGGA,000049.00,3348.2883,S,15052.1081,E,4,18,0.6,30.0,M,46.9,M,,*56
$GNRMC,000049.00,A,3348.2883,S,15052.1081,E,106.3,352.7,010126,,*38
$GNGGA,000049.10,3348.2887,S,15052.1116,E,4,18,0.6,30.0,M,46.9,M,,*5C
$GNRMC,000049.10,A,3348.2887,S,15052.1116,E,106.2,352.7,010126,,*33
$GNGGA,000049.20,3348.2890,S,15052.1152,E,4,18,0.6,30.0,M,46.9,M,,*59
$GNRMC,000049.20,A,3348.2890,S,15052.1152,E,106.1,354.4,010126,,*30
$GNGGA,000049.30,3348.2893,S,15052.1187,E,4,18,0.6,30.0,M,46.9,M,,*53
$GNRMC,000049.30,A,3348.2893,S,15052.1187,E,106.1,354.4,010126,,*3A
$GNGGA,000049.40,3348.2896,S,15052.1222,E,4,18,0.6,30.0,M,46.9,M,,*5D
$GNRMC,000049.40,A,3348.2896,S,15052.1222,E,106.0,354.4,010126,,*35
$GNGGA,000049.50,3348.2899,S,15052.1257,E,4,18,0.6,30.0,M,46.9,M,,*51
$GNRMC,000049.50,A,3348.2899,S,15052.1257,E,105.9,354.4,010126,,*33
$GNGGA,000049.60,3348.2901,S,15052.1293,E,4,18,0.6,30.0,M,46.9,M,,*5A
$GNRMC,000049.60,A,3348.2901,S,15052.1293,E,105.8,354.4,010126,,*39
$GNGGA,000049.70,3348.2904,S,15052.1328,E,4,18,0.6,30.0,M,46.9,M,,*5F
$GNRMC,000049.70,A,3348.2904,S,15052.1328,E,105.8,354.4,010126,,*3C
$GNGGA,000049.80,3348.2907,S,15052.1363,E,4,18,0.6,30.0,M,46.9,M,,*5C
$GNRMC,000049.80,A,3348.2907,S,15052.1363,E,105.7,354.4,010126,,*30
$GNGGA,000049.90,3348.2910,S,15052.1398,E,4,18,0.6,30.0,M,46.9,M,,*5F
$GNRMC,000049.90,A,3348.2910,S,15052.1398,E,105.6,354.4,010126,,*32
$GNGGA,000050.00,3348.2913,S,15052.1433,E,4,18,0.6,30.0,M,46.9,M,,*5B
$GNRMC,000050.00,A,3348.2913,S,15052.1433,E,105.6,354.4,010126,,*36
$GNGGA,000050.10,3348.2916,S,15052.1468,E,4,18,0.6,30.0,M,46.9,M,,*51
$GNRMC,000050.10,A,3348.2916,S,15052.1468,E,105.5,354.4,010126,,*3F
$GNGGA,000050.20,3348.2918,S,15052.1503,E,4,18,0.6,30.0,M,46.9,M,,*50
$GNRMC,000050.20,A,3348.2918,S,15052.1503,E,105.4,356.0,010126,,*39
$GNGGA,000050.30,3348.2920,S,15052.1539,E,4,18,0.6,30.0,M,46.9,M,,*53
$GNRMC,000050.30,A,3348.2920,S,15052.1539,E,105.3,356.0,010126,,*3D
$GNGGA,000050.40,3348.2922,S,15052.1574,E,4,18,0.6,30.0,M,46.9,M,,*5F
$GNRMC,000050.40,A,3348.2922,S,15052.1574,E,105.3,356.0,010126,,*31
$GNGGA,000050.50,3348.2924,S,15052.1609,E,4,18,0.6,30.0,M,46.9,M,,*51
$GNRMC,000050.50,A,3348.2924,S,15052.1609,E,105.2,356.0,010126,,*3E
$GNGGA,000050.60,3348.2926,S,15052.1644,E,4,18,0.6,30.0,M,46.9,M,,*59
$GNRMC,000050.60,A,3348.2926,S,15052.1644,E,105.1,356.0,010126,,*35
$GNGGA,000050.70,3348.2928,S,15052.1679,E,4,18,0.6,30.0,M,46.9,M,,*58
$GNRMC,000050.70,A,3348.2928,S,15052.1679,E,105.0,356.0,010126,,*35
$GNGGA,000050.80,3348.2930,S,15052.1714,E,4,18,0.6,30.0,M,46.9,M,,*54
$GNRMC,000050.80,A,3348.2930,S,15052.1714,E,105.0,356.0,010126,,*39
$GNGGA,000050.90,3348.2932,S,15052.1749,E,4,18,0.6,30.0,M,46.9,M,,*5F
$GNRMC,000050.90,A,3348.2932,S,15052.1749,E,104.9,356.0,010126,,*3A
$GNGGA,000051.00,3348.2934,S,15052.1784,E,4,18,0.6,30.0,M,46.9,M,,*50
$GNRMC,000051.00,A,3348.2934,S,15052.1784,E,104.8,356.0,010126,,*34
$GNGGA,000051.10,3348.2936,S,15052.1819,E,4,18,0.6,30.0,M,46.9,M,,*58
$GNRMC,000051.10,A,3348.2936,S,15052.1819,E,104.7,356.0,010126,,*33
$GNGGA,000051.20,3348.2938,S,15052.1854,E,4,18,0.6,30.0,M,46.9,M,,*5C
$GNRMC,000051.20,A,3348.2938,S,15052.1854,E,104.6,357.6,010126,,*31
$GNGGA,000051.30,3348.2939,S,15052.1889,E,4,18,0.6,30.0,M,46.9,M,,*5C
$GNRMC,000051.30,A,3348.2939,S,15052.1889,E,104.6,357.6,010126,,*31
$GNGGA,000051.40,3348.2940,S,15052.1923,E,4,18,0.6,30.0,M,46.9,M,,*54
$GNRMC,000051.40,A,3348.2940,S,15052.1923,E,104.5,357.6,010126,,*3A
$GNGGA,000051.50,3348.2941,S,15052.1958,E,4,18,0.6,30.0,M,46.9,M,,*58
$GNRMC,000051.50,A,3348.2941,S,15052.1958,E,104.4,357.6,010126,,*37
$GNGGA,000051.60,3348.2943,S,15052.1993,E,4,18,0.6,30.0,M,46.9,M,,*5E
$GNRMC,000051.60,A,3348.2943,S,15052.1993,E,104.3,357.6,010126,,*36
$GNGGA,000051.70,3348.2944,S,15052.2028,E,4,18,0.6,30.0,M,46.9,M,,*52
$GNRMC,000051.70,A,3348.2944,S,15052.2028,E,104.2,357.6,010126,,*3B
$GNGGA,000051.80,3348.2945,S,15052.2063,E,4,18,0.6,30.0,M,46.9,M,,*53
$GNRMC,000051.80,A,3348.2945,S,15052.2063,E,104.2,357.6,010126,,*3A
$GNGGA,000051.90,3348.2946,S,15052.2098,E,4,18,0.6,30.0,M,46.9,M,,*55
$GNRMC,000051.90,A,3348.2946,S,15052.2098,E,104.1,357.6,010126,,*3F
$GNGGA,000052.00,3348.2947,S,15052.2132,E,4,18,0.6,30.0,M,46.9,M,,*5F
$GNRMC,000052.00,A,3348.2947,S,15052.2132,E,104.0,357.6,010126,,*34
$GNGGA,000052.10,3348.2949,S,15052.2167,E,4,18,0.6,30.0,M,46.9,M,,*50
$GNRMC,000052.10,A,3348.2949,S,15052.2167,E,103.9,357.6,010126,,*35
$GNGGA,000052.20,3348.2949,S,15052.2202,E,4,18,0.6,30.0,M,46.9,M,,*53
$GNRMC,000052.20,A,3348.2949,S,15052.2202,E,103.8,359.2,010126,,*3D
$GNGGA,000052.30,3348.2950,S,15052.2236,E,4,18,0.6,30.0,M,46.9,M,,*5D
$GNRMC,000052.30,A,3348.2950,S,15052.2236,E,103.8,359.2,010126,,*33
$GNGGA,000052.40,3348.2950,S,15052.2271,E,4,18,0.6,30.0,M,46.9,M,,*59
$GNRMC,000052.40,A,3348.2950,S,15052.2271,E,103.7,359.2,010126,,*38
$GNGGA,000052.50,3348.2951,S,15052.2306,E,4,18,0.6,30.0,M,46.9,M,,*58
$GNRMC,000052.50,A,3348.2951,S,15052.2306,E,103.6,359.2,010126,,*38
$GNGGA,000052.60,3348.2951,S,15052.2340,E,4,18,0.6,30.0,M,46.9,M,,*59
$GNRMC,000052.60,A,3348.2951,S,15052.2340,E,103.5,359.2,010126,,*3A
$GNGGA,000052.70,3348.2951,S,15052.2375,E,4,18,0.6,30.0,M,46.9,M,,*5E
$GNRMC,000052.70,A,3348.2951,S,15052.2375,E,103.4,359.2,010126,,*3C
$GNGGA,000052.80,3348.2952,S,15052.2409,E,4,18,0.6,30.0,M,46.9,M,,*5E
$GNRMC,000052.80,A,3348.2952,S,15052.2409,E,103.3,359.2,010126,,*3B
$GNGGA,000052.90,3348.2952,S,15052.2444,E,4,18,0.6,30.0,M,46.9,M,,*56
$GNRMC,000052.90,A,3348.2952,S,15052.2444,E,103.3,359.2,010126,,*33
$GNGGA,000053.00,3348.2953,S,15052.2478,E,4,18,0.6,30.0,M,46.9,M,,*50
$GNRMC,000053.00,A,3348.2953,S,15052.2478,E,103.2,359.2,010126,,*34
$GNGGA,000053.10,3348.2953,S,15052.2513,E,4,18,0.6,30.0,M,46.9,M,,*5D
$GNRMC,000053.10,A,3348.2953,S,15052.2513,E,103.1,359.2,010126,,*3A
$GNGGA,000053.20,3348.2953,S,15052.2547,E,4,18,0.6,30.0,M,46.9,M,,*5F
$GNRMC,000053.20,A,3348.2953,S,15052.2547,E,103.0,000.8,010126,,*3C
$GNGGA,000053.30,3348.2953,S,15052.2582,E,4,18,0.6,30.0,M,46.9,M,,*57
$GNRMC,000053.30,A,3348.2953,S,15052.2582,E,102.9,000.8,010126,,*3C
$GNGGA,000053.40,3348.2952,S,15052.2616,E,4,18,0.6,30.0,M,46.9,M,,*5F
$GNRMC,000053.40,A,3348.2952,S,15052.2616,E,102.8,000.8,010126,,*35
$GNGGA,000053.50,3348.2952,S,15052.2650,E,4,18,0.6,30.0,M,46.9,M,,*5C
$GNRMC,000053.50,A,3348.2952,S,15052.2650,E,102.8,000.8,010126,,*36
$GNGGA,000053.60,3348.2952,S,15052.2685,E,4,18,0.6,30.0,M,46.9,M,,*57
$GNRMC,000053.60,A,3348.2952,S,15052.2685,E,102.7,000.8,010126,,*32
$GNGGA,000053.70,3348.2951,S,15052.2719,E,4,18,0.6,30.0,M,46.9,M,,*51
$GNRMC,000053.70,A,3348.2951,S,15052.2719,E,102.6,000.8,010126,,*35
$GNGGA,000053.80,3348.2951,S,15052.2753,E,4,18,0.6,30.0,M,46.9,M,,*50
$GNRMC,000053.80,A,3348.2951,S,15052.2753,E,102.5,000.8,010126,,*37
$GNGGA,000053.90,3348.2950,S,15052.2788,E,4,18,0.6,30.0,M,46.9,M,,*56
$GNRMC,000053.90,A,3348.2950,S,15052.2788,E,102.4,000.8,010126,,*30
$GNGGA,000054.00,3348.2950,S,15052.2822,E,4,18,0.6,30.0,M,46.9,M,,*57
$GNRMC,000054.00,A,3348.2950,S,15052.2822,E,102.3,000.8,010126,,*36
$GNGGA,000054.10,3348.2950,S,15052.2856,E,4,18,0.6,30.0,M,46.9,M,,*55
$GNRMC,000054.10,A,3348.2950,S,15052.2856,E,102.3,000.8,010126,,*34
$GNGGA,000054.20,3348.2949,S,15052.2890,E,4,18,0.6,30.0,M,46.9,M,,*54
$GNRMC,000054.20,A,3348.2949,S,15052.2890,E,102.2,000.8,010126,,*34
$GNGGA,000054.30,3348.2948,S,15052.2924,E,4,18,0.6,30.0,M,46.9,M,,*5A
$GNRMC,000054.30,A,3348.2948,S,15052.2924,E,102.1,002.4,010126,,*37
$GNGGA,000054.40,3348.2947,S,15052.2958,E,4,18,0.6,30.0,M,46.9,M,,*59
$GNRMC,000054.40,A,3348.2947,S,15052.2958,E,102.0,002.4,010126,,*35
$GNGGA,000054.50,3348.2946,S,15052.2992,E,4,18,0.6,30.0,M,46.9,M,,*5F
$GNRMC,000054.50,A,3348.2946,S,15052.2992,E,101.9,002.4,010126,,*39
$GNGGA,000054.60,3348.2945,S,15052.3026,E,4,18,0.6,30.0,M,46.9,M,,*58
$GNRMC,000054.60,A,3348.2945,S,15052.3026,E,101.9,002.4,010126,,*3E
$GNGGA,000054.70,3348.2943,S,15052.3060,E,4,18,0.6,30.0,M,46.9,M,,*5D
$GNRMC,000054.70,A,3348.2943,S,15052.3060,E,101.8,002.4,010126,,*3A
$GNGGA,000054.80,3348.2942,S,15052.3094,E,4,18,0.6,30.0,M,46.9,M,,*58
$GNRMC,000054.80,A,3348.2942,S,15052.3094,E,101.7,002.4,010126,,*30
$GNGGA,000054.90,3348.2941,S,15052.3128,E,4,18,0.6,30.0,M,46.9,M,,*5C
$GNRMC,000054.90,A,3348.2941,S,15052.3128,E,101.6,002.4,010126,,*35
$GNGGA,000055.00,3348.2940,S,15052.3162,E,4,18,0.6,30.0,M,46.9,M,,*5B
$GNRMC,000055.00,A,3348.2940,S,15052.3162,E,101.5,002.4,010126,,*31
$GNGGA,000055.10,3348.2939,S,15052.3196,E,4,18,0.6,30.0,M,46.9,M,,*5F
$GNRMC,000055.10,A,3348.2939,S,15052.3196,E,101.5,002.4,010126,,*35
$GNGGA,000055.20,3348.2938,S,15052.3230,E,4,18,0.6,30.0,M,46.9,M,,*52
$GNRMC,000055.20,A,3348.2938,S,15052.3230,E,101.4,002.4,010126,,*39
$GNGGA,000055.30,3348.2936,S,15052.3264,E,4,18,0.6,30.0,M,46.9,M,,*5C
$GNRMC,000055.30,A,3348.2936,S,15052.3264,E,101.3,004.0,010126,,*32
$GNGGA,000055.40,3348.2934,S,15052.3298,E,4,18,0.6,30.0,M,46.9,M,,*5A
$GNRMC,000055.40,A,3348.2934,S,15052.3298,E,101.2,004.0,010126,,*35
$GNGGA,000055.50,3348.2932,S,15052.3331,E,4,18,0.6,30.0,M,46.9,M,,*5F
$GNRMC,000055.50,A,3348.2932,S,15052.3331,E,101.2,004.0,010126,,*30
$GNGGA,000055.60,3348.2930,S,15052.3365,E,4,18,0.6,30.0,M,46.9,M,,*5F
$GNRMC,000055.60,A,3348.2930,S,15052.3365,E,101.1,004.0,010126,,*33
$GNGGA,000055.70,3348.2928,S,15052.3399,E,4,18,0.6,30.0,M,46.9,M,,*54
$GNRMC,000055.70,A,3348.2928,S,15052.3399,E,101.0,004.0,010126,,*39
$GNGGA,000055.80,3348.2926,S,15052.3432,E,4,18,0.6,30.0,M,46.9,M,,*53
$GNRMC,000055.80,A,3348.2926,S,15052.3432,E,100.9,004.0,010126,,*36
$GNGGA,000055.90,3348.2924,S,15052.3466,E,4,18,0.6,30.0,M,46.9,M,,*51
$GNRMC,000055.90,A,3348.2924,S,15052.3466,E,100.9,004.0,010126,,*34
$GNGGA,000056.00,3348.2923,S,15052.3500,E,4,18,0.6,30.0,M,46.9,M,,*5D
$GNRMC,000056.00,A,3348.2923,S,15052.3500,E,100.8,004.0,010126,,*39
$GNGGA,000056.10,3348.2921,S,15052.3533,E,4,18,0.6,30.0,M,46.9,M,,*5E
$GNRMC,000056.10,A,3348.2921,S,15052.3533,E,100.7,004.0,010126,,*35
$GNGGA,000056.20,3348.2919,S,15052.3567,E,4,18,0.6,30.0,M,46.9,M,,*57
$GNRMC,000056.20,A,3348.2919,S,15052.3567,E,100.6,004.0,010126,,*3D
$GNGGA,000056.30,3348.2917,S,15052.3600,E,4,18,0.6,30.0,M,46.9,M,,*5A
$GNRMC,000056.30,A,3348.2917,S,15052.3600,E,100.6,004.0,010126,,*30
$GNGGA,000056.40,3348.2914,S,15052.3634,E,4,18,0.6,30.0,M,46.9,M,,*59
$GNRMC,000056.40,A,3348.2914,S,15052.3634,E,100.5,005.6,010126,,*37
$GNGGA,000056.50,3348.2911,S,15052.3667,E,4,18,0.6,30.0,M,46.9,M,,*5B
$GNRMC,000056.50,A,3348.2911,S,15052.3667,E,100.4,005.6,010126,,*34
$GNGGA,000056.60,3348.2909,S,15052.3701,E,4,18,0.6,30.0,M,46.9,M,,*50
$GNRMC,000056.60,A,3348.2909,S,15052.3701,E,100.4,005.6,010126,,*3F
$GNGGA,000056.70,3348.2906,S,15052.3734,E,4,18,0.6,30.0,M,46.9,M,,*58
$GNRMC,000056.70,A,3348.2906,S,15052.3734,E,100.3,005.6,010126,,*30
$GNGGA,000056.80,3348.2903,S,15052.3767,E,4,18,0.6,30.0,M,46.9,M,,*54
$GNRMC,000056.80,A,3348.2903,S,15052.3767,E,100.2,005.6,010126,,*3D
$GNGGA,000056.90,3348.2900,S,15052.3801,E,4,18,0.6,30.0,M,46.9,M,,*59
$GNRMC,000056.90,A,3348.2900,S,15052.3801,E,100.2,005.6,010126,,*30
$GNGGA,000057.00,3348.2898,S,15052.3834,E,4,18,0.6,30.0,M,46.9,M,,*57
$GNRMC,000057.00,A,3348.2898,S,15052.3834,E,100.1,005.6,010126,,*3D
$GNGGA,000057.10,3348.2895,S,15052.3867,E,4,18,0.6,30.0,M,46.9,M,,*5D
$GNRMC,000057.10,A,3348.2895,S,15052.3867,E,100.0,005.6,010126,,*36
$GNGGA,000057.20,3348.2892,S,15052.3901,E,4,18,0.6,30.0,M,46.9,M,,*58
$GNRMC,000057.20,A,3348.2892,S,15052.3901,E,100.0,005.6,010126,,*33
$GNGGA,000057.30,3348.2890,S,15052.3934,E,4,18,0.6,30.0,M,46.9,M,,*5D
$GNRMC,000057.30,A,3348.2890,S,15052.3934,E,099.9,005.6,010126,,*3E
$GNGGA,000057.40,3348.2886,S,15052.3967,E,4,18,0.6,30.0,M,46.9,M,,*5B
$GNRMC,000057.40,A,3348.2886,S,15052.3967,E,099.9,007.3,010126,,*3F
$GNGGA,000057.50,3348.2883,S,15052.4000,E,4,18,0.6,30.0,M,46.9,M,,*50
$GNRMC,000057.50,A,3348.2883,S,15052.4000,E,099.8,007.3,010126,,*35
$GNGGA,000057.60,3348.2879,S,15052.4033,E,4,18,0.6,30.0,M,46.9,M,,*56
$GNRMC,000057.60,A,3348.2879,S,15052.4033,E,099.7,007.3,010126,,*3C
$GNGGA,000057.70,3348.2876,S,15052.4066,E,4,18,0.6,30.0,M,46.9,M,,*58
$GNRMC,000057.70,A,3348.2876,S,15052.4066,E,099.7,007.3,010126,,*32
$GNGGA,000057.80,3348.2872,S,15052.4099,E,4,18,0.6,30.0,M,46.9,M,,*53
$GNRMC,000057.80,A,3348.2872,S,15052.4099,E,099.6,007.3,010126,,*38
$GNGGA,000057.90,3348.2869,S,15052.4132,E,4,18,0.6,30.0,M,46.9,M,,*58
$GNRMC,000057.90,A,3348.2869,S,15052.4132,E,099.6,007.3,010126,,*33
$GNGGA,000058.00,3348.2865,S,15052.4165,E,4,18,0.6,30.0,M,46.9,M,,*50
$GNRMC,000058.00,A,3348.2865,S,15052.4165,E,099.5,007.3,010126,,*38
$GNGGA,000058.10,3348.2862,S,15052.4198,E,4,18,0.6,30.0,M,46.9,M,,*54
$GNRMC,000058.10,A,3348.2862,S,15052.4198,E,099.5,007.3,010126,,*3C
$GNGGA,000058.20,3348.2858,S,15052.4231,E,4,18,0.6,30.0,M,46.9,M,,*5E
$GNRMC,000058.20,A,3348.2858,S,15052.4231,E,099.4,007.3,010126,,*37
$GNGGA,000058.30,3348.2855,S,15052.4264,E,4,18,0.6,30.0,M,46.9,M,,*52
$GNRMC,000058.30,A,3348.2855,S,15052.4264,E,099.3,007.3,010126,,*3C
$GNGGA,000058.40,3348.2851,S,15052.4297,E,4,18,0.6,30.0,M,46.9,M,,*5D
$GNRMC,000058.40,A,3348.2851,S,15052.4297,E,099.3,009.0,010126,,*3E
$GNGGA,000058.50,3348.2847,S,15052.4330,E,4,18,0.6,30.0,M,46.9,M,,*57
$GNRMC,000058.50,A,3348.2847,S,15052.4330,E,099.2,009.0,010126,,*35
$GNGGA,000058.60,3348.2843,S,15052.4362,E,4,18,0.6,30.0,M,46.9,M,,*57
$GNRMC,000058.60,A,3348.2843,S,15052.4362,E,099.2,009.0,010126,,*35
$GNGGA,000058.70,3348.2838,S,15052.4395,E,4,18,0.6,30.0,M,46.9,M,,*52
$GNRMC,000058.70,A,3348.2838,S,15052.4395,E,099.1,009.0,010126,,*33
$GNGGA,000058.80,3348.2834,S,15052.4428,E,4,18,0.6,30.0,M,46.9,M,,*50
$GNRMC,000058.80,A,3348.2834,S,15052.4428,E,099.1,009.0,010126,,*31
$GNGGA,000058.90,3348.2830,S,15052.4461,E,4,18,0.6,30.0,M,46.9,M,,*58
$GNRMC,000058.90,A,3348.2830,S,15052.4461,E,099.0,009.0,010126,,*38
$GNGGA,000059.00,3348.2825,S,15052.4493,E,4,18,0.6,30.0,M,46.9,M,,*59
$GNRMC,000059.00,A,3348.2825,S,15052.4493,E,099.0,009.0,010126,,*39
$GNGGA,000059.10,3348.2821,S,15052.4526,E,4,18,0.6,30.0,M,46.9,M,,*53
$GNRMC,000059.10,A,3348.2821,S,15052.4526,E,099.0,009.0,010126,,*33
$GNGGA,000059.20,3348.2817,S,15052.4559,E,4,18,0.6,30.0,M,46.9,M,,*5D
$GNRMC,000059.20,A,3348.2817,S,15052.4559,E,098.9,009.0,010126,,*35
$GNGGA,000059.30,3348.2812,S,15052.4591,E,4,18,0.6,30.0,M,46.9,M,,*5D
$GNRMC,000059.30,A,3348.2812,S,15052.4591,E,098.9,009.0,010126,,*35
$GNGGA,000059.40,3348.2808,S,15052.4624,E,4,18,0.6,30.0,M,46.9,M,,*5C
$GNRMC,000059.40,A,3348.2808,S,15052.4624,E,098.8,010.8,010126,,*35
$GNGGA,000059.50,3348.2803,S,15052.4656,E,4,18,0.6,30.0,M,46.9,M,,*53
$GNRMC,000059.50,A,3348.2803,S,15052.4656,E,098.8,010.8,010126,,*3A
$GNGGA,000059.60,3348.2798,S,15052.4689,E,4,18,0.6,30.0,M,46.9,M,,*5F
$GNRMC,000059.60,A,3348.2798,S,15052.4689,E,098.8,010.8,010126,,*36
$GNGGA,000059.70,3348.2793,S,15052.4721,E,4,18,0.6,30.0,M,46.9,M,,*56
$GNRMC,000059.70,A,3348.2793,S,15052.4721,E,098.7,010.8,010126,,*30
$GNGGA,000059.80,3348.2787,S,15052.4753,E,4,18,0.6,30.0,M,46.9,M,,*59
$GNRMC,000059.80,A,3348.2787,S,15052.4753,E,098.7,010.8,010126,,*3F
$GNGGA,000059.90,3348.2782,S,15052.4786,E,4,18,0.6,30.0,M,46.9,M,,*55
$GNRMC,000059.90,A,3348.2782,S,15052.4786,E,098.6,010.8,010126,,*32
