$GNGGA,000000.00,3348.0436,S,15052.7689,E,4,18,0.6,30.0,M,46.9,M,,*53
$GNRMC,000000.00,A,3348.0436,S,15052.7689,E,114.3,131.8,010126,,*36
$GNGGA,000000.10,3348.0412,S,15052.7663,E,4,18,0.6,30.0,M,46.9,M,,*50
$GNRMC,000000.10,A,3348.0412,S,15052.7663,E,114.3,131.8,010126,,*35
$GNGGA,000000.20,3348.0389,S,15052.7638,E,4,18,0.6,30.0,M,46.9,M,,*58
$GNRMC,000000.20,A,3348.0389,S,15052.7638,E,114.4,131.8,010126,,*3A
$GNGGA,000000.30,3348.0365,S,15052.7612,E,4,18,0.6,30.0,M,46.9,M,,*53
$GNRMC,000000.30,A,3348.0365,S,15052.7612,E,114.5,131.8,010126,,*30
$GNGGA,000000.40,3348.0341,S,15052.7587,E,4,18,0.6,30.0,M,46.9,M,,*5D
$GNRMC,000000.40,A,3348.0341,S,15052.7587,E,114.6,131.8,010126,,*3D
$GNGGA,000000.50,3348.0318,S,15052.7561,E,4,18,0.6,30.0,M,46.9,M,,*58
$GNRMC,000000.50,A,3348.0318,S,15052.7561,E,114.7,137.1,010126,,*36
$GNGGA,000000.60,3348.0296,S,15052.7533,E,4,18,0.6,30.0,M,46.9,M,,*5B
$GNRMC,000000.60,A,3348.0296,S,15052.7533,E,114.8,137.1,010126,,*3A
$GNGGA,000000.70,3348.0275,S,15052.7505,E,4,18,0.6,30.0,M,46.9,M,,*52
$GNRMC,000000.70,A,3348.0275,S,15052.7505,E,114.8,137.1,010126,,*33
$GNGGA,000000.80,3348.0253,S,15052.7476,E,4,18,0.6,30.0,M,46.9,M,,*5C
$GNRMC,000000.80,A,3348.0253,S,15052.7476,E,114.9,137.1,010126,,*3C
$GNGGA,000000.90,3348.0231,S,15052.7448,E,4,18,0.6,30.0,M,46.9,M,,*54
$GNRMC,000000.90,A,3348.0231,S,15052.7448,E,115.0,137.1,010126,,*3C
$GNGGA,000001.00,3348.0209,S,15052.7420,E,4,18,0.6,30.0,M,46.9,M,,*59
$GNRMC,000001.00,A,3348.0209,S,15052.7420,E,115.1,137.1,010126,,*30
$GNGGA,000001.10,3348.0190,S,15052.7390,E,4,18,0.6,30.0,M,46.9,M,,*57
$GNRMC,000001.10,A,3348.0190,S,15052.7390,E,115.1,141.8,010126,,*36
$GNGGA,000001.20,3348.0170,S,15052.7360,E,4,18,0.6,30.0,M,46.9,M,,*55
$GNRMC,000001.20,A,3348.0170,S,15052.7360,E,115.2,141.8,010126,,*37
$GNGGA,000001.30,3348.0150,S,15052.7330,E,4,18,0.6,30.0,M,46.9,M,,*53
$GNRMC,000001.30,A,3348.0150,S,15052.7330,E,115.3,141.8,010126,,*30
$GNGGA,000001.40,3348.0130,S,15052.7299,E,4,18,0.6,30.0,M,46.9,M,,*50
$GNRMC,000001.40,A,3348.0130,S,15052.7299,E,115.4,141.8,010126,,*34
$GNGGA,000001.50,3348.0110,S,15052.7269,E,4,18,0.6,30.0,M,46.9,M,,*5C
$GNRMC,000001.50,A,3348.0110,S,15052.7269,E,115.4,141.8,010126,,*38
$GNGGA,000001.60,3348.0091,S,15052.7238,E,4,18,0.6,30.0,M,46.9,M,,*53
$GNRMC,000001.60,A,3348.0091,S,15052.7238,E,115.5,145.9,010126,,*33
$GNGGA,000001.70,3348.0073,S,15052.7206,E,4,18,0.6,30.0,M,46.9,M,,*53
$GNRMC,000001.70,A,3348.0073,S,15052.7206,E,115.6,145.9,010126,,*30
$GNGGA,000001.80,3348.0055,S,15052.7174,E,4,18,0.6,30.0,M,46.9,M,,*5E
$GNRMC,000001.80,A,3348.0055,S,15052.7174,E,115.7,145.9,010126,,*3C
$GNGGA,000001.90,3348.0037,S,15052.7142,E,4,18,0.6,30.0,M,46.9,M,,*5E
$GNRMC,000001.90,A,3348.0037,S,15052.7142,E,115.7,145.9,010126,,*3C
$GNGGA,000002.00,3348.0019,S,15052.7110,E,4,18,0.6,30.0,M,46.9,M,,*5F
$GNRMC,000002.00,A,3348.0019,S,15052.7110,E,115.8,145.9,010126,,*32
$GNGGA,000002.10,3348.0001,S,15052.7078,E,4,18,0.6,30.0,M,46.9,M,,*58
$GNRMC,000002.10,A,3348.0001,S,15052.7078,E,115.9,145.9,010126,,*34
$GNGGA,000002.20,3347.9984,S,15052.7046,E,4,18,0.6,30.0,M,46.9,M,,*54
$GNRMC,000002.20,A,3347.9984,S,15052.7046,E,115.9,149.6,010126,,*3B
$GNGGA,000002.30,3347.9968,S,15052.7012,E,4,18,0.6,30.0,M,46.9,M,,*56
$GNRMC,000002.30,A,3347.9968,S,15052.7012,E,116.0,149.6,010126,,*33
$GNGGA,000002.40,3347.9952,S,15052.6979,E,4,18,0.6,30.0,M,46.9,M,,*5D
$GNRMC,000002.40,A,3347.9952,S,15052.6979,E,116.0,149.6,010126,,*38
$GNGGA,000002.50,3347.9935,S,15052.6945,E,4,18,0.6,30.0,M,46.9,M,,*52
$GNRMC,000002.50,A,3347.9935,S,15052.6945,E,116.1,149.6,010126,,*36
$GNGGA,000002.60,3347.9919,S,15052.6912,E,4,18,0.6,30.0,M,46.9,M,,*5D
$GNRMC,000002.60,A,3347.9919,S,15052.6912,E,116.2,149.6,010126,,*3A
$GNGGA,000002.70,3347.9903,S,15052.6878,E,4,18,0.6,30.0,M,46.9,M,,*5A
$GNRMC,000002.70,A,3347.9903,S,15052.6878,E,116.2,149.6,010126,,*3D
$GNGGA,000002.80,3347.9887,S,15052.6845,E,4,18,0.6,30.0,M,46.9,M,,*56
$GNRMC,000002.80,A,3347.9887,S,15052.6845,E,116.3,152.8,010126,,*34
$GNGGA,000002.90,3347.9872,S,15052.6810,E,4,18,0.6,30.0,M,46.9,M,,*5D
$GNRMC,000002.90,A,3347.9872,S,15052.6810,E,116.3,152.8,010126,,*3F
$GNGGA,000003.00,3347.9857,S,15052.6775,E,4,18,0.6,30.0,M,46.9,M,,*5E
$GNRMC,000003.00,A,3347.9857,S,15052.6775,E,116.4,152.8,010126,,*3B
$GNGGA,000003.10,3347.9842,S,15052.6741,E,4,18,0.6,30.0,M,46.9,M,,*5C
$GNRMC,000003.10,A,3347.9842,S,15052.6741,E,116.4,152.8,010126,,*39
$GNGGA,000003.20,3347.9828,S,15052.6706,E,4,18,0.6,30.0,M,46.9,M,,*50
$GNRMC,000003.20,A,3347.9828,S,15052.6706,E,116.5,152.8,010126,,*34
$GNGGA,000003.30,3347.9813,S,15052.6672,E,4,18,0.6,30.0,M,46.9,M,,*5B
$GNRMC,000003.30,A,3347.9813,S,15052.6672,E,116.5,152.8,010126,,*3F
$GNGGA,000003.40,3347.9798,S,15052.6637,E,4,18,0.6,30.0,M,46.9,M,,*51
$GNRMC,000003.40,A,3347.9798,S,15052.6637,E,116.6,152.8,010126,,*36
$GNGGA,000003.50,3347.9785,S,15052.6602,E,4,18,0.6,30.0,M,46.9,M,,*5A
$GNRMC,000003.50,A,3347.9785,S,15052.6602,E,116.6,155.8,010126,,*3A
$GNGGA,000003.60,3347.9771,S,15052.6566,E,4,18,0.6,30.0,M,46.9,M,,*53
$GNRMC,000003.60,A,3347.9771,S,15052.6566,E,116.7,155.8,010126,,*32
$GNGGA,000003.70,3347.9758,S,15052.6531,E,4,18,0.6,30.0,M,46.9,M,,*5B
$GNRMC,000003.70,A,3347.9758,S,15052.6531,E,116.7,155.8,010126,,*3A
$GNGGA,000003.80,3347.9745,S,15052.6495,E,4,18,0.6,30.0,M,46.9,M,,*57
$GNRMC,000003.80,A,3347.9745,S,15052.6495,E,116.8,155.8,010126,,*39
$GNGGA,000003.90,3347.9731,S,15052.6459,E,4,18,0.6,30.0,M,46.9,M,,*55
$GNRMC,000003.90,A,3347.9731,S,15052.6459,E,116.8,155.8,010126,,*3B
$GNGGA,000004.00,3347.9718,S,15052.6424,E,4,18,0.6,30.0,M,46.9,M,,*5A
$GNRMC,000004.00,A,3347.9718,S,15052.6424,E,116.8,155.8,010126,,*34
$GNGGA,000004.10,3347.9705,S,15052.6388,E,4,18,0.6,30.0,M,46.9,M,,*56
$GNRMC,000004.10,A,3347.9705,S,15052.6388,E,116.9,155.8,010126,,*39
$GNGGA,000004.20,3347.9693,S,15052.6352,E,4,18,0.6,30.0,M,46.9,M,,*5C
$GNRMC,000004.20,A,3347.9693,S,15052.6352,E,116.9,158.5,010126,,*33
$GNGGA,000004.30,3347.9681,S,15052.6316,E,4,18,0.6,30.0,M,46.9,M,,*5E
$GNRMC,000004.30,A,3347.9681,S,15052.6316,E,116.9,158.5,010126,,*31
$GNGGA,000004.40,3347.9669,S,15052.6279,E,4,18,0.6,30.0,M,46.9,M,,*57
$GNRMC,000004.40,A,3347.9669,S,15052.6279,E,117.0,158.5,010126,,*30
$GNGGA,000004.50,3347.9657,S,15052.6243,E,4,18,0.6,30.0,M,46.9,M,,*52
$GNRMC,000004.50,A,3347.9657,S,15052.6243,E,117.0,158.5,010126,,*35
$GNGGA,000004.60,3347.9645,S,15052.6207,E,4,18,0.6,30.0,M,46.9,M,,*52
$GNRMC,000004.60,A,3347.9645,S,15052.6207,E,117.0,158.5,010126,,*35
$GNGGA,000004.70,3347.9633,S,15052.6170,E,4,18,0.6,30.0,M,46.9,M,,*51
$GNRMC,000004.70,A,3347.9633,S,15052.6170,E,117.0,158.5,010126,,*36
$GNGGA,000004.80,3347.9621,S,15052.6134,E,4,18,0.6,30.0,M,46.9,M,,*5D
$GNRMC,000004.80,A,3347.9621,S,15052.6134,E,117.1,158.5,010126,,*3B
$GNGGA,000004.90,3347.9611,S,15052.6097,E,4,18,0.6,30.0,M,46.9,M,,*57
$GNRMC,000004.90,A,3347.9611,S,15052.6097,E,117.1,160.9,010126,,*36
$GNGGA,000005.00,3347.9600,S,15052.6060,E,4,18,0.6,30.0,M,46.9,M,,*57
$GNRMC,000005.00,A,3347.9600,S,15052.6060,E,117.1,160.9,010126,,*36
$GNGGA,000005.10,3347.9589,S,15052.6023,E,4,18,0.6,30.0,M,46.9,M,,*53
$GNRMC,000005.10,A,3347.9589,S,15052.6023,E,117.1,160.9,010126,,*32
$GNGGA,000005.20,3347.9579,S,15052.5986,E,4,18,0.6,30.0,M,46.9,M,,*5A
$GNRMC,000005.20,A,3347.9579,S,15052.5986,E,117.1,160.9,010126,,*3B
$GNGGA,000005.30,3347.9568,S,15052.5949,E,4,18,0.6,30.0,M,46.9,M,,*58
$GNRMC,000005.30,A,3347.9568,S,15052.5949,E,117.2,160.9,010126,,*3A
$GNGGA,000005.40,3347.9557,S,15052.5912,E,4,18,0.6,30.0,M,46.9,M,,*5D
$GNRMC,000005.40,A,3347.9557,S,15052.5912,E,117.2,160.9,010126,,*3F
$GNGGA,000005.50,3347.9547,S,15052.5875,E,4,18,0.6,30.0,M,46.9,M,,*5D
$GNRMC,000005.50,A,3347.9547,S,15052.5875,E,117.2,160.9,010126,,*3F
$GNGGA,000005.60,3347.9537,S,15052.5838,E,4,18,0.6,30.0,M,46.9,M,,*50
$GNRMC,000005.60,A,3347.9537,S,15052.5838,E,117.2,163.2,010126,,*3A
$GNGGA,000005.70,3347.9527,S,15052.5800,E,4,18,0.6,30.0,M,46.9,M,,*5B
$GNRMC,000005.70,A,3347.9527,S,15052.5800,E,117.2,163.2,010126,,*31
$GNGGA,000005.80,3347.9518,S,15052.5763,E,4,18,0.6,30.0,M,46.9,M,,*52
$GNRMC,000005.80,A,3347.9518,S,15052.5763,E,117.2,163.2,010126,,*38
$GNGGA,000005.90,3347.9508,S,15052.5726,E,4,18,0.6,30.0,M,46.9,M,,*53
$GNRMC,000005.90,A,3347.9508,S,15052.5726,E,117.2,163.2,010126,,*39
$GNGGA,000006.00,3347.9499,S,15052.5688,E,4,18,0.6,30.0,M,46.9,M,,*55
$GNRMC,000006.00,A,3347.9499,S,15052.5688,E,117.2,163.2,010126,,*3F
$GNGGA,000006.10,3347.9490,S,15052.5651,E,4,18,0.6,30.0,M,46.9,M,,*59
$GNRMC,000006.10,A,3347.9490,S,15052.5651,E,117.2,163.2,010126,,*33
$GNGGA,000006.20,3347.9480,S,15052.5613,E,4,18,0.6,30.0,M,46.9,M,,*5D
$GNRMC,000006.20,A,3347.9480,S,15052.5613,E,117.2,163.2,010126,,*37
$GNGGA,000006.30,3347.9471,S,15052.5576,E,4,18,0.6,30.0,M,46.9,M,,*52
$GNRMC,000006.30,A,3347.9471,S,15052.5576,E,117.2,163.2,010126,,*38
$GNGGA,000006.40,3347.9462,S,15052.5538,E,4,18,0.6,30.0,M,46.9,M,,*5D
$GNRMC,000006.40,A,3347.9462,S,15052.5538,E,117.2,165.3,010126,,*30
$GNGGA,000006.50,3347.9454,S,15052.5500,E,4,18,0.6,30.0,M,46.9,M,,*52
$GNRMC,000006.50,A,3347.9454,S,15052.5500,E,117.2,165.3,010126,,*3F
$GNGGA,000006.60,3347.9446,S,15052.5462,E,4,18,0.6,30.0,M,46.9,M,,*57
$GNRMC,000006.60,A,3347.9446,S,15052.5462,E,117.2,165.3,010126,,*3A
$GNGGA,000006.70,3347.9438,S,15052.5424,E,4,18,0.6,30.0,M,46.9,M,,*5D
$GNRMC,000006.70,A,3347.9438,S,15052.5424,E,117.2,165.3,010126,,*30
$GNGGA,000006.80,3347.9429,S,15052.5386,E,4,18,0.6,30.0,M,46.9,M,,*5D
$GNRMC,000006.80,A,3347.9429,S,15052.5386,E,117.2,165.3,010126,,*30
$GNGGA,000006.90,3347.9421,S,15052.5348,E,4,18,0.6,30.0,M,46.9,M,,*56
$GNRMC,000006.90,A,3347.9421,S,15052.5348,E,117.1,165.3,010126,,*38
$GNGGA,000007.00,3347.9413,S,15052.5311,E,4,18,0.6,30.0,M,46.9,M,,*53
$GNRMC,000007.00,A,3347.9413,S,15052.5311,E,117.1,165.3,010126,,*3D
$GNGGA,000007.10,3347.9405,S,15052.5273,E,4,18,0.6,30.0,M,46.9,M,,*50
$GNRMC,000007.10,A,3347.9405,S,15052.5273,E,117.1,165.3,010126,,*3E
$GNGGA,000007.20,3347.9397,S,15052.5235,E,4,18,0.6,30.0,M,46.9,M,,*5D
$GNRMC,000007.20,A,3347.9397,S,15052.5235,E,117.1,167.3,010126,,*31
$GNGGA,000007.30,3347.9390,S,15052.5197,E,4,18,0.6,30.0,M,46.9,M,,*50
$GNRMC,000007.30,A,3347.9390,S,15052.5197,E,117.1,167.3,010126,,*3C
$GNGGA,000007.40,3347.9383,S,15052.5158,E,4,18,0.6,30.0,M,46.9,M,,*56
$GNRMC,000007.40,A,3347.9383,S,15052.5158,E,117.1,167.3,010126,,*3A
$GNGGA,000007.50,3347.9376,S,15052.5120,E,4,18,0.6,30.0,M,46.9,M,,*52
$GNRMC,000007.50,A,3347.9376,S,15052.5120,E,117.0,167.3,010126,,*3F
$GNGGA,000007.60,3347.9369,S,15052.5082,E,4,18,0.6,30.0,M,46.9,M,,*56
$GNRMC,000007.60,A,3347.9369,S,15052.5082,E,117.0,167.3,010126,,*3B
$GNGGA,000007.70,3347.9361,S,15052.5044,E,4,18,0.6,30.0,M,46.9,M,,*55
$GNRMC,000007.70,A,3347.9361,S,15052.5044,E,117.0,167.3,010126,,*38
$GNGGA,000007.80,3347.9354,S,15052.5006,E,4,18,0.6,30.0,M,46.9,M,,*5A
$GNRMC,000007.80,A,3347.9354,S,15052.5006,E,116.9,167.3,010126,,*3F
$GNGGA,000007.90,3347.9347,S,15052.4968,E,4,18,0.6,30.0,M,46.9,M,,*59
$GNRMC,000007.90,A,3347.9347,S,15052.4968,E,116.9,167.3,010126,,*3C
$GNGGA,000008.00,3347.9340,S,15052.4930,E,4,18,0.6,30.0,M,46.9,M,,*55
$GNRMC,000008.00,A,3347.9340,S,15052.4930,E,116.9,169.2,010126,,*3F
$GNGGA,000008.10,3347.9334,S,15052.4891,E,4,18,0.6,30.0,M,46.9,M,,*5D
$GNRMC,000008.10,A,3347.9334,S,15052.4891,E,116.8,169.2,010126,,*36
$GNGGA,000008.20,3347.9328,S,15052.4853,E,4,18,0.6,30.0,M,46.9,M,,*5D
$GNRMC,000008.20,A,3347.9328,S,15052.4853,E,116.8,169.2,010126,,*36
$GNGGA,000008.30,3347.9322,S,15052.4815,E,4,18,0.6,30.0,M,46.9,M,,*54
$GNRMC,000008.30,A,3347.9322,S,15052.4815,E,116.8,169.2,010126,,*3F
$GNGGA,000008.40,3347.9316,S,15052.4776,E,4,18,0.6,30.0,M,46.9,M,,*5E
$GNRMC,000008.40,A,3347.9316,S,15052.4776,E,116.7,169.2,010126,,*3A
$GNGGA,000008.50,3347.9310,S,15052.4738,E,4,18,0.6,30.0,M,46.9,M,,*53
$GNRMC,000008.50,A,3347.9310,S,15052.4738,E,116.7,169.2,010126,,*37
$GNGGA,000008.60,3347.9304,S,15052.4700,E,4,18,0.6,30.0,M,46.9,M,,*5E
$GNRMC,000008.60,A,3347.9304,S,15052.4700,E,116.6,169.2,010126,,*3B
$GNGGA,000008.70,3347.9298,S,15052.4661,E,4,18,0.6,30.0,M,46.9,M,,*5D
$GNRMC,000008.70,A,3347.9298,S,15052.4661,E,116.6,169.2,010126,,*38
$GNGGA,000008.80,3347.9292,S,15052.4623,E,4,18,0.6,30.0,M,46.9,M,,*5E
$GNRMC,000008.80,A,3347.9292,S,15052.4623,E,116.5,169.2,010126,,*38
$GNGGA,000008.90,3347.9287,S,15052.4585,E,4,18,0.6,30.0,M,46.9,M,,*54
$GNRMC,000008.90,A,3347.9287,S,15052.4585,E,116.5,171.0,010126,,*39
$GNGGA,000009.00,3347.9282,S,15052.4546,E,4,18,0.6,30.0,M,46.9,M,,*56
$GNRMC,000009.00,A,3347.9282,S,15052.4546,E,116.4,171.0,010126,,*3A
$GNGGA,000009.10,3347.9277,S,15052.4508,E,4,18,0.6,30.0,M,46.9,M,,*57
$GNRMC,000009.10,A,3347.9277,S,15052.4508,E,116.4,171.0,010126,,*3B
$GNGGA,000009.20,3347.9272,S,15052.4469,E,4,18,0.6,30.0,M,46.9,M,,*57
$GNRMC,000009.20,A,3347.9272,S,15052.4469,E,116.3,171.0,010126,,*3C
$GNGGA,000009.30,3347.9267,S,15052.4431,E,4,18,0.6,30.0,M,46.9,M,,*5F
$GNRMC,000009.30,A,3347.9267,S,15052.4431,E,116.3,171.0,010126,,*34
$GNGGA,000009.40,3347.9261,S,15052.4393,E,4,18,0.6,30.0,M,46.9,M,,*51
$GNRMC,000009.40,A,3347.9261,S,15052.4393,E,116.2,171.0,010126,,*3B
$GNGGA,000009.50,3347.9256,S,15052.4354,E,4,18,0.6,30.0,M,46.9,M,,*5F
$GNRMC,000009.50,A,3347.9256,S,15052.4354,E,116.2,171.0,010126,,*35
$GNGGA,000009.60,3347.9251,S,15052.4316,E,4,18,0.6,30.0,M,46.9,M,,*5D
$GNRMC,000009.60,A,3347.9251,S,15052.4316,E,116.1,171.0,010126,,*34
$GNGGA,000009.70,3347.9247,S,15052.4278,E,4,18,0.6,30.0,M,46.9,M,,*52
$GNRMC,000009.70,A,3347.9247,S,15052.4278,E,116.1,172.7,010126,,*3F
$GNGGA,000009.80,3347.9243,S,15052.4239,E,4,18,0.6,30.0,M,46.9,M,,*5C
$GNRMC,000009.80,A,3347.9243,S,15052.4239,E,116.0,172.7,010126,,*30
$GNGGA,000009.90,3347.9238,S,15052.4201,E,4,18,0.6,30.0,M,46.9,M,,*5A
$GNRMC,000009.90,A,3347.9238,S,15052.4201,E,115.9,172.7,010126,,*3C
$GNGGA,000010.00,3347.9234,S,15052.4162,E,4,18,0.6,30.0,M,46.9,M,,*51
$GNRMC,000010.00,A,3347.9234,S,15052.4162,E,115.9,172.7,010126,,*37
$GNGGA,000010.10,3347.9230,S,15052.4124,E,4,18,0.6,30.0,M,46.9,M,,*56
$GNRMC,000010.10,A,3347.9230,S,15052.4124,E,115.8,172.7,010126,,*31
$GNGGA,000010.20,3347.9226,S,15052.4086,E,4,18,0.6,30.0,M,46.9,M,,*5B
$GNRMC,000010.20,A,3347.9226,S,15052.4086,E,115.7,172.7,010126,,*33
$GNGGA,000010.30,3347.9222,S,15052.4047,E,4,18,0.6,30.0,M,46.9,M,,*53
$GNRMC,000010.30,A,3347.9222,S,15052.4047,E,115.7,172.7,010126,,*3B
$GNGGA,000010.40,3347.9218,S,15052.4009,E,4,18,0.6,30.0,M,46.9,M,,*57
$GNRMC,000010.40,A,3347.9218,S,15052.4009,E,115.6,172.7,010126,,*3E
$GNGGA,000010.50,3347.9214,S,15052.3971,E,4,18,0.6,30.0,M,46.9,M,,*5B
$GNRMC,000010.50,A,3347.9214,S,15052.3971,E,115.5,172.7,010126,,*31
$GNGGA,000010.60,3347.9210,S,15052.3932,E,4,18,0.6,30.0,M,46.9,M,,*5B
$GNRMC,000010.60,A,3347.9210,S,15052.3932,E,115.5,174.4,010126,,*34
$GNGGA,000010.70,3347.9207,S,15052.3894,E,4,18,0.6,30.0,M,46.9,M,,*51
$GNRMC,000010.70,A,3347.9207,S,15052.3894,E,115.4,174.4,010126,,*3F
$GNGGA,000010.80,3347.9204,S,15052.3855,E,4,18,0.6,30.0,M,46.9,M,,*50
$GNRMC,000010.80,A,3347.9204,S,15052.3855,E,115.3,174.4,010126,,*39
$GNGGA,000010.90,3347.9201,S,15052.3817,E,4,18,0.6,30.0,M,46.9,M,,*52
$GNRMC,000010.90,A,3347.9201,S,15052.3817,E,115.2,174.4,010126,,*3A
$GNGGA,000011.00,3347.9198,S,15052.3779,E,4,18,0.6,30.0,M,46.9,M,,*5E
$GNRMC,000011.00,A,3347.9198,S,15052.3779,E,115.2,174.4,010126,,*36
$GNGGA,000011.10,3347.9195,S,15052.3741,E,4,18,0.6,30.0,M,46.9,M,,*59
$GNRMC,000011.10,A,3347.9195,S,15052.3741,E,115.1,174.4,010126,,*32
$GNGGA,000011.20,3347.9192,S,15052.3702,E,4,18,0.6,30.0,M,46.9,M,,*5A
$GNRMC,000011.20,A,3347.9192,S,15052.3702,E,115.0,174.4,010126,,*30
$GNGGA,000011.30,3347.9188,S,15052.3664,E,4,18,0.6,30.0,M,46.9,M,,*51
$GNRMC,000011.30,A,3347.9188,S,15052.3664,E,114.9,174.4,010126,,*33
$GNGGA,000011.40,3347.9185,S,15052.3626,E,4,18,0.6,30.0,M,46.9,M,,*5D
$GNRMC,000011.40,A,3347.9185,S,15052.3626,E,114.9,174.4,010126,,*3F
$GNGGA,000011.50,3347.9183,S,15052.3588,E,4,18,0.6,30.0,M,46.9,M,,*5D
$GNRMC,000011.50,A,3347.9183,S,15052.3588,E,114.8,176.0,010126,,*38
$GNGGA,000011.60,3347.9180,S,15052.3549,E,4,18,0.6,30.0,M,46.9,M,,*50
$GNRMC,000011.60,A,3347.9180,S,15052.3549,E,114.7,176.0,010126,,*3A
$GNGGA,000011.70,3347.9178,S,15052.3511,E,4,18,0.6,30.0,M,46.9,M,,*5B
$GNRMC,000011.70,A,3347.9178,S,15052.3511,E,114.6,176.0,010126,,*30
$GNGGA,000011.80,3347.9176,S,15052.3473,E,4,18,0.6,30.0,M,46.9,M,,*5F
$GNRMC,000011.80,A,3347.9176,S,15052.3473,E,114.5,176.0,010126,,*37
$GNGGA,000011.90,3347.9174,S,15052.3435,E,4,18,0.6,30.0,M,46.9,M,,*5E
$GNRMC,000011.90,A,3347.9174,S,15052.3435,E,114.4,176.0,010126,,*37
$GNGGA,000012.00,3347.9172,S,15052.3397,E,4,18,0.6,30.0,M,46.9,M,,*5D
$GNRMC,000012.00,A,3347.9172,S,15052.3397,E,114.4,176.0,010126,,*34
$GNGGA,000012.10,3347.9169,S,15052.3359,E,4,18,0.6,30.0,M,46.9,M,,*54
$GNRMC,000012.10,A,3347.9169,S,15052.3359,E,114.3,176.0,010126,,*3A
$GNGGA,000012.20,3347.9167,S,15052.3320,E,4,18,0.6,30.0,M,46.9,M,,*57
$GNRMC,000012.20,A,3347.9167,S,15052.3320,E,114.2,176.0,010126,,*38
$GNGGA,000012.30,3347.9165,S,15052.3282,E,4,18,0.6,30.0,M,46.9,M,,*5D
$GNRMC,000012.30,A,3347.9165,S,15052.3282,E,114.1,176.0,010126,,*31
$GNGGA,000012.40,3347.9163,S,15052.3244,E,4,18,0.6,30.0,M,46.9,M,,*56
$GNRMC,000012.40,A,3347.9163,S,15052.3244,E,114.0,177.6,010126,,*3C
$GNGGA,000012.50,3347.9162,S,15052.3206,E,4,18,0.6,30.0,M,46.9,M,,*50
$GNRMC,000012.50,A,3347.9162,S,15052.3206,E,113.9,177.6,010126,,*34
$GNGGA,000012.60,3347.9160,S,15052.3168,E,4,18,0.6,30.0,M,46.9,M,,*5A
$GNRMC,000012.60,A,3347.9160,S,15052.3168,E,113.8,177.6,010126,,*3F
$GNGGA,000012.70,3347.9159,S,15052.3130,E,4,18,0.6,30.0,M,46.9,M,,*5C
$GNRMC,000012.70,A,3347.9159,S,15052.3130,E,113.8,177.6,010126,,*39
$GNGGA,000012.80,3347.9158,S,15052.3092,E,4,18,0.6,30.0,M,46.9,M,,*5B
$GNRMC,000012.80,A,3347.9158,S,15052.3092,E,113.7,177.6,010126,,*31
$GNGGA,000012.90,3347.9156,S,15052.3054,E,4,18,0.6,30.0,M,46.9,M,,*5E
$GNRMC,000012.90,A,3347.9156,S,15052.3054,E,113.6,177.6,010126,,*35
$GNGGA,000013.00,3347.9155,S,15052.3016,E,4,18,0.6,30.0,M,46.9,M,,*53
$GNRMC,000013.00,A,3347.9155,S,15052.3016,E,113.5,177.6,010126,,*3B
$GNGGA,000013.10,3347.9154,S,15052.2979,E,4,18,0.6,30.0,M,46.9,M,,*52
$GNRMC,000013.10,A,3347.9154,S,15052.2979,E,113.4,177.6,010126,,*3B
$GNGGA,000013.20,3347.9152,S,15052.2941,E,4,18,0.6,30.0,M,46.9,M,,*5C
$GNRMC,000013.20,A,3347.9152,S,15052.2941,E,113.3,177.6,010126,,*32
$GNGGA,000013.30,3347.9151,S,15052.2903,E,4,18,0.6,30.0,M,46.9,M,,*58
$GNRMC,000013.30,A,3347.9151,S,15052.2903,E,113.2,177.6,010126,,*37
$GNGGA,000013.40,3347.9150,S,15052.2865,E,4,18,0.6,30.0,M,46.9,M,,*5F
$GNRMC,000013.40,A,3347.9150,S,15052.2865,E,113.1,179.2,010126,,*39
$GNGGA,000013.50,3347.9150,S,15052.2827,E,4,18,0.6,30.0,M,46.9,M,,*58
$GNRMC,000013.50,A,3347.9150,S,15052.2827,E,113.0,179.2,010126,,*3F
$GNGGA,000013.60,3347.9150,S,15052.2790,E,4,18,0.6,30.0,M,46.9,M,,*58
$GNRMC,000013.60,A,3347.9150,S,15052.2790,E,113.0,179.2,010126,,*3F
$GNGGA,000013.70,3347.9149,S,15052.2752,E,4,18,0.6,30.0,M,46.9,M,,*5F
$GNRMC,000013.70,A,3347.9149,S,15052.2752,E,112.9,179.2,010126,,*30
$GNGGA,000013.80,3347.9149,S,15052.2714,E,4,18,0.6,30.0,M,46.9,M,,*52
$GNRMC,000013.80,A,3347.9149,S,15052.2714,E,112.8,179.2,010126,,*3C
$GNGGA,000013.90,3347.9148,S,15052.2676,E,4,18,0.6,30.0,M,46.9,M,,*57
$GNRMC,000013.90,A,3347.9148,S,15052.2676,E,112.7,179.2,010126,,*36
$GNGGA,000014.00,3347.9148,S,15052.2639,E,4,18,0.6,30.0,M,46.9,M,,*52
$GNRMC,000014.00,A,3347.9148,S,15052.2639,E,112.6,179.2,010126,,*32
$GNGGA,000014.10,3347.9147,S,15052.2601,E,4,18,0.6,30.0,M,46.9,M,,*57
$GNRMC,000014.10,A,3347.9147,S,15052.2601,E,112.5,179.2,010126,,*34
$GNGGA,000014.20,3347.9147,S,15052.2564,E,4,18,0.6,30.0,M,46.9,M,,*54
$GNRMC,000014.20,A,3347.9147,S,15052.2564,E,112.4,179.2,010126,,*36
$GNGGA,000014.30,3347.9147,S,15052.2526,E,4,18,0.6,30.0,M,46.9,M,,*53
$GNRMC,000014.30,A,3347.9147,S,15052.2526,E,112.3,180.8,010126,,*3A
$GNGGA,000014.40,3347.9147,S,15052.2489,E,4,18,0.6,30.0,M,46.9,M,,*50
$GNRMC,000014.40,A,3347.9147,S,15052.2489,E,112.2,180.8,010126,,*38
$GNGGA,000014.50,3347.9148,S,15052.2451,E,4,18,0.6,30.0,M,46.9,M,,*5B
$GNRMC,000014.50,A,3347.9148,S,15052.2451,E,112.1,180.8,010126,,*30
$GNGGA,000014.60,3347.9148,S,15052.2414,E,4,18,0.6,30.0,M,46.9,M,,*59
$GNRMC,000014.60,A,3347.9148,S,15052.2414,E,112.0,180.8,010126,,*33
$GNGGA,000014.70,3347.9149,S,15052.2376,E,4,18,0.6,30.0,M,46.9,M,,*5A
$GNRMC,000014.70,A,3347.9149,S,15052.2376,E,112.0,180.8,010126,,*30
$GNGGA,000014.80,3347.9149,S,15052.2339,E,4,18,0.6,30.0,M,46.9,M,,*5E
$GNRMC,000014.80,A,3347.9149,S,15052.2339,E,111.9,180.8,010126,,*3E
$GNGGA,000014.90,3347.9149,S,15052.2301,E,4,18,0.6,30.0,M,46.9,M,,*54
$GNRMC,000014.90,A,3347.9149,S,15052.2301,E,111.8,180.8,010126,,*35
$GNGGA,000015.00,3347.9150,S,15052.2264,E,4,18,0.6,30.0,M,46.9,M,,*56
$GNRMC,000015.00,A,3347.9150,S,15052.2264,E,111.7,180.8,010126,,*38
$GNGGA,000015.10,3347.9150,S,15052.2227,E,4,18,0.6,30.0,M,46.9,M,,*50
$GNRMC,000015.10,A,3347.9150,S,15052.2227,E,111.6,180.8,010126,,*3F
$GNGGA,000015.20,3347.9151,S,15052.2190,E,4,18,0.6,30.0,M,46.9,M,,*5D
$GNRMC,000015.20,A,3347.9151,S,15052.2190,E,111.5,180.8,010126,,*31
$GNGGA,000015.30,3347.9152,S,15052.2152,E,4,18,0.6,30.0,M,46.9,M,,*51
$GNRMC,000015.30,A,3347.9152,S,15052.2152,E,111.4,182.4,010126,,*32
$GNGGA,000015.40,3347.9153,S,15052.2115,E,4,18,0.6,30.0,M,46.9,M,,*54
$GNRMC,000015.40,A,3347.9153,S,15052.2115,E,111.3,182.4,010126,,*30
$GNGGA,000015.50,3347.9154,S,15052.2078,E,4,18,0.6,30.0,M,46.9,M,,*58
$GNRMC,000015.50,A,3347.9154,S,15052.2078,E,111.2,182.4,010126,,*3D
$GNGGA,000015.60,3347.9156,S,15052.2041,E,4,18,0.6,30.0,M,46.9,M,,*53
$GNRMC,000015.60,A,3347.9156,S,15052.2041,E,111.2,182.4,010126,,*36
$GNGGA,000015.70,3347.9157,S,15052.2004,E,4,18,0.6,30.0,M,46.9,M,,*52
$GNRMC,000015.70,A,3347.9157,S,15052.2004,E,111.1,182.4,010126,,*34
$GNGGA,000015.80,3347.9158,S,15052.1967,E,4,18,0.6,30.0,M,46.9,M,,*5D
$GNRMC,000015.80,A,3347.9158,S,15052.1967,E,111.0,182.4,010126,,*3A
$GNGGA,000015.90,3347.9160,S,15052.1930,E,4,18,0.6,30.0,M,46.9,M,,*55
$GNRMC,000015.90,A,3347.9160,S,15052.1930,E,110.9,182.4,010126,,*3A
$GNGGA,000016.00,3347.9161,S,15052.1893,E,4,18,0.6,30.0,M,46.9,M,,*56
$GNRMC,000016.00,A,3347.9161,S,15052.1893,E,110.8,182.4,010126,,*38
$GNGGA,000016.10,3347.9162,S,15052.1856,E,4,18,0.6,30.0,M,46.9,M,,*5D
$GNRMC,000016.10,A,3347.9162,S,15052.1856,E,110.7,182.4,010126,,*3C
$GNGGA,000016.20,3347.9164,S,15052.1819,E,4,18,0.6,30.0,M,46.9,M,,*53
$GNRMC,000016.20,A,3347.9164,S,15052.1819,E,110.6,184.0,010126,,*31
$GNGGA,000016.30,3347.9166,S,15052.1782,E,4,18,0.6,30.0,M,46.9,M,,*5D
$GNRMC,000016.30,A,3347.9166,S,15052.1782,E,110.6,184.0,010126,,*3F
$GNGGA,000016.40,3347.9168,S,15052.1745,E,4,18,0.6,30.0,M,46.9,M,,*5F
$GNRMC,000016.40,A,3347.9168,S,15052.1745,E,110.5,184.0,010126,,*3E
$GNGGA,000016.50,3347.9170,S,15052.1708,E,4,18,0.6,30.0,M,46.9,M,,*5E
$GNRMC,000016.50,A,3347.9170,S,15052.1708,E,110.4,184.0,010126,,*3E
$GNGGA,000016.60,3347.9172,S,15052.1671,E,4,18,0.6,30.0,M,46.9,M,,*50
$GNRMC,000016.60,A,3347.9172,S,15052.1671,E,110.3,184.0,010126,,*37
$GNGGA,000016.70,3347.9174,S,15052.1635,E,4,18,0.6,30.0,M,46.9,M,,*57
$GNRMC,000016.70,A,3347.9174,S,15052.1635,E,110.2,184.0,010126,,*31
$GNGGA,000016.80,3347.9176,S,15052.1598,E,4,18,0.6,30.0,M,46.9,M,,*5E
$GNRMC,000016.80,A,3347.9176,S,15052.1598,E,110.2,184.0,010126,,*38
$GNGGA,000016.90,3347.9179,S,15052.1561,E,4,18,0.6,30.0,M,46.9,M,,*56
$GNRMC,000016.90,A,3347.9179,S,15052.1561,E,110.1,184.0,010126,,*33
$GNGGA,000017.00,3347.9181,S,15052.1524,E,4,18,0.6,30.0,M,46.9,M,,*58
$GNRMC,000017.00,A,3347.9181,S,15052.1524,E,110.0,184.0,010126,,*3C
$GNGGA,000017.10,3347.9183,S,15052.1488,E,4,18,0.6,30.0,M,46.9,M,,*5C
$GNRMC,000017.10,A,3347.9183,S,15052.1488,E,109.9,184.0,010126,,*39
$GNGGA,000017.20,3347.9186,S,15052.1451,E,4,18,0.6,30.0,M,46.9,M,,*5E
$GNRMC,000017.20,A,3347.9186,S,15052.1451,E,109.8,185.6,010126,,*3D
$GNGGA,000017.30,3347.9189,S,15052.1415,E,4,18,0.6,30.0,M,46.9,M,,*50
$GNRMC,000017.30,A,3347.9189,S,15052.1415,E,109.8,185.6,010126,,*33
$GNGGA,000017.40,3347.9192,S,15052.1378,E,4,18,0.6,30.0,M,46.9,M,,*51
$GNRMC,000017.40,A,3347.9192,S,15052.1378,E,109.7,185.6,010126,,*3D
$GNGGA,000017.50,3347.9195,S,15052.1342,E,4,18,0.6,30.0,M,46.9,M,,*5E
$GNRMC,000017.50,A,3347.9195,S,15052.1342,E,109.6,185.6,010126,,*33
$GNGGA,000017.60,3347.9197,S,15052.1305,E,4,18,0.6,30.0,M,46.9,M,,*5C
$GNRMC,000017.60,A,3347.9197,S,15052.1305,E,109.6,185.6,010126,,*31
$GNGGA,000017.70,3347.9200,S,15052.1269,E,4,18,0.6,30.0,M,46.9,M,,*5B
$GNRMC,000017.70,A,3347.9200,S,15052.1269,E,109.5,185.6,010126,,*35
$GNGGA,000017.80,3347.9203,S,15052.1232,E,4,18,0.6,30.0,M,46.9,M,,*59
$GNRMC,000017.80,A,3347.9203,S,15052.1232,E,109.4,185.6,010126,,*36
$GNGGA,000017.90,3347.9206,S,15052.1196,E,4,18,0.6,30.0,M,46.9,M,,*50
$GNRMC,000017.90,A,3347.9206,S,15052.1196,E,109.3,185.6,010126,,*38
$GNGGA,000018.00,3347.9209,S,15052.1160,E,4,18,0.6,30.0,M,46.9,M,,*50
$GNRMC,000018.00,A,3347.9209,S,15052.1160,E,109.3,185.6,010126,,*38
$GNGGA,000018.10,3347.9213,S,15052.1123,E,4,18,0.6,30.0,M,46.9,M,,*5D
$GNRMC,000018.10,A,3347.9213,S,15052.1123,E,109.2,187.3,010126,,*33
$GNGGA,000018.20,3347.9216,S,15052.1087,E,4,18,0.6,30.0,M,46.9,M,,*54
$GNRMC,000018.20,A,3347.9216,S,15052.1087,E,109.1,187.3,010126,,*39
$GNGGA,000018.30,3347.9220,S,15052.1051,E,4,18,0.6,30.0,M,46.9,M,,*5B
$GNRMC,000018.30,A,3347.9220,S,15052.1051,E,109.1,187.3,010126,,*36
$GNGGA,000018.40,3347.9224,S,15052.1015,E,4,18,0.6,30.0,M,46.9,M,,*58
$GNRMC,000018.40,A,3347.9224,S,15052.1015,E,109.0,187.3,010126,,*34
$GNGGA,000018.50,3347.9228,S,15052.0979,E,4,18,0.6,30.0,M,46.9,M,,*57
$GNRMC,000018.50,A,3347.9228,S,15052.0979,E,108.9,187.3,010126,,*33
$GNGGA,000018.60,3347.9232,S,15052.0943,E,4,18,0.6,30.0,M,46.9,M,,*56
$GNRMC,000018.60,A,3347.9232,S,15052.0943,E,108.9,187.3,010126,,*32
$GNGGA,000018.70,3347.9236,S,15052.0907,E,4,18,0.6,30.0,M,46.9,M,,*53
$GNRMC,000018.70,A,3347.9236,S,15052.0907,E,108.8,187.3,010126,,*36
$GNGGA,000018.80,3347.9239,S,15052.0871,E,4,18,0.6,30.0,M,46.9,M,,*53
$GNRMC,000018.80,A,3347.9239,S,15052.0871,E,108.8,187.3,010126,,*36
$GNGGA,000018.90,3347.9243,S,15052.0835,E,4,18,0.6,30.0,M,46.9,M,,*5F
$GNRMC,000018.90,A,3347.9243,S,15052.0835,E,108.7,187.3,010126,,*35
$GNGGA,000019.00,3347.9247,S,15052.0799,E,4,18,0.6,30.0,M,46.9,M,,*5A
$GNRMC,000019.00,A,3347.9247,S,15052.0799,E,108.6,187.3,010126,,*31
$GNGGA,000019.10,3347.9252,S,15052.0763,E,4,18,0.6,30.0,M,46.9,M,,*5A
$GNRMC,000019.10,A,3347.9252,S,15052.0763,E,108.6,189.0,010126,,*3C
$GNGGA,000019.20,3347.9256,S,15052.0727,E,4,18,0.6,30.0,M,46.9,M,,*5D
$GNRMC,000019.20,A,3347.9256,S,15052.0727,E,108.5,189.0,010126,,*38
$GNGGA,000019.30,3347.9261,S,15052.0691,E,4,18,0.6,30.0,M,46.9,M,,*54
$GNRMC,000019.30,A,3347.9261,S,15052.0691,E,108.5,189.0,010126,,*31
$GNGGA,000019.40,3347.9266,S,15052.0655,E,4,18,0.6,30.0,M,46.9,M,,*5C
$GNRMC,000019.40,A,3347.9266,S,15052.0655,E,108.4,189.0,010126,,*38
$GNGGA,000019.50,3347.9270,S,15052.0619,E,4,18,0.6,30.0,M,46.9,M,,*52
$GNRMC,000019.50,A,3347.9270,S,15052.0619,E,108.4,189.0,010126,,*36
$GNGGA,000019.60,3347.9275,S,15052.0584,E,4,18,0.6,30.0,M,46.9,M,,*53
$GNRMC,000019.60,A,3347.9275,S,15052.0584,E,108.3,189.0,010126,,*30
$GNGGA,000019.70,3347.9280,S,15052.0548,E,4,18,0.6,30.0,M,46.9,M,,*58
$GNRMC,000019.70,A,3347.9280,S,15052.0548,E,108.3,189.0,010126,,*3B
$GNGGA,000019.80,3347.9285,S,15052.0512,E,4,18,0.6,30.0,M,46.9,M,,*5D
$GNRMC,000019.80,A,3347.9285,S,15052.0512,E,108.2,189.0,010126,,*3F
$GNGGA,000019.90,3347.9289,S,15052.0476,E,4,18,0.6,30.0,M,46.9,M,,*53
$GNRMC,000019.90,A,3347.9289,S,15052.0476,E,108.2,189.0,010126,,*31
$GNGGA,000020.00,3347.9294,S,15052.0441,E,4,18,0.6,30.0,M,46.9,M,,*58
$GNRMC,000020.00,A,3347.9294,S,15052.0441,E,108.1,190.8,010126,,*39
$GNGGA,000020.10,3347.9300,S,15052.0405,E,4,18,0.6,30.0,M,46.9,M,,*55
$GNRMC,000020.10,A,3347.9300,S,15052.0405,E,108.1,190.8,010126,,*34
$GNGGA,000020.20,3347.9306,S,15052.0370,E,4,18,0.6,30.0,M,46.9,M,,*55
$GNRMC,000020.20,A,3347.9306,S,15052.0370,E,108.1,190.8,010126,,*34
$GNGGA,000020.30,3347.9311,S,15052.0334,E,4,18,0.6,30.0,M,46.9,M,,*52
$GNRMC,000020.30,A,3347.9311,S,15052.0334,E,108.0,190.8,010126,,*32
$GNGGA,000020.40,3347.9317,S,15052.0299,E,4,18,0.6,30.0,M,46.9,M,,*55
$GNRMC,000020.40,A,3347.9317,S,15052.0299,E,108.0,190.8,010126,,*35
$GNGGA,000020.50,3347.9323,S,15052.0264,E,4,18,0.6,30.0,M,46.9,M,,*51
$GNRMC,000020.50,A,3347.9323,S,15052.0264,E,107.9,190.8,010126,,*37
$GNGGA,000020.60,3347.9328,S,15052.0228,E,4,18,0.6,30.0,M,46.9,M,,*51
$GNRMC,000020.60,A,3347.9328,S,15052.0228,E,107.9,190.8,010126,,*37
$GNGGA,000020.70,3347.9334,S,15052.0193,E,4,18,0.6,30.0,M,46.9,M,,*5E
$GNRMC,000020.70,A,3347.9334,S,15052.0193,E,107.9,190.8,010126,,*38
$GNGGA,000020.80,3347.9339,S,15052.0157,E,4,18,0.6,30.0,M,46.9,M,,*54
$GNRMC,000020.80,A,3347.9339,S,15052.0157,E,107.8,190.8,010126,,*33
$GNGGA,000020.90,3347.9345,S,15052.0122,E,4,18,0.6,30.0,M,46.9,M,,*5C
$GNRMC,000020.90,A,3347.9345,S,15052.0122,E,107.8,192.7,010126,,*36
$GNGGA,000021.00,3347.9352,S,15052.0087,E,4,18,0.6,30.0,M,46.9,M,,*5C
$GNRMC,000021.00,A,3347.9352,S,15052.0087,E,107.8,192.7,010126,,*36
$GNGGA,000021.10,3347.9358,S,15052.0052,E,4,18,0.6,30.0,M,46.9,M,,*5F
$GNRMC,000021.10,A,3347.9358,S,15052.0052,E,107.8,192.7,010126,,*35
$GNGGA,000021.20,3347.9365,S,15052.0017,E,4,18,0.6,30.0,M,46.9,M,,*53
$GNRMC,000021.20,A,3347.9365,S,15052.0017,E,107.7,192.7,010126,,*36
$GNGGA,000021.30,3347.9372,S,15051.9982,E,4,18,0.6,30.0,M,46.9,M,,*5B
$GNRMC,000021.30,A,3347.9372,S,15051.9982,E,107.7,192.7,010126,,*3E
$GNGGA,000021.40,3347.9378,S,15051.9946,E,4,18,0.6,30.0,M,46.9,M,,*5E
$GNRMC,000021.40,A,3347.9378,S,15051.9946,E,107.7,192.7,010126,,*3B
$GNGGA,000021.50,3347.9385,S,15051.9911,E,4,18,0.6,30.0,M,46.9,M,,*5F
$GNRMC,000021.50,A,3347.9385,S,15051.9911,E,107.7,192.7,010126,,*3A
$GNGGA,000021.60,3347.9391,S,15051.9876,E,4,18,0.6,30.0,M,46.9,M,,*59
$GNRMC,000021.60,A,3347.9391,S,15051.9876,E,107.6,192.7,010126,,*3D
$GNGGA,000021.70,3347.9398,S,15051.9841,E,4,18,0.6,30.0,M,46.9,M,,*55
$GNRMC,000021.70,A,3347.9398,S,15051.9841,E,107.6,192.7,010126,,*31
$GNGGA,000021.80,3347.9405,S,15051.9806,E,4,18,0.6,30.0,M,46.9,M,,*5A
$GNRMC,000021.80,A,3347.9405,S,15051.9806,E,107.6,194.7,010126,,*38
$GNGGA,000021.90,3347.9412,S,15051.9772,E,4,18,0.6,30.0,M,46.9,M,,*51
$GNRMC,000021.90,A,3347.9412,S,15051.9772,E,107.6,194.7,010126,,*33
$GNGGA,000022.00,3347.9420,S,15051.9737,E,4,18,0.6,30.0,M,46.9,M,,*5B
$GNRMC,000022.00,A,3347.9420,S,15051.9737,E,107.6,194.7,010126,,*39
$GNGGA,000022.10,3347.9427,S,15051.9702,E,4,18,0.6,30.0,M,46.9,M,,*5B
$GNRMC,000022.10,A,3347.9427,S,15051.9702,E,107.5,194.7,010126,,*3A
$GNGGA,000022.20,3347.9435,S,15051.9667,E,4,18,0.6,30.0,M,46.9,M,,*59
$GNRMC,000022.20,A,3347.9435,S,15051.9667,E,107.5,194.7,010126,,*38
$GNGGA,000022.30,3347.9443,S,15051.9632,E,4,18,0.6,30.0,M,46.9,M,,*59
$GNRMC,000022.30,A,3347.9443,S,15051.9632,E,107.5,194.7,010126,,*38
$GNGGA,000022.40,3347.9450,S,15051.9598,E,4,18,0.6,30.0,M,46.9,M,,*5F
$GNRMC,000022.40,A,3347.9450,S,15051.9598,E,107.5,194.7,010126,,*3E
$GNGGA,000022.50,3347.9458,S,15051.9563,E,4,18,0.6,30.0,M,46.9,M,,*52
$GNRMC,000022.50,A,3347.9458,S,15051.9563,E,107.5,194.7,010126,,*33
$GNGGA,000022.60,3347.9465,S,15051.9528,E,4,18,0.6,30.0,M,46.9,M,,*50
$GNRMC,000022.60,A,3347.9465,S,15051.9528,E,107.5,194.7,010126,,*31
$GNGGA,000022.70,3347.9474,S,15051.9494,E,4,18,0.6,30.0,M,46.9,M,,*57
$GNRMC,000022.70,A,3347.9474,S,15051.9494,E,107.5,196.8,010126,,*3B
$GNGGA,000022.80,3347.9482,S,15051.9459,E,4,18,0.6,30.0,M,46.9,M,,*50
$GNRMC,000022.80,A,3347.9482,S,15051.9459,E,107.5,196.8,010126,,*3C
$GNGGA,000022.90,3347.9491,S,15051.9425,E,4,18,0.6,30.0,M,46.9,M,,*58
$GNRMC,000022.90,A,3347.9491,S,15051.9425,E,107.5,196.8,010126,,*34
$GNGGA,000023.00,3347.9499,S,15051.9391,E,4,18,0.6,30.0,M,46.9,M,,*50
$GNRMC,000023.00,A,3347.9499,S,15051.9391,E,107.5,196.8,010126,,*3C
$GNGGA,000023.10,3347.9508,S,15051.9356,E,4,18,0.6,30.0,M,46.9,M,,*53
$GNRMC,000023.10,A,3347.9508,S,15051.9356,E,107.5,196.8,010126,,*3F
$GNGGA,000023.20,3347.9517,S,15051.9322,E,4,18,0.6,30.0,M,46.9,M,,*5D
$GNRMC,000023.20,A,3347.9517,S,15051.9322,E,107.5,196.8,010126,,*31
$GNGGA,000023.30,3347.9525,S,15051.9287,E,4,18,0.6,30.0,M,46.9,M,,*53
$GNRMC,000023.30,A,3347.9525,S,15051.9287,E,107.5,196.8,010126,,*3F
$GNGGA,000023.40,3347.9534,S,15051.9253,E,4,18,0.6,30.0,M,46.9,M,,*5D
$GNRMC,000023.40,A,3347.9534,S,15051.9253,E,107.5,196.8,010126,,*31
$GNGGA,000023.50,3347.9543,S,15051.9219,E,4,18,0.6,30.0,M,46.9,M,,*52
$GNRMC,000023.50,A,3347.9543,S,15051.9219,E,107.5,199.1,010126,,*38
$GNGGA,000023.60,3347.9553,S,15051.9185,E,4,18,0.6,30.0,M,46.9,M,,*56
$GNRMC,000023.60,A,3347.9553,S,15051.9185,E,107.5,199.1,010126,,*3C
$GNGGA,000023.70,3347.9562,S,15051.9151,E,4,18,0.6,30.0,M,46.9,M,,*5C
$GNRMC,000023.70,A,3347.9562,S,15051.9151,E,107.5,199.1,010126,,*36
$GNGGA,000023.80,3347.9572,S,15051.9117,E,4,18,0.6,30.0,M,46.9,M,,*50
$GNRMC,000023.80,A,3347.9572,S,15051.9117,E,107.6,199.1,010126,,*39
$GNGGA,000023.90,3347.9582,S,15051.9083,E,4,18,0.6,30.0,M,46.9,M,,*52
$GNRMC,000023.90,A,3347.9582,S,15051.9083,E,107.6,199.1,010126,,*3B
$GNGGA,000024.00,3347.9592,S,15051.9049,E,4,18,0.6,30.0,M,46.9,M,,*5B
$GNRMC,000024.00,A,3347.9592,S,15051.9049,E,107.6,199.1,010126,,*32
$GNGGA,000024.10,3347.9601,S,15051.9015,E,4,18,0.6,30.0,M,46.9,M,,*5A
$GNRMC,000024.10,A,3347.9601,S,15051.9015,E,107.6,199.1,010126,,*33
$GNGGA,000024.20,3347.9611,S,15051.8981,E,4,18,0.6,30.0,M,46.9,M,,*5D
$GNRMC,000024.20,A,3347.9611,S,15051.8981,E,107.6,199.1,010126,,*34
$GNGGA,000024.30,3347.9621,S,15051.8947,E,4,18,0.6,30.0,M,46.9,M,,*55
$GNRMC,000024.30,A,3347.9621,S,15051.8947,E,107.6,201.5,010126,,*3A
$GNGGA,000024.40,3347.9632,S,15051.8914,E,4,18,0.6,30.0,M,46.9,M,,*56
$GNRMC,000024.40,A,3347.9632,S,15051.8914,E,107.7,201.5,010126,,*38
$GNGGA,000024.50,3347.9643,S,15051.8880,E,4,18,0.6,30.0,M,46.9,M,,*5D
$GNRMC,000024.50,A,3347.9643,S,15051.8880,E,107.7,201.5,010126,,*33
$GNGGA,000024.60,3347.9654,S,15051.8847,E,4,18,0.6,30.0,M,46.9,M,,*53
$GNRMC,000024.60,A,3347.9654,S,15051.8847,E,107.7,201.5,010126,,*3D
$GNGGA,000024.70,3347.9665,S,15051.8813,E,4,18,0.6,30.0,M,46.9,M,,*51
$GNRMC,000024.70,A,3347.9665,S,15051.8813,E,107.7,201.5,010126,,*3F
$GNGGA,000024.80,3347.9676,S,15051.8780,E,4,18,0.6,30.0,M,46.9,M,,*59
$GNRMC,000024.80,A,3347.9676,S,15051.8780,E,107.8,201.5,010126,,*38
$GNGGA,000024.90,3347.9687,S,15051.8746,E,4,18,0.6,30.0,M,46.9,M,,*5C
$GNRMC,000024.90,A,3347.9687,S,15051.8746,E,107.8,201.5,010126,,*3D
$GNGGA,000025.00,3347.9698,S,15051.8713,E,4,18,0.6,30.0,M,46.9,M,,*5A
$GNRMC,000025.00,A,3347.9698,S,15051.8713,E,107.8,201.5,010126,,*3B
$GNGGA,000025.10,3347.9709,S,15051.8680,E,4,18,0.6,30.0,M,46.9,M,,*59
$GNRMC,000025.10,A,3347.9709,S,15051.8680,E,107.9,204.2,010126,,*3B
$GNGGA,000025.20,3347.9722,S,15051.8647,E,4,18,0.6,30.0,M,46.9,M,,*58
$GNRMC,000025.20,A,3347.9722,S,15051.8647,E,107.9,204.2,010126,,*3A
$GNGGA,000025.30,3347.9734,S,15051.8614,E,4,18,0.6,30.0,M,46.9,M,,*58
$GNRMC,000025.30,A,3347.9734,S,15051.8614,E,107.9,204.2,010126,,*3A
$GNGGA,000025.40,3347.9746,S,15051.8581,E,4,18,0.6,30.0,M,46.9,M,,*55
$GNRMC,000025.40,A,3347.9746,S,15051.8581,E,108.0,204.2,010126,,*31
$GNGGA,000025.50,3347.9759,S,15051.8548,E,4,18,0.6,30.0,M,46.9,M,,*5F
$GNRMC,000025.50,A,3347.9759,S,15051.8548,E,108.0,204.2,010126,,*3B
$GNGGA,000025.60,3347.9771,S,15051.8515,E,4,18,0.6,30.0,M,46.9,M,,*5E
$GNRMC,000025.60,A,3347.9771,S,15051.8515,E,108.0,204.2,010126,,*3A
$GNGGA,000025.70,3347.9783,S,15051.8482,E,4,18,0.6,30.0,M,46.9,M,,*5D
$GNRMC,000025.70,A,3347.9783,S,15051.8482,E,108.1,204.2,010126,,*38
$GNGGA,000025.80,3347.9795,S,15051.8449,E,4,18,0.6,30.0,M,46.9,M,,*52
$GNRMC,000025.80,A,3347.9795,S,15051.8449,E,108.1,207.2,010126,,*34
$GNGGA,000025.90,3347.9809,S,15051.8417,E,4,18,0.6,30.0,M,46.9,M,,*52
$GNRMC,000025.90,A,3347.9809,S,15051.8417,E,108.2,207.2,010126,,*37
$GNGGA,000026.00,3347.9823,S,15051.8385,E,4,18,0.6,30.0,M,46.9,M,,*5C
$GNRMC,000026.00,A,3347.9823,S,15051.8385,E,108.2,207.2,010126,,*39
$GNGGA,000026.10,3347.9837,S,15051.8353,E,4,18,0.6,30.0,M,46.9,M,,*53
$GNRMC,000026.10,A,3347.9837,S,15051.8353,E,108.3,207.2,010126,,*37
$GNGGA,000026.20,3347.9850,S,15051.8321,E,4,18,0.6,30.0,M,46.9,M,,*54
$GNRMC,000026.20,A,3347.9850,S,15051.8321,E,108.3,207.2,010126,,*30
$GNGGA,000026.30,3347.9864,S,15051.8289,E,4,18,0.6,30.0,M,46.9,M,,*51
$GNRMC,000026.30,A,3347.9864,S,15051.8289,E,108.4,207.2,010126,,*32
$GNGGA,000026.40,3347.9878,S,15051.8256,E,4,18,0.6,30.0,M,46.9,M,,*59
$GNRMC,000026.40,A,3347.9878,S,15051.8256,E,108.4,207.2,010126,,*3A
$GNGGA,000026.50,3347.9891,S,15051.8224,E,4,18,0.6,30.0,M,46.9,M,,*5A
$GNRMC,000026.50,A,3347.9891,S,15051.8224,E,108.5,210.4,010126,,*38
$GNGGA,000026.60,3347.9907,S,15051.8193,E,4,18,0.6,30.0,M,46.9,M,,*58
$GNRMC,000026.60,A,3347.9907,S,15051.8193,E,108.5,210.4,010126,,*3A
$GNGGA,000026.70,3347.9922,S,15051.8162,E,4,18,0.6,30.0,M,46.9,M,,*50
$GNRMC,000026.70,A,3347.9922,S,15051.8162,E,108.6,210.4,010126,,*31
$GNGGA,000026.80,3347.9937,S,15051.8130,E,4,18,0.6,30.0,M,46.9,M,,*5C
$GNRMC,000026.80,A,3347.9937,S,15051.8130,E,108.6,210.4,010126,,*3D
$GNGGA,000026.90,3347.9953,S,15051.8099,E,4,18,0.6,30.0,M,46.9,M,,*5D
$GNRMC,000026.90,A,3347.9953,S,15051.8099,E,108.7,210.4,010126,,*3D
$GNGGA,000027.00,3347.9968,S,15051.8068,E,4,18,0.6,30.0,M,46.9,M,,*53
$GNRMC,000027.00,A,3347.9968,S,15051.8068,E,108.7,210.4,010126,,*33
$GNGGA,000027.10,3347.9983,S,15051.8037,E,4,18,0.6,30.0,M,46.9,M,,*5D
$GNRMC,000027.10,A,3347.9983,S,15051.8037,E,108.8,210.4,010126,,*32
$GNGGA,000027.20,3347.9999,S,15051.8006,E,4,18,0.6,30.0,M,46.9,M,,*57
$GNRMC,000027.20,A,3347.9999,S,15051.8006,E,108.9,214.1,010126,,*38
$GNGGA,000027.30,3348.0016,S,15051.7976,E,4,18,0.6,30.0,M,46.9,M,,*5F
$GNRMC,000027.30,A,3348.0016,S,15051.7976,E,108.9,214.1,010126,,*30
$GNGGA,000027.40,3348.0033,S,15051.7945,E,4,18,0.6,30.0,M,46.9,M,,*5F
$GNRMC,000027.40,A,3348.0033,S,15051.7945,E,109.0,214.1,010126,,*38
$GNGGA,000027.50,3348.0050,S,15051.7915,E,4,18,0.6,30.0,M,46.9,M,,*5E
$GNRMC,000027.50,A,3348.0050,S,15051.7915,E,109.0,214.1,010126,,*39
$GNGGA,000027.60,3348.0067,S,15051.7885,E,4,18,0.6,30.0,M,46.9,M,,*51
$GNRMC,000027.60,A,3348.0067,S,15051.7885,E,109.1,214.1,010126,,*37
$GNGGA,000027.70,3348.0084,S,15051.7855,E,4,18,0.6,30.0,M,46.9,M,,*50
$GNRMC,000027.70,A,3348.0084,S,15051.7855,E,109.2,214.1,010126,,*35
$GNGGA,000027.80,3348.0101,S,15051.7825,E,4,18,0.6,30.0,M,46.9,M,,*54
$GNRMC,000027.80,A,3348.0101,S,15051.7825,E,109.2,218.2,010126,,*3E
$GNGGA,000027.90,3348.0120,S,15051.7796,E,4,18,0.6,30.0,M,46.9,M,,*51
$GNRMC,000027.90,A,3348.0120,S,15051.7796,E,109.3,218.2,010126,,*3A
$GNGGA,000028.00,3348.0139,S,15051.7768,E,4,18,0.6,30.0,M,46.9,M,,*5E
$GNRMC,000028.00,A,3348.0139,S,15051.7768,E,109.4,218.2,010126,,*32
$GNGGA,000028.10,3348.0157,S,15051.7739,E,4,18,0.6,30.0,M,46.9,M,,*53
$GNRMC,000028.10,A,3348.0157,S,15051.7739,E,109.4,218.2,010126,,*3F
$GNGGA,000028.20,3348.0176,S,15051.7710,E,4,18,0.6,30.0,M,46.9,M,,*58
$GNRMC,000028.20,A,3348.0176,S,15051.7710,E,109.5,218.2,010126,,*35
$GNGGA,000028.30,3348.0195,S,15051.7682,E,4,18,0.6,30.0,M,46.9,M,,*5E
$GNRMC,000028.30,A,3348.0195,S,15051.7682,E,109.6,218.2,010126,,*30
$GNGGA,000028.40,3348.0214,S,15051.7653,E,4,18,0.6,30.0,M,46.9,M,,*5F
$GNRMC,000028.40,A,3348.0214,S,15051.7653,E,109.7,222.9,010126,,*32
$GNGGA,000028.50,3348.0235,S,15051.7626,E,4,18,0.6,30.0,M,46.9,M,,*5F
$GNRMC,000028.50,A,3348.0235,S,15051.7626,E,109.7,222.9,010126,,*32
$GNGGA,000028.60,3348.0256,S,15051.7600,E,4,18,0.6,30.0,M,46.9,M,,*5D
$GNRMC,000028.60,A,3348.0256,S,15051.7600,E,109.8,222.9,010126,,*3F
$GNGGA,000028.70,3348.0277,S,15051.7573,E,4,18,0.6,30.0,M,46.9,M,,*58
$GNRMC,000028.70,A,3348.0277,S,15051.7573,E,109.9,222.9,010126,,*3B
$GNGGA,000028.80,3348.0297,S,15051.7546,E,4,18,0.6,30.0,M,46.9,M,,*5F
$GNRMC,000028.80,A,3348.0297,S,15051.7546,E,110.0,222.9,010126,,*3D
$GNGGA,000028.90,3348.0318,S,15051.7519,E,4,18,0.6,30.0,M,46.9,M,,*52
$GNRMC,000028.90,A,3348.0318,S,15051.7519,E,110.0,222.9,010126,,*30
$GNGGA,000029.00,3348.0341,S,15051.7494,E,4,18,0.6,30.0,M,46.9,M,,*52
$GNRMC,000029.00,A,3348.0341,S,15051.7494,E,110.1,228.2,010126,,*30
$GNGGA,000029.10,3348.0363,S,15051.7470,E,4,18,0.6,30.0,M,46.9,M,,*59
$GNRMC,000029.10,A,3348.0363,S,15051.7470,E,110.2,228.2,010126,,*38
$GNGGA,000029.20,3348.0386,S,15051.7445,E,4,18,0.6,30.0,M,46.9,M,,*57
$GNRMC,000029.20,A,3348.0386,S,15051.7445,E,110.3,228.2,010126,,*37
$GNGGA,000029.30,3348.0409,S,15051.7420,E,4,18,0.6,30.0,M,46.9,M,,*55
$GNRMC,000029.30,A,3348.0409,S,15051.7420,E,110.4,228.2,010126,,*32
$GNGGA,000029.40,3348.0432,S,15051.7396,E,4,18,0.6,30.0,M,46.9,M,,*50
$GNRMC,000029.40,A,3348.0432,S,15051.7396,E,110.4,228.2,010126,,*37
$GNGGA,000029.50,3348.0456,S,15051.7373,E,4,18,0.6,30.0,M,46.9,M,,*58
$GNRMC,000029.50,A,3348.0456,S,15051.7373,E,110.5,234.2,010126,,*33
$GNGGA,000029.60,3348.0481,S,15051.7352,E,4,18,0.6,30.0,M,46.9,M,,*52
$GNRMC,000029.60,A,3348.0481,S,15051.7352,E,110.6,234.2,010126,,*3A
$GNGGA,000029.70,3348.0506,S,15051.7330,E,4,18,0.6,30.0,M,46.9,M,,*59
$GNRMC,000029.70,A,3348.0506,S,15051.7330,E,110.7,234.2,010126,,*30
$GNGGA,000029.80,3348.0531,S,15051.7309,E,4,18,0.6,30.0,M,46.9,M,,*58
$GNRMC,000029.80,A,3348.0531,S,15051.7309,E,110.8,234.2,010126,,*3E
$GNGGA,000029.90,3348.0556,S,15051.7287,E,4,18,0.6,30.0,M,46.9,M,,*5F
$GNRMC,000029.90,A,3348.0556,S,15051.7287,E,110.9,234.2,010126,,*38
$GNGGA,000030.00,3348.0583,S,15051.7269,E,4,18,0.6,30.0,M,46.9,M,,*56
$GNRMC,000030.00,A,3348.0583,S,15051.7269,E,110.9,241.0,010126,,*31
$GNGGA,000030.10,3348.0610,S,15051.7251,E,4,18,0.6,30.0,M,46.9,M,,*55
$GNRMC,000030.10,A,3348.0610,S,15051.7251,E,111.0,241.0,010126,,*3A
$GNGGA,000030.20,3348.0637,S,15051.7233,E,4,18,0.6,30.0,M,46.9,M,,*57
$GNRMC,000030.20,A,3348.0637,S,15051.7233,E,111.1,241.0,010126,,*39
$GNGGA,000030.30,3348.0664,S,15051.7215,E,4,18,0.6,30.0,M,46.9,M,,*54
$GNRMC,000030.30,A,3348.0664,S,15051.7215,E,111.2,241.0,010126,,*39
$GNGGA,000030.40,3348.0691,S,15051.7199,E,4,18,0.6,30.0,M,46.9,M,,*5E
$GNRMC,000030.40,A,3348.0691,S,15051.7199,E,111.3,248.6,010126,,*3D
$GNGGA,000030.50,3348.0720,S,15051.7185,E,4,18,0.6,30.0,M,46.9,M,,*59
$GNRMC,000030.50,A,3348.0720,S,15051.7185,E,111.4,248.6,010126,,*3D
$GNGGA,000030.60,3348.0749,S,15051.7172,E,4,18,0.6,30.0,M,46.9,M,,*5D
$GNRMC,000030.60,A,3348.0749,S,15051.7172,E,111.5,248.6,010126,,*38
$GNGGA,000030.70,3348.0778,S,15051.7158,E,4,18,0.6,30.0,M,46.9,M,,*56
$GNRMC,000030.70,A,3348.0778,S,15051.7158,E,111.6,248.6,010126,,*30
$GNGGA,000030.80,3348.0807,S,15051.7145,E,4,18,0.6,30.0,M,46.9,M,,*52
$GNRMC,000030.80,A,3348.0807,S,15051.7145,E,111.6,256.8,010126,,*35
$GNGGA,000030.90,3348.0837,S,15051.7137,E,4,18,0.6,30.0,M,46.9,M,,*55
$GNRMC,000030.90,A,3348.0837,S,15051.7137,E,111.7,256.8,010126,,*33
$GNGGA,000031.00,3348.0867,S,15051.7128,E,4,18,0.6,30.0,M,46.9,M,,*56
$GNRMC,000031.00,A,3348.0867,S,15051.7128,E,111.8,256.8,010126,,*3F
$GNGGA,000031.10,3348.0897,S,15051.7120,E,4,18,0.6,30.0,M,46.9,M,,*50
$GNRMC,000031.10,A,3348.0897,S,15051.7120,E,111.9,256.8,010126,,*38
$GNGGA,000031.20,3348.0928,S,15051.7112,E,4,18,0.6,30.0,M,46.9,M,,*57
$GNRMC,000031.20,A,3348.0928,S,15051.7112,E,112.0,265.6,010126,,*3B
$GNGGA,000031.30,3348.0959,S,15051.7109,E,4,18,0.6,30.0,M,46.9,M,,*5A
$GNRMC,000031.30,A,3348.0959,S,15051.7109,E,112.1,265.6,010126,,*37
$GNGGA,000031.40,3348.0990,S,15051.7106,E,4,18,0.6,30.0,M,46.9,M,,*57
$GNRMC,000031.40,A,3348.0990,S,15051.7106,E,112.2,265.6,010126,,*39
$GNGGA,000031.50,3348.1021,S,15051.7103,E,4,18,0.6,30.0,M,46.9,M,,*51
$GNRMC,000031.50,A,3348.1021,S,15051.7103,E,112.3,265.6,010126,,*3E
$GNGGA,000031.60,3348.1052,S,15051.7100,E,4,18,0.6,30.0,M,46.9,M,,*55
$GNRMC,000031.60,A,3348.1052,S,15051.7100,E,112.4,274.4,010126,,*3F
$GNGGA,000031.70,3348.1083,S,15051.7103,E,4,18,0.6,30.0,M,46.9,M,,*5B
$GNRMC,000031.70,A,3348.1083,S,15051.7103,E,112.4,274.4,010126,,*31
$GNGGA,000031.80,3348.1114,S,15051.7106,E,4,18,0.6,30.0,M,46.9,M,,*5E
$GNRMC,000031.80,A,3348.1114,S,15051.7106,E,112.5,274.4,010126,,*35
$GNGGA,000031.90,3348.1145,S,15051.7109,E,4,18,0.6,30.0,M,46.9,M,,*54
$GNRMC,000031.90,A,3348.1145,S,15051.7109,E,112.6,274.4,010126,,*3C
$GNGGA,000032.00,3348.1176,S,15051.7112,E,4,18,0.6,30.0,M,46.9,M,,*54
$GNRMC,000032.00,A,3348.1176,S,15051.7112,E,112.7,283.2,010126,,*33
$GNGGA,000032.10,3348.1207,S,15051.7121,E,4,18,0.6,30.0,M,46.9,M,,*50
$GNRMC,000032.10,A,3348.1207,S,15051.7121,E,112.8,283.2,010126,,*38
$GNGGA,000032.20,3348.1237,S,15051.7130,E,4,18,0.6,30.0,M,46.9,M,,*50
$GNRMC,000032.20,A,3348.1237,S,15051.7130,E,112.9,283.2,010126,,*39
$GNGGA,000032.30,3348.1268,S,15051.7138,E,4,18,0.6,30.0,M,46.9,M,,*53
$GNRMC,000032.30,A,3348.1268,S,15051.7138,E,113.0,283.2,010126,,*32
$GNGGA,000032.40,3348.1298,S,15051.7147,E,4,18,0.6,30.0,M,46.9,M,,*53
$GNRMC,000032.40,A,3348.1298,S,15051.7147,E,113.1,283.2,010126,,*33
$GNGGA,000032.50,3348.1327,S,15051.7161,E,4,18,0.6,30.0,M,46.9,M,,*53
$GNRMC,000032.50,A,3348.1327,S,15051.7161,E,113.2,291.4,010126,,*35
$GNGGA,000032.60,3348.1357,S,15051.7174,E,4,18,0.6,30.0,M,46.9,M,,*53
$GNRMC,000032.60,A,3348.1357,S,15051.7174,E,113.3,291.4,010126,,*34
$GNGGA,000032.70,3348.1386,S,15051.7188,E,4,18,0.6,30.0,M,46.9,M,,*5D
$GNRMC,000032.70,A,3348.1386,S,15051.7188,E,113.4,291.4,010126,,*3D
$GNGGA,000032.80,3348.1415,S,15051.7202,E,4,18,0.6,30.0,M,46.9,M,,*5E
$GNRMC,000032.80,A,3348.1415,S,15051.7202,E,113.4,291.4,010126,,*3E
$GNGGA,000032.90,3348.1443,S,15051.7219,E,4,18,0.6,30.0,M,46.9,M,,*56
$GNRMC,000032.90,A,3348.1443,S,15051.7219,E,113.5,299.0,010126,,*3B
$GNGGA,000033.00,3348.1471,S,15051.7238,E,4,18,0.6,30.0,M,46.9,M,,*5C
$GNRMC,000033.00,A,3348.1471,S,15051.7238,E,113.6,299.0,010126,,*32
$GNGGA,000033.10,3348.1498,S,15051.7256,E,4,18,0.6,30.0,M,46.9,M,,*52
$GNRMC,000033.10,A,3348.1498,S,15051.7256,E,113.7,299.0,010126,,*3D
$GNGGA,000033.20,3348.1526,S,15051.7275,E,4,18,0.6,30.0,M,46.9,M,,*54
$GNRMC,000033.20,A,3348.1526,S,15051.7275,E,113.8,299.0,010126,,*34
$GNGGA,000033.30,3348.1553,S,15051.7294,E,4,18,0.6,30.0,M,46.9,M,,*58
$GNRMC,000033.30,A,3348.1553,S,15051.7294,E,113.9,305.8,010126,,*35
$GNGGA,000033.40,3348.1578,S,15051.7317,E,4,18,0.6,30.0,M,46.9,M,,*5C
$GNRMC,000033.40,A,3348.1578,S,15051.7317,E,114.0,305.8,010126,,*3F
$GNGGA,000033.50,3348.1604,S,15051.7339,E,4,18,0.6,30.0,M,46.9,M,,*59
$GNRMC,000033.50,A,3348.1604,S,15051.7339,E,114.1,305.8,010126,,*3B
$GNGGA,000033.60,3348.1630,S,15051.7361,E,4,18,0.6,30.0,M,46.9,M,,*50
$GNRMC,000033.60,A,3348.1630,S,15051.7361,E,114.1,305.8,010126,,*32
$GNGGA,000033.70,3348.1656,S,15051.7384,E,4,18,0.6,30.0,M,46.9,M,,*5A
$GNRMC,000033.70,A,3348.1656,S,15051.7384,E,114.2,305.8,010126,,*3B
$GNGGA,000033.80,3348.1680,S,15051.7408,E,4,18,0.6,30.0,M,46.9,M,,*5D
$GNRMC,000033.80,A,3348.1680,S,15051.7408,E,114.3,311.8,010126,,*38
$GNGGA,000033.90,3348.1703,S,15051.7434,E,4,18,0.6,30.0,M,46.9,M,,*59
$GNRMC,000033.90,A,3348.1703,S,15051.7434,E,114.4,311.8,010126,,*3B
$GNGGA,000034.00,3348.1727,S,15051.7459,E,4,18,0.6,30.0,M,46.9,M,,*5A
$GNRMC,000034.00,A,3348.1727,S,15051.7459,E,114.5,311.8,010126,,*39
$GNGGA,000034.10,3348.1751,S,15051.7485,E,4,18,0.6,30.0,M,46.9,M,,*5B
$GNRMC,000034.10,A,3348.1751,S,15051.7485,E,114.6,311.8,010126,,*3B
$GNGGA,000034.20,3348.1774,S,15051.7510,E,4,18,0.6,30.0,M,46.9,M,,*52
$GNRMC,000034.20,A,3348.1774,S,15051.7510,E,114.6,311.8,010126,,*32
$GNGGA,000034.30,3348.1796,S,15051.7538,E,4,18,0.6,30.0,M,46.9,M,,*55
$GNRMC,000034.30,A,3348.1796,S,15051.7538,E,114.7,317.1,010126,,*3B
$GNGGA,000034.40,3348.1818,S,15051.7566,E,4,18,0.6,30.0,M,46.9,M,,*50
$GNRMC,000034.40,A,3348.1818,S,15051.7566,E,114.8,317.1,010126,,*31
$GNGGA,000034.50,3348.1840,S,15051.7594,E,4,18,0.6,30.0,M,46.9,M,,*51
$GNRMC,000034.50,A,3348.1840,S,15051.7594,E,114.9,317.1,010126,,*31
$GNGGA,000034.60,3348.1861,S,15051.7622,E,4,18,0.6,30.0,M,46.9,M,,*5F
$GNRMC,000034.60,A,3348.1861,S,15051.7622,E,115.0,317.1,010126,,*37
$GNGGA,000034.70,3348.1883,S,15051.7650,E,4,18,0.6,30.0,M,46.9,M,,*57
$GNRMC,000034.70,A,3348.1883,S,15051.7650,E,115.0,317.1,010126,,*3F
$GNGGA,000034.80,3348.1904,S,15051.7680,E,4,18,0.6,30.0,M,46.9,M,,*5B
$GNRMC,000034.80,A,3348.1904,S,15051.7680,E,115.1,321.8,010126,,*3E
$GNGGA,000034.90,3348.1924,S,15051.7710,E,4,18,0.6,30.0,M,46.9,M,,*50
$GNRMC,000034.90,A,3348.1924,S,15051.7710,E,115.2,321.8,010126,,*36
$GNGGA,000035.00,3348.1943,S,15051.7740,E,4,18,0.6,30.0,M,46.9,M,,*5C
$GNRMC,000035.00,A,3348.1943,S,15051.7740,E,115.3,321.8,010126,,*3B
$GNGGA,000035.10,3348.1963,S,15051.7770,E,4,18,0.6,30.0,M,46.9,M,,*5C
$GNRMC,000035.10,A,3348.1963,S,15051.7770,E,115.3,321.8,010126,,*3B
$GNGGA,000035.20,3348.1983,S,15051.7800,E,4,18,0.6,30.0,M,46.9,M,,*59
$GNRMC,000035.20,A,3348.1983,S,15051.7800,E,115.4,321.8,010126,,*39
$GNGGA,000035.30,3348.2003,S,15051.7831,E,4,18,0.6,30.0,M,46.9,M,,*58
$GNRMC,000035.30,A,3348.2003,S,15051.7831,E,115.5,325.9,010126,,*3C
$GNGGA,000035.40,3348.2021,S,15051.7863,E,4,18,0.6,30.0,M,46.9,M,,*58
$GNRMC,000035.40,A,3348.2021,S,15051.7863,E,115.6,325.9,010126,,*3F
$GNGGA,000035.50,3348.2039,S,15051.7895,E,4,18,0.6,30.0,M,46.9,M,,*59
$GNRMC,000035.50,A,3348.2039,S,15051.7895,E,115.6,325.9,010126,,*3E
$GNGGA,000035.60,3348.2057,S,15051.7927,E,4,18,0.6,30.0,M,46.9,M,,*5A
$GNRMC,000035.60,A,3348.2057,S,15051.7927,E,115.7,325.9,010126,,*3C
$GNGGA,000035.70,3348.2075,S,15051.7959,E,4,18,0.6,30.0,M,46.9,M,,*52
$GNRMC,000035.70,A,3348.2075,S,15051.7959,E,115.8,325.9,010126,,*3B
$GNGGA,000035.80,3348.2093,S,15051.7991,E,4,18,0.6,30.0,M,46.9,M,,*51
$GNRMC,000035.80,A,3348.2093,S,15051.7991,E,115.8,325.9,010126,,*38
$GNGGA,000035.90,3348.2110,S,15051.8023,E,4,18,0.6,30.0,M,46.9,M,,*55
$GNRMC,000035.90,A,3348.2110,S,15051.8023,E,115.9,329.6,010126,,*3E
$GNGGA,000036.00,3348.2127,S,15051.8056,E,4,18,0.6,30.0,M,46.9,M,,*59
$GNRMC,000036.00,A,3348.2127,S,15051.8056,E,116.0,329.6,010126,,*38
$GNGGA,000036.10,3348.2143,S,15051.8090,E,4,18,0.6,30.0,M,46.9,M,,*50
$GNRMC,000036.10,A,3348.2143,S,15051.8090,E,116.0,329.6,010126,,*31
$GNGGA,000036.20,3348.2159,S,15051.8123,E,4,18,0.6,30.0,M,46.9,M,,*51
$GNRMC,000036.20,A,3348.2159,S,15051.8123,E,116.1,329.6,010126,,*31
$GNGGA,000036.30,3348.2176,S,15051.8157,E,4,18,0.6,30.0,M,46.9,M,,*5E
$GNRMC,000036.30,A,3348.2176,S,15051.8157,E,116.1,329.6,010126,,*3E
$GNGGA,000036.40,3348.2192,S,15051.8190,E,4,18,0.6,30.0,M,46.9,M,,*58
$GNRMC,000036.40,A,3348.2192,S,15051.8190,E,116.2,329.6,010126,,*3B
$GNGGA,000036.50,3348.2208,S,15051.8224,E,4,18,0.6,30.0,M,46.9,M,,*55
$GNRMC,000036.50,A,3348.2208,S,15051.8224,E,116.3,329.6,010126,,*37
$GNGGA,000036.60,3348.2223,S,15051.8258,E,4,18,0.6,30.0,M,46.9,M,,*54
$GNRMC,000036.60,A,3348.2223,S,15051.8258,E,116.3,332.8,010126,,*32
$GNGGA,000036.70,3348.2238,S,15051.8293,E,4,18,0.6,30.0,M,46.9,M,,*58
$GNRMC,000036.70,A,3348.2238,S,15051.8293,E,116.4,332.8,010126,,*39
$GNGGA,000036.80,3348.2252,S,15051.8327,E,4,18,0.6,30.0,M,46.9,M,,*55
$GNRMC,000036.80,A,3348.2252,S,15051.8327,E,116.4,332.8,010126,,*34
$GNGGA,000036.90,3348.2267,S,15051.8362,E,4,18,0.6,30.0,M,46.9,M,,*53
$GNRMC,000036.90,A,3348.2267,S,15051.8362,E,116.5,332.8,010126,,*33
$GNGGA,000037.00,3348.2282,S,15051.8396,E,4,18,0.6,30.0,M,46.9,M,,*5B
$GNRMC,000037.00,A,3348.2282,S,15051.8396,E,116.5,332.8,010126,,*3B
$GNGGA,000037.10,3348.2297,S,15051.8431,E,4,18,0.6,30.0,M,46.9,M,,*54
$GNRMC,000037.10,A,3348.2297,S,15051.8431,E,116.6,332.8,010126,,*37
$GNGGA,000037.20,3348.2311,S,15051.8466,E,4,18,0.6,30.0,M,46.9,M,,*5A
$GNRMC,000037.20,A,3348.2311,S,15051.8466,E,116.6,335.8,010126,,*3E
$GNGGA,000037.30,3348.2324,S,15051.8502,E,4,18,0.6,30.0,M,46.9,M,,*5E
$GNRMC,000037.30,A,3348.2324,S,15051.8502,E,116.7,335.8,010126,,*3B
$GNGGA,000037.40,3348.2337,S,15051.8537,E,4,18,0.6,30.0,M,46.9,M,,*5D
$GNRMC,000037.40,A,3348.2337,S,15051.8537,E,116.7,335.8,010126,,*38
$GNGGA,000037.50,3348.2351,S,15051.8573,E,4,18,0.6,30.0,M,46.9,M,,*5C
$GNRMC,000037.50,A,3348.2351,S,15051.8573,E,116.7,335.8,010126,,*39
$GNGGA,000037.60,3348.2364,S,15051.8608,E,4,18,0.6,30.0,M,46.9,M,,*56
$GNRMC,000037.60,A,3348.2364,S,15051.8608,E,116.8,335.8,010126,,*3C
$GNGGA,000037.70,3348.2377,S,15051.8644,E,4,18,0.6,30.0,M,46.9,M,,*5D
$GNRMC,000037.70,A,3348.2377,S,15051.8644,E,116.8,335.8,010126,,*37
$GNGGA,000037.80,3348.2391,S,15051.8680,E,4,18,0.6,30.0,M,46.9,M,,*52
$GNRMC,000037.80,A,3348.2391,S,15051.8680,E,116.9,335.8,010126,,*39
$GNGGA,000037.90,3348.2403,S,15051.8716,E,4,18,0.6,30.0,M,46.9,M,,*51
$GNRMC,000037.90,A,3348.2403,S,15051.8716,E,116.9,338.5,010126,,*3A
$GNGGA,000038.00,3348.2415,S,15051.8752,E,4,18,0.6,30.0,M,46.9,M,,*50
$GNRMC,000038.00,A,3348.2415,S,15051.8752,E,116.9,338.5,010126,,*3B
$GNGGA,000038.10,3348.2427,S,15051.8788,E,4,18,0.6,30.0,M,46.9,M,,*57
$GNRMC,000038.10,A,3348.2427,S,15051.8788,E,117.0,338.5,010126,,*34
$GNGGA,000038.20,3348.2439,S,15051.8825,E,4,18,0.6,30.0,M,46.9,M,,*53
$GNRMC,000038.20,A,3348.2439,S,15051.8825,E,117.0,338.5,010126,,*30
$GNGGA,000038.30,3348.2451,S,15051.8861,E,4,18,0.6,30.0,M,46.9,M,,*5C
$GNRMC,000038.30,A,3348.2451,S,15051.8861,E,117.0,338.5,010126,,*3F
$GNGGA,000038.40,3348.2463,S,15051.8897,E,4,18,0.6,30.0,M,46.9,M,,*53
$GNRMC,000038.40,A,3348.2463,S,15051.8897,E,117.0,338.5,010126,,*30
$GNGGA,000038.50,3348.2474,S,15051.8934,E,4,18,0.6,30.0,M,46.9,M,,*5C
$GNRMC,000038.50,A,3348.2474,S,15051.8934,E,117.1,338.5,010126,,*3E
$GNGGA,000038.60,3348.2486,S,15051.8970,E,4,18,0.6,30.0,M,46.9,M,,*52
$GNRMC,000038.60,A,3348.2486,S,15051.8970,E,117.1,340.9,010126,,*33
$GNGGA,000038.70,3348.2496,S,15051.9007,E,4,18,0.6,30.0,M,46.9,M,,*5A
$GNRMC,000038.70,A,3348.2496,S,15051.9007,E,117.1,340.9,010126,,*3B
$GNGGA,000038.80,3348.2507,S,15051.9044,E,4,18,0.6,30.0,M,46.9,M,,*5B
$GNRMC,000038.80,A,3348.2507,S,15051.9044,E,117.1,340.9,010126,,*3A
$GNGGA,000038.90,3348.2518,S,15051.9081,E,4,18,0.6,30.0,M,46.9,M,,*5D
$GNRMC,000038.90,A,3348.2518,S,15051.9081,E,117.1,340.9,010126,,*3C
$GNGGA,000039.00,3348.2528,S,15051.9118,E,4,18,0.6,30.0,M,46.9,M,,*57
$GNRMC,000039.00,A,3348.2528,S,15051.9118,E,117.2,340.9,010126,,*35
$GNGGA,000039.10,3348.2539,S,15051.9155,E,4,18,0.6,30.0,M,46.9,M,,*5F
$GNRMC,000039.10,A,3348.2539,S,15051.9155,E,117.2,340.9,010126,,*3D
$GNGGA,000039.20,3348.2550,S,15051.9192,E,4,18,0.6,30.0,M,46.9,M,,*58
$GNRMC,000039.20,A,3348.2550,S,15051.9192,E,117.2,340.9,010126,,*3A
$GNGGA,000039.30,3348.2560,S,15051.9229,E,4,18,0.6,30.0,M,46.9,M,,*59
$GNRMC,000039.30,A,3348.2560,S,15051.9229,E,117.2,343.2,010126,,*33
$GNGGA,000039.40,3348.2570,S,15051.9267,E,4,18,0.6,30.0,M,46.9,M,,*55
$GNRMC,000039.40,A,3348.2570,S,15051.9267,E,117.2,343.2,010126,,*3F
$GNGGA,000039.50,3348.2579,S,15051.9304,E,4,18,0.6,30.0,M,46.9,M,,*59
$GNRMC,000039.50,A,3348.2579,S,15051.9304,E,117.2,343.2,010126,,*33
$GNGGA,000039.60,3348.2588,S,15051.9342,E,4,18,0.6,30.0,M,46.9,M,,*56
$GNRMC,000039.60,A,3348.2588,S,15051.9342,E,117.2,343.2,010126,,*3C
$GNGGA,000039.70,3348.2598,S,15051.9379,E,4,18,0.6,30.0,M,46.9,M,,*5E
$GNRMC,000039.70,A,3348.2598,S,15051.9379,E,117.2,343.2,010126,,*34
$GNGGA,000039.80,3348.2607,S,15051.9417,E,4,18,0.6,30.0,M,46.9,M,,*5B
$GNRMC,000039.80,A,3348.2607,S,15051.9417,E,117.2,343.2,010126,,*31
$GNGGA,000039.90,3348.2617,S,15051.9454,E,4,18,0.6,30.0,M,46.9,M,,*5C
$GNRMC,000039.90,A,3348.2617,S,15051.9454,E,117.2,343.2,010126,,*36
$GNGGA,000040.00,3348.2626,S,15051.9492,E,4,18,0.6,30.0,M,46.9,M,,*53
$GNRMC,000040.00,A,3348.2626,S,15051.9492,E,117.2,343.2,010126,,*39
$GNGGA,000040.10,3348.2635,S,15051.9529,E,4,18,0.6,30.0,M,46.9,M,,*51
$GNRMC,000040.10,A,3348.2635,S,15051.9529,E,117.2,345.3,010126,,*3C
$GNGGA,000040.20,3348.2643,S,15051.9567,E,4,18,0.6,30.0,M,46.9,M,,*59
$GNRMC,000040.20,A,3348.2643,S,15051.9567,E,117.2,345.3,010126,,*34
$GNGGA,000040.30,3348.2651,S,15051.9605,E,4,18,0.6,30.0,M,46.9,M,,*5C
$GNRMC,000040.30,A,3348.2651,S,15051.9605,E,117.2,345.3,010126,,*31
$GNGGA,000040.40,3348.2660,S,15051.9643,E,4,18,0.6,30.0,M,46.9,M,,*5B
$GNRMC,000040.40,A,3348.2660,S,15051.9643,E,117.2,345.3,010126,,*36
$GNGGA,000040.50,3348.2668,S,15051.9681,E,4,18,0.6,30.0,M,46.9,M,,*5C
$GNRMC,000040.50,A,3348.2668,S,15051.9681,E,117.2,345.3,010126,,*31
$GNGGA,000040.60,3348.2676,S,15051.9719,E,4,18,0.6,30.0,M,46.9,M,,*50
$GNRMC,000040.60,A,3348.2676,S,15051.9719,E,117.2,345.3,010126,,*3D
$GNGGA,000040.70,3348.2684,S,15051.9756,E,4,18,0.6,30.0,M,46.9,M,,*57
$GNRMC,000040.70,A,3348.2684,S,15051.9756,E,117.1,345.3,010126,,*39
$GNGGA,000040.80,3348.2693,S,15051.9794,E,4,18,0.6,30.0,M,46.9,M,,*50
$GNRMC,000040.80,A,3348.2693,S,15051.9794,E,117.1,345.3,010126,,*3E
$GNGGA,000040.90,3348.2701,S,15051.9832,E,4,18,0.6,30.0,M,46.9,M,,*58
$GNRMC,000040.90,A,3348.2701,S,15051.9832,E,117.1,347.3,010126,,*34
$GNGGA,000041.00,3348.2708,S,15051.9870,E,4,18,0.6,30.0,M,46.9,M,,*5F
$GNRMC,000041.00,A,3348.2708,S,15051.9870,E,117.1,347.3,010126,,*33
$GNGGA,000041.10,3348.2715,S,15051.9909,E,4,18,0.6,30.0,M,46.9,M,,*5D
$GNRMC,000041.10,A,3348.2715,S,15051.9909,E,117.1,347.3,010126,,*31
$GNGGA,000041.20,3348.2722,S,15051.9947,E,4,18,0.6,30.0,M,46.9,M,,*50
$GNRMC,000041.20,A,3348.2722,S,15051.9947,E,117.0,347.3,010126,,*3D
$GNGGA,000041.30,3348.2729,S,15051.9985,E,4,18,0.6,30.0,M,46.9,M,,*54
$GNRMC,000041.30,A,3348.2729,S,15051.9985,E,117.0,347.3,010126,,*39
$GNGGA,000041.40,3348.2736,S,15052.0023,E,4,18,0.6,30.0,M,46.9,M,,*52
$GNRMC,000041.40,A,3348.2736,S,15052.0023,E,117.0,347.3,010126,,*3F
$GNGGA,000041.50,3348.2743,S,15052.0061,E,4,18,0.6,30.0,M,46.9,M,,*57
$GNRMC,000041.50,A,3348.2743,S,15052.0061,E,117.0,347.3,010126,,*3A
$GNGGA,000041.60,3348.2750,S,15052.0099,E,4,18,0.6,30.0,M,46.9,M,,*51
$GNRMC,000041.60,A,3348.2750,S,15052.0099,E,116.9,347.3,010126,,*34
$GNGGA,000041.70,3348.2757,S,15052.0137,E,4,18,0.6,30.0,M,46.9,M,,*52
$GNRMC,000041.70,A,3348.2757,S,15052.0137,E,116.9,349.2,010126,,*38
$GNGGA,000041.80,3348.2764,S,15052.0176,E,4,18,0.6,30.0,M,46.9,M,,*58
$GNRMC,000041.80,A,3348.2764,S,15052.0176,E,116.9,349.2,010126,,*32
$GNGGA,000041.90,3348.2770,S,15052.0214,E,4,18,0.6,30.0,M,46.9,M,,*5B
$GNRMC,000041.90,A,3348.2770,S,15052.0214,E,116.8,349.2,010126,,*30
$GNGGA,000042.00,3348.2776,S,15052.0252,E,4,18,0.6,30.0,M,46.9,M,,*55
$GNRMC,000042.00,A,3348.2776,S,15052.0252,E,116.8,349.2,010126,,*3E
$GNGGA,000042.10,3348.2782,S,15052.0291,E,4,18,0.6,30.0,M,46.9,M,,*50
$GNRMC,000042.10,A,3348.2782,S,15052.0291,E,116.7,349.2,010126,,*34
$GNGGA,000042.20,3348.2788,S,15052.0329,E,4,18,0.6,30.0,M,46.9,M,,*5B
$GNRMC,000042.20,A,3348.2788,S,15052.0329,E,116.7,349.2,010126,,*3F
$GNGGA,000042.30,3348.2794,S,15052.0367,E,4,18,0.6,30.0,M,46.9,M,,*5D
$GNRMC,000042.30,A,3348.2794,S,15052.0367,E,116.7,349.2,010126,,*39
$GNGGA,000042.40,3348.2800,S,15052.0406,E,4,18,0.6,30.0,M,46.9,M,,*58
$GNRMC,000042.40,A,3348.2800,S,15052.0406,E,116.6,349.2,010126,,*3D
$GNGGA,000042.50,3348.2806,S,15052.0444,E,4,18,0.6,30.0,M,46.9,M,,*59
$GNRMC,000042.50,A,3348.2806,S,15052.0444,E,116.6,349.2,010126,,*3C
$GNGGA,000042.60,3348.2812,S,15052.0482,E,4,18,0.6,30.0,M,46.9,M,,*55
$GNRMC,000042.60,A,3348.2812,S,15052.0482,E,116.5,351.0,010126,,*38
$GNGGA,000042.70,3348.2817,S,15052.0521,E,4,18,0.6,30.0,M,46.9,M,,*59
$GNRMC,000042.70,A,3348.2817,S,15052.0521,E,116.5,351.0,010126,,*34
$GNGGA,000042.80,3348.2822,S,15052.0559,E,4,18,0.6,30.0,M,46.9,M,,*5F
$GNRMC,000042.80,A,3348.2822,S,15052.0559,E,116.4,351.0,010126,,*33
$GNGGA,000042.90,3348.2827,S,15052.0597,E,4,18,0.6,30.0,M,46.9,M,,*59
$GNRMC,000042.90,A,3348.2827,S,15052.0597,E,116.4,351.0,010126,,*35
$GNGGA,000043.00,3348.2832,S,15052.0636,E,4,18,0.6,30.0,M,46.9,M,,*5D
$GNRMC,000043.00,A,3348.2832,S,15052.0636,E,116.3,351.0,010126,,*36
$GNGGA,000043.10,3348.2837,S,15052.0674,E,4,18,0.6,30.0,M,46.9,M,,*5F
$GNRMC,000043.10,A,3348.2837,S,15052.0674,E,116.3,351.0,010126,,*34
$GNGGA,000043.20,3348.2842,S,15052.0713,E,4,18,0.6,30.0,M,46.9,M,,*5E
$GNRMC,000043.20,A,3348.2842,S,15052.0713,E,116.2,351.0,010126,,*34
$GNGGA,000043.30,3348.2847,S,15052.0751,E,4,18,0.6,30.0,M,46.9,M,,*5C
$GNRMC,000043.30,A,3348.2847,S,15052.0751,E,116.1,351.0,010126,,*35
$GNGGA,000043.40,3348.2852,S,15052.0789,E,4,18,0.6,30.0,M,46.9,M,,*5A
$GNRMC,000043.40,A,3348.2852,S,15052.0789,E,116.1,351.0,010126,,*33
$GNGGA,000043.50,3348.2856,S,15052.0828,E,4,18,0.6,30.0,M,46.9,M,,*5B
$GNRMC,000043.50,A,3348.2856,S,15052.0828,E,116.0,352.7,010126,,*37
$GNGGA,000043.60,3348.2860,S,15052.0866,E,4,18,0.6,30.0,M,46.9,M,,*57
$GNRMC,000043.60,A,3348.2860,S,15052.0866,E,116.0,352.7,010126,,*3B
$GNGGA,000043.70,3348.2864,S,15052.0905,E,4,18,0.6,30.0,M,46.9,M,,*56
$GNRMC,000043.70,A,3348.2864,S,15052.0905,E,115.9,352.7,010126,,*30
$GNGGA,000043.80,3348.2868,S,15052.0943,E,4,18,0.6,30.0,M,46.9,M,,*57
$GNRMC,000043.80,A,3348.2868,S,15052.0943,E,115.8,352.7,010126,,*30
$GNGGA,000043.90,3348.2872,S,15052.0981,E,4,18,0.6,30.0,M,46.9,M,,*53
$GNRMC,000043.90,A,3348.2872,S,15052.0981,E,115.8,352.7,010126,,*34
$GNGGA,000044.00,3348.2876,S,15052.1020,E,4,18,0.6,30.0,M,46.9,M,,*5A
$GNRMC,000044.00,A,3348.2876,S,15052.1020,E,115.7,352.7,010126,,*32
$GNGGA,000044.10,3348.2881,S,15052.1058,E,4,18,0.6,30.0,M,46.9,M,,*5C
$GNRMC,000044.10,A,3348.2881,S,15052.1058,E,115.6,352.7,010126,,*35
$GNGGA,000044.20,3348.2885,S,15052.1096,E,4,18,0.6,30.0,M,46.9,M,,*59
$GNRMC,000044.20,A,3348.2885,S,15052.1096,E,115.6,352.7,010126,,*30
$GNGGA,000044.30,3348.2889,S,15052.1135,E,4,18,0.6,30.0,M,46.9,M,,*5C
$GNRMC,000044.30,A,3348.2889,S,15052.1135,E,115.5,354.4,010126,,*33
$GNGGA,000044.40,3348.2892,S,15052.1173,E,4,18,0.6,30.0,M,46.9,M,,*53
$GNRMC,000044.40,A,3348.2892,S,15052.1173,E,115.4,354.4,010126,,*3D
$GNGGA,000044.50,3348.2895,S,15052.1211,E,4,18,0.6,30.0,M,46.9,M,,*52
$GNRMC,000044.50,A,3348.2895,S,15052.1211,E,115.3,354.4,010126,,*3B
$GNGGA,000044.60,3348.2898,S,15052.1250,E,4,18,0.6,30.0,M,46.9,M,,*59
$GNRMC,000044.60,A,3348.2898,S,15052.1250,E,115.3,354.4,010126,,*30
$GNGGA,000044.70,3348.2901,S,15052.1288,E,4,18,0.6,30.0,M,46.9,M,,*5C
$GNRMC,000044.70,A,3348.2901,S,15052.1288,E,115.2,354.4,010126,,*34
$GNGGA,000044.80,3348.2904,S,15052.1326,E,4,18,0.6,30.0,M,46.9,M,,*53
$GNRMC,000044.80,A,3348.2904,S,15052.1326,E,115.1,354.4,010126,,*38
$GNGGA,000044.90,3348.2907,S,15052.1365,E,4,18,0.6,30.0,M,46.9,M,,*56
$GNRMC,000044.90,A,3348.2907,S,15052.1365,E,115.0,354.4,010126,,*3C
$GNGGA,000045.00,3348.2910,S,15052.1403,E,4,18,0.6,30.0,M,46.9,M,,*5F
$GNRMC,000045.00,A,3348.2910,S,15052.1403,E,115.0,354.4,010126,,*35
$GNGGA,000045.10,3348.2914,S,15052.1441,E,4,18,0.6,30.0,M,46.9,M,,*5C
$GNRMC,000045.10,A,3348.2914,S,15052.1441,E,114.9,354.4,010126,,*3E
$GNGGA,000045.20,3348.2917,S,15052.1479,E,4,18,0.6,30.0,M,46.9,M,,*57
$GNRMC,000045.20,A,3348.2917,S,15052.1479,E,114.8,356.0,010126,,*32
$GNGGA,000045.30,3348.2919,S,15052.1518,E,4,18,0.6,30.0,M,46.9,M,,*5E
$GNRMC,000045.30,A,3348.2919,S,15052.1518,E,114.7,356.0,010126,,*34
$GNGGA,000045.40,3348.2921,S,15052.1556,E,4,18,0.6,30.0,M,46.9,M,,*58
$GNRMC,000045.40,A,3348.2921,S,15052.1556,E,114.6,356.0,010126,,*33
$GNGGA,000045.50,3348.2923,S,15052.1594,E,4,18,0.6,30.0,M,46.9,M,,*55
$GNRMC,000045.50,A,3348.2923,S,15052.1594,E,114.6,356.0,010126,,*3E
$GNGGA,000045.60,3348.2926,S,15052.1632,E,4,18,0.6,30.0,M,46.9,M,,*5C
$GNRMC,000045.60,A,3348.2926,S,15052.1632,E,114.5,356.0,010126,,*34
$GNGGA,000045.70,3348.2928,S,15052.1670,E,4,18,0.6,30.0,M,46.9,M,,*55
$GNRMC,000045.70,A,3348.2928,S,15052.1670,E,114.4,356.0,010126,,*3C
$GNGGA,000045.80,3348.2930,S,15052.1708,E,4,18,0.6,30.0,M,46.9,M,,*5D
$GNRMC,000045.80,A,3348.2930,S,15052.1708,E,114.3,356.0,010126,,*33
$GNGGA,000045.90,3348.2932,S,15052.1747,E,4,18,0.6,30.0,M,46.9,M,,*55
$GNRMC,000045.90,A,3348.2932,S,15052.1747,E,114.2,356.0,010126,,*3A
$GNGGA,000046.00,3348.2934,S,15052.1785,E,4,18,0.6,30.0,M,46.9,M,,*57
$GNRMC,000046.00,A,3348.2934,S,15052.1785,E,114.1,356.0,010126,,*3B
$GNGGA,000046.10,3348.2937,S,15052.1823,E,4,18,0.6,30.0,M,46.9,M,,*56
$GNRMC,000046.10,A,3348.2937,S,15052.1823,E,114.1,356.0,010126,,*3A
$GNGGA,000046.20,3348.2938,S,15052.1861,E,4,18,0.6,30.0,M,46.9,M,,*5C
$GNRMC,000046.20,A,3348.2938,S,15052.1861,E,114.0,357.6,010126,,*36
$GNGGA,000046.30,3348.2939,S,15052.1899,E,4,18,0.6,30.0,M,46.9,M,,*5B
$GNRMC,000046.30,A,3348.2939,S,15052.1899,E,113.9,357.6,010126,,*3F
$GNGGA,000046.40,3348.2941,S,15052.1937,E,4,18,0.6,30.0,M,46.9,M,,*56
$GNRMC,000046.40,A,3348.2941,S,15052.1937,E,113.8,357.6,010126,,*33
$GNGGA,000046.50,3348.2942,S,15052.1975,E,4,18,0.6,30.0,M,46.9,M,,*52
$GNRMC,000046.50,A,3348.2942,S,15052.1975,E,113.7,357.6,010126,,*38
$GNGGA,000046.60,3348.2943,S,15052.2013,E,4,18,0.6,30.0,M,46.9,M,,*5A
$GNRMC,000046.60,A,3348.2943,S,15052.2013,E,113.6,357.6,010126,,*31
$GNGGA,000046.70,3348.2945,S,15052.2051,E,4,18,0.6,30.0,M,46.9,M,,*5B
$GNRMC,000046.70,A,3348.2945,S,15052.2051,E,113.5,357.6,010126,,*33
$GNGGA,000046.80,3348.2946,S,15052.2089,E,4,18,0.6,30.0,M,46.9,M,,*52
$GNRMC,000046.80,A,3348.2946,S,15052.2089,E,113.4,357.6,010126,,*3B
$GNGGA,000046.90,3348.2947,S,15052.2126,E,4,18,0.6,30.0,M,46.9,M,,*56
$GNRMC,000046.90,A,3348.2947,S,15052.2126,E,113.3,357.6,010126,,*38
$GNGGA,000047.00,3348.2948,S,15052.2164,E,4,18,0.6,30.0,M,46.9,M,,*57
$GNRMC,000047.00,A,3348.2948,S,15052.2164,E,113.3,357.6,010126,,*39
$GNGGA,000047.10,3348.2949,S,15052.2202,E,4,18,0.6,30.0,M,46.9,M,,*54
$GNRMC,000047.10,A,3348.2949,S,15052.2202,E,113.2,359.2,010126,,*31
$GNGGA,000047.20,3348.2950,S,15052.2240,E,4,18,0.6,30.0,M,46.9,M,,*59
$GNRMC,000047.20,A,3348.2950,S,15052.2240,E,113.1,359.2,010126,,*3F
$GNGGA,000047.30,3348.2950,S,15052.2278,E,4,18,0.6,30.0,M,46.9,M,,*53
$GNRMC,000047.30,A,3348.2950,S,15052.2278,E,113.0,359.2,010126,,*34
$GNGGA,000047.40,3348.2951,S,15052.2315,E,4,18,0.6,30.0,M,46.9,M,,*5F
$GNRMC,000047.40,A,3348.2951,S,15052.2315,E,112.9,359.2,010126,,*30
$GNGGA,000047.50,3348.2951,S,15052.2353,E,4,18,0.6,30.0,M,46.9,M,,*5C
$GNRMC,000047.50,A,3348.2951,S,15052.2353,E,112.8,359.2,010126,,*32
$GNGGA,000047.60,3348.2952,S,15052.2391,E,4,18,0.6,30.0,M,46.9,M,,*52
$GNRMC,000047.60,A,3348.2952,S,15052.2391,E,112.7,359.2,010126,,*33
$GNGGA,000047.70,3348.2952,S,15052.2428,E,4,18,0.6,30.0,M,46.9,M,,*56
$GNRMC,000047.70,A,3348.2952,S,15052.2428,E,112.6,359.2,010126,,*36
$GNGGA,000047.80,3348.2952,S,15052.2466,E,4,18,0.6,30.0,M,46.9,M,,*53
$GNRMC,000047.80,A,3348.2952,S,15052.2466,E,112.5,359.2,010126,,*30
$GNGGA,000047.90,3348.2953,S,15052.2504,E,4,18,0.6,30.0,M,46.9,M,,*56
$GNRMC,000047.90,A,3348.2953,S,15052.2504,E,112.4,359.2,010126,,*34
$GNGGA,000048.00,3348.2953,S,15052.2541,E,4,18,0.6,30.0,M,46.9,M,,*51
$GNRMC,000048.00,A,3348.2953,S,15052.2541,E,112.4,000.8,010126,,*36
$GNGGA,000048.10,3348.2953,S,15052.2579,E,4,18,0.6,30.0,M,46.9,M,,*5B
$GNRMC,000048.10,A,3348.2953,S,15052.2579,E,112.3,000.8,010126,,*3B
$GNGGA,000048.20,3348.2952,S,15052.2616,E,4,18,0.6,30.0,M,46.9,M,,*53
$GNRMC,000048.20,A,3348.2952,S,15052.2616,E,112.2,000.8,010126,,*32
$GNGGA,000048.30,3348.2952,S,15052.2654,E,4,18,0.6,30.0,M,46.9,M,,*54
$GNRMC,000048.30,A,3348.2952,S,15052.2654,E,112.1,000.8,010126,,*36
$GNGGA,000048.40,3348.2952,S,15052.2691,E,4,18,0.6,30.0,M,46.9,M,,*5A
$GNRMC,000048.40,A,3348.2952,S,15052.2691,E,112.0,000.8,010126,,*39
$GNGGA,000048.50,3348.2951,S,15052.2728,E,4,18,0.6,30.0,M,46.9,M,,*5B
$GNRMC,000048.50,A,3348.2951,S,15052.2728,E,111.9,000.8,010126,,*32
$GNGGA,000048.60,3348.2951,S,15052.2766,E,4,18,0.6,30.0,M,46.9,M,,*52
$GNRMC,000048.60,A,3348.2951,S,15052.2766,E,111.8,000.8,010126,,*3A
$GNGGA,000048.70,3348.2950,S,15052.2803,E,4,18,0.6,30.0,M,46.9,M,,*5E
$GNRMC,000048.70,A,3348.2950,S,15052.2803,E,111.7,000.8,010126,,*39
$GNGGA,000048.80,3348.2950,S,15052.2841,E,4,18,0.6,30.0,M,46.9,M,,*57
$GNRMC,000048.80,A,3348.2950,S,15052.2841,E,111.6,000.8,010126,,*31
$GNGGA,000048.90,3348.2949,S,15052.2878,E,4,18,0.6,30.0,M,46.9,M,,*54
$GNRMC,000048.90,A,3348.2949,S,15052.2878,E,111.5,000.8,010126,,*31
$GNGGA,000049.00,3348.2949,S,15052.2915,E,4,18,0.6,30.0,M,46.9,M,,*56
$GNRMC,000049.00,A,3348.2949,S,15052.2915,E,111.5,002.4,010126,,*3D
$GNGGA,000049.10,3348.2947,S,15052.2952,E,4,18,0.6,30.0,M,46.9,M,,*5A
$GNRMC,000049.10,A,3348.2947,S,15052.2952,E,111.4,002.4,010126,,*30
$GNGGA,000049.20,3348.2946,S,15052.2989,E,4,18,0.6,30.0,M,46.9,M,,*5E
$GNRMC,000049.20,A,3348.2946,S,15052.2989,E,111.3,002.4,010126,,*33
$GNGGA,000049.30,3348.2945,S,15052.3027,E,4,18,0.6,30.0,M,46.9,M,,*50
$GNRMC,000049.30,A,3348.2945,S,15052.3027,E,111.2,002.4,010126,,*3C
$GNGGA,000049.40,3348.2943,S,15052.3064,E,4,18,0.6,30.0,M,46.9,M,,*56
$GNRMC,000049.40,A,3348.2943,S,15052.3064,E,111.1,002.4,010126,,*39
$GNGGA,000049.50,3348.2942,S,15052.3101,E,4,18,0.6,30.0,M,46.9,M,,*54
$GNRMC,000049.50,A,3348.2942,S,15052.3101,E,111.0,002.4,010126,,*3A
$GNGGA,000049.60,3348.2941,S,15052.3138,E,4,18,0.6,30.0,M,46.9,M,,*5E
$GNRMC,000049.60,A,3348.2941,S,15052.3138,E,110.9,002.4,010126,,*38
$GNGGA,000049.70,3348.2940,S,15052.3175,E,4,18,0.6,30.0,M,46.9,M,,*57
$GNRMC,000049.70,A,3348.2940,S,15052.3175,E,110.8,002.4,010126,,*30
$GNGGA,000049.80,3348.2938,S,15052.3212,E,4,18,0.6,30.0,M,46.9,M,,*55
$GNRMC,000049.80,A,3348.2938,S,15052.3212,E,110.8,002.4,010126,,*32
$GNGGA,000049.90,3348.2937,S,15052.3249,E,4,18,0.6,30.0,M,46.9,M,,*55
$GNRMC,000049.90,A,3348.2937,S,15052.3249,E,110.7,002.4,010126,,*3D
$GNGGA,000050.00,3348.2935,S,15052.3286,E,4,18,0.6,30.0,M,46.9,M,,*55
$GNRMC,000050.00,A,3348.2935,S,15052.3286,E,110.6,004.0,010126,,*3E
$GNGGA,000050.10,3348.2933,S,15052.3323,E,4,18,0.6,30.0,M,46.9,M,,*5C
$GNRMC,000050.10,A,3348.2933,S,15052.3323,E,110.5,004.0,010126,,*34
$GNGGA,000050.20,3348.2931,S,15052.3359,E,4,18,0.6,30.0,M,46.9,M,,*50
$GNRMC,000050.20,A,3348.2931,S,15052.3359,E,110.4,004.0,010126,,*39
$GNGGA,000050.30,3348.2929,S,15052.3396,E,4,18,0.6,30.0,M,46.9,M,,*5B
$GNRMC,000050.30,A,3348.2929,S,15052.3396,E,110.3,004.0,010126,,*35
$GNGGA,000050.40,3348.2926,S,15052.3433,E,4,18,0.6,30.0,M,46.9,M,,*5B
$GNRMC,000050.40,A,3348.2926,S,15052.3433,E,110.3,004.0,010126,,*35
$GNGGA,000050.50,3348.2924,S,15052.3470,E,4,18,0.6,30.0,M,46.9,M,,*5F
$GNRMC,000050.50,A,3348.2924,S,15052.3470,E,110.2,004.0,010126,,*30
$GNGGA,000050.60,3348.2922,S,15052.3506,E,4,18,0.6,30.0,M,46.9,M,,*5A
$GNRMC,000050.60,A,3348.2922,S,15052.3506,E,110.1,004.0,010126,,*36
$GNGGA,000050.70,3348.2920,S,15052.3543,E,4,18,0.6,30.0,M,46.9,M,,*58
$GNRMC,000050.70,A,3348.2920,S,15052.3543,E,110.0,004.0,010126,,*35
$GNGGA,000050.80,3348.2918,S,15052.3580,E,4,18,0.6,30.0,M,46.9,M,,*53
$GNRMC,000050.80,A,3348.2918,S,15052.3580,E,110.0,004.0,010126,,*3E
$GNGGA,000050.90,3348.2915,S,15052.3616,E,4,18,0.6,30.0,M,46.9,M,,*53
$GNRMC,000050.90,A,3348.2915,S,15052.3616,E,109.9,005.6,010126,,*38
$GNGGA,000051.00,3348.2912,S,15052.3653,E,4,18,0.6,30.0,M,46.9,M,,*5D
$GNRMC,000051.00,A,3348.2912,S,15052.3653,E,109.8,005.6,010126,,*37
$GNGGA,000051.10,3348.2909,S,15052.3689,E,4,18,0.6,30.0,M,46.9,M,,*51
$GNRMC,000051.10,A,3348.2909,S,15052.3689,E,109.7,005.6,010126,,*34
$GNGGA,000051.20,3348.2907,S,15052.3726,E,4,18,0.6,30.0,M,46.9,M,,*58
$GNRMC,000051.20,A,3348.2907,S,15052.3726,E,109.7,005.6,010126,,*3D
$GNGGA,000051.30,3348.2904,S,15052.3762,E,4,18,0.6,30.0,M,46.9,M,,*5A
$GNRMC,000051.30,A,3348.2904,S,15052.3762,E,109.6,005.6,010126,,*3E
$GNGGA,000051.40,3348.2901,S,15052.3799,E,4,18,0.6,30.0,M,46.9,M,,*5C
$GNRMC,000051.40,A,3348.2901,S,15052.3799,E,109.5,005.6,010126,,*3B
$GNGGA,000051.50,3348.2898,S,15052.3835,E,4,18,0.6,30.0,M,46.9,M,,*55
$GNRMC,000051.50,A,3348.2898,S,15052.3835,E,109.4,005.6,010126,,*33
$GNGGA,000051.60,3348.2895,S,15052.3872,E,4,18,0.6,30.0,M,46.9,M,,*58
$GNRMC,000051.60,A,3348.2895,S,15052.3872,E,109.4,005.6,010126,,*3E
$GNGGA,000051.70,3348.2892,S,15052.3908,E,4,18,0.6,30.0,M,46.9,M,,*52
$GNRMC,000051.70,A,3348.2892,S,15052.3908,E,109.3,005.6,010126,,*33
$GNGGA,000051.80,3348.2889,S,15052.3944,E,4,18,0.6,30.0,M,46.9,M,,*5F
$GNRMC,000051.80,A,3348.2889,S,15052.3944,E,109.2,005.6,010126,,*3F
$GNGGA,000051.90,3348.2885,S,15052.3981,E,4,18,0.6,30.0,M,46.9,M,,*5B
$GNRMC,000051.90,A,3348.2885,S,15052.3981,E,109.2,007.3,010126,,*3C
$GNGGA,000052.00,3348.2881,S,15052.4017,E,4,18,0.6,30.0,M,46.9,M,,*54
$GNRMC,000052.00,A,3348.2881,S,15052.4017,E,109.1,007.3,010126,,*30
$GNGGA,000052.10,3348.2877,S,15052.4053,E,4,18,0.6,30.0,M,46.9,M,,*5C
$GNRMC,000052.10,A,3348.2877,S,15052.4053,E,109.0,007.3,010126,,*39
$GNGGA,000052.20,3348.2873,S,15052.4089,E,4,18,0.6,30.0,M,46.9,M,,*5C
$GNRMC,000052.20,A,3348.2873,S,15052.4089,E,109.0,007.3,010126,,*39
$GNGGA,000052.30,3348.2870,S,15052.4125,E,4,18,0.6,30.0,M,46.9,M,,*59
$GNRMC,000052.30,A,3348.2870,S,15052.4125,E,108.9,007.3,010126,,*34
$GNGGA,000052.40,3348.2866,S,15052.4161,E,4,18,0.6,30.0,M,46.9,M,,*59
$GNRMC,000052.40,A,3348.2866,S,15052.4161,E,108.8,007.3,010126,,*35
$GNGGA,000052.50,3348.2862,S,15052.4197,E,4,18,0.6,30.0,M,46.9,M,,*55
$GNRMC,000052.50,A,3348.2862,S,15052.4197,E,108.8,007.3,010126,,*39
$GNGGA,000052.60,3348.2858,S,15052.4233,E,4,18,0.6,30.0,M,46.9,M,,*52
$GNRMC,000052.60,A,3348.2858,S,15052.4233,E,108.7,007.3,010126,,*31
$GNGGA,000052.70,3348.2854,S,15052.4269,E,4,18,0.6,30.0,M,46.9,M,,*50
$GNRMC,000052.70,A,3348.2854,S,15052.4269,E,108.7,007.3,010126,,*33
$GNGGA,000052.80,3348.2850,S,15052.4305,E,4,18,0.6,30.0,M,46.9,M,,*50
$GNRMC,000052.80,A,3348.2850,S,15052.4305,E,108.6,009.0,010126,,*3F
$GNGGA,000052.90,3348.2845,S,15052.4341,E,4,18,0.6,30.0,M,46.9,M,,*55
$GNRMC,000052.90,A,3348.2845,S,15052.4341,E,108.6,009.0,010126,,*3A
$GNGGA,000053.00,3348.2841,S,15052.4377,E,4,18,0.6,30.0,M,46.9,M,,*5C
$GNRMC,000053.00,A,3348.2841,S,15052.4377,E,108.5,009.0,010126,,*30
$GNGGA,000053.10,3348.2836,S,15052.4413,E,4,18,0.6,30.0,M,46.9,M,,*58
$GNRMC,000053.10,A,3348.2836,S,15052.4413,E,108.4,009.0,010126,,*35
$GNGGA,000053.20,3348.2831,S,15052.4448,E,4,18,0.6,30.0,M,46.9,M,,*52
$GNRMC,000053.20,A,3348.2831,S,15052.4448,E,108.4,009.0,010126,,*3F
$GNGGA,000053.30,3348.2826,S,15052.4484,E,4,18,0.6,30.0,M,46.9,M,,*55
$GNRMC,000053.30,A,3348.2826,S,15052.4484,E,108.3,009.0,010126,,*3F
$GNGGA,000053.40,3348.2822,S,15052.4520,E,4,18,0.6,30.0,M,46.9,M,,*59
$GNRMC,000053.40,A,3348.2822,S,15052.4520,E,108.3,009.0,010126,,*33
$GNGGA,000053.50,3348.2817,S,15052.4556,E,4,18,0.6,30.0,M,46.9,M,,*5F
$GNRMC,000053.50,A,3348.2817,S,15052.4556,E,108.3,009.0,010126,,*35
$GNGGA,000053.60,3348.2812,S,15052.4591,E,4,18,0.6,30.0,M,46.9,M,,*52
$GNRMC,000053.60,A,3348.2812,S,15052.4591,E,108.2,009.0,010126,,*39
$GNGGA,000053.70,3348.2808,S,15052.4627,E,4,18,0.6,30.0,M,46.9,M,,*56
$GNRMC,000053.70,A,3348.2808,S,15052.4627,E,108.2,010.8,010126,,*3D
$GNGGA,000053.80,3348.2802,S,15052.4663,E,4,18,0.6,30.0,M,46.9,M,,*53
$GNRMC,000053.80,A,3348.2802,S,15052.4663,E,108.1,010.8,010126,,*3B
$GNGGA,000053.90,3348.2796,S,15052.4698,E,4,18,0.6,30.0,M,46.9,M,,*54
$GNRMC,000053.90,A,3348.2796,S,15052.4698,E,108.1,010.8,010126,,*3C
$GNGGA,000054.00,3348.2791,S,15052.4734,E,4,18,0.6,30.0,M,46.9,M,,*5A
$GNRMC,000054.00,A,3348.2791,S,15052.4734,E,108.0,010.8,010126,,*33
$GNGGA,000054.10,3348.2785,S,15052.4769,E,4,18,0.6,30.0,M,46.9,M,,*56
$GNRMC,000054.10,A,3348.2785,S,15052.4769,E,108.0,010.8,010126,,*3F
$GNGGA,000054.20,3348.2779,S,15052.4804,E,4,18,0.6,30.0,M,46.9,M,,*52
$GNRMC,000054.20,A,3348.2779,S,15052.4804,E,108.0,010.8,010126,,*3B
$GNGGA,000054.30,3348.2774,S,15052.4840,E,4,18,0.6,30.0,M,46.9,M,,*5E
$GNRMC,000054.30,A,3348.2774,S,15052.4840,E,107.9,010.8,010126,,*31
$GNGGA,000054.40,3348.2768,S,15052.4875,E,4,18,0.6,30.0,M,46.9,M,,*52
$GNRMC,000054.40,A,3348.2768,S,15052.4875,E,107.9,010.8,010126,,*3D
$GNGGA,000054.50,3348.2763,S,15052.4911,E,4,18,0.6,30.0,M,46.9,M,,*5B
$GNRMC,000054.50,A,3348.2763,S,15052.4911,E,107.9,010.8,010126,,*34
$GNGGA,000054.60,3348.2757,S,15052.4946,E,4,18,0.6,30.0,M,46.9,M,,*5D
$GNRMC,000054.60,A,3348.2757,S,15052.4946,E,107.8,012.7,010126,,*3E
$GNGGA,000054.70,3348.2750,S,15052.4981,E,4,18,0.6,30.0,M,46.9,M,,*50
$GNRMC,000054.70,A,3348.2750,S,15052.4981,E,107.8,012.7,010126,,*33
$GNGGA,000054.80,3348.2744,S,15052.5016,E,4,18,0.6,30.0,M,46.9,M,,*5C
$GNRMC,000054.80,A,3348.2744,S,15052.5016,E,107.8,012.7,010126,,*3F
$GNGGA,000054.90,3348.2737,S,15052.5051,E,4,18,0.6,30.0,M,46.9,M,,*5A
$GNRMC,000054.90,A,3348.2737,S,15052.5051,E,107.7,012.7,010126,,*36
$GNGGA,000055.00,3348.2731,S,15052.5087,E,4,18,0.6,30.0,M,46.9,M,,*5F
$GNRMC,000055.00,A,3348.2731,S,15052.5087,E,107.7,012.7,010126,,*33
$GNGGA,000055.10,3348.2724,S,15052.5122,E,4,18,0.6,30.0,M,46.9,M,,*54
$GNRMC,000055.10,A,3348.2724,S,15052.5122,E,107.7,012.7,010126,,*38
$GNGGA,000055.20,3348.2718,S,15052.5157,E,4,18,0.6,30.0,M,46.9,M,,*5A
$GNRMC,000055.20,A,3348.2718,S,15052.5157,E,107.7,012.7,010126,,*36
$GNGGA,000055.30,3348.2711,S,15052.5192,E,4,18,0.6,30.0,M,46.9,M,,*5B
$GNRMC,000055.30,A,3348.2711,S,15052.5192,E,107.6,012.7,010126,,*36
$GNGGA,000055.40,3348.2704,S,15052.5227,E,4,18,0.6,30.0,M,46.9,M,,*55
$GNRMC,000055.40,A,3348.2704,S,15052.5227,E,107.6,012.7,010126,,*38
$GNGGA,000055.50,3348.2698,S,15052.5262,E,4,18,0.6,30.0,M,46.9,M,,*51
$GNRMC,000055.50,A,3348.2698,S,15052.5262,E,107.6,014.7,010126,,*3A
$GNGGA,000055.60,3348.2690,S,15052.5297,E,4,18,0.6,30.0,M,46.9,M,,*50
$GNRMC,000055.60,A,3348.2690,S,15052.5297,E,107.6,014.7,010126,,*3B
$GNGGA,000055.70,3348.2683,S,15052.5332,E,4,18,0.6,30.0,M,46.9,M,,*5D
$GNRMC,000055.70,A,3348.2683,S,15052.5332,E,107.6,014.7,010126,,*36
$GNGGA,000055.80,3348.2675,S,15052.5366,E,4,18,0.6,30.0,M,46.9,M,,*5A
$GNRMC,000055.80,A,3348.2675,S,15052.5366,E,107.6,014.7,010126,,*31
$GNGGA,000055.90,3348.2668,S,15052.5401,E,4,18,0.6,30.0,M,46.9,M,,*51
$GNRMC,000055.90,A,3348.2668,S,15052.5401,E,107.5,014.7,010126,,*39
$GNGGA,000056.00,3348.2660,S,15052.5436,E,4,18,0.6,30.0,M,46.9,M,,*57
$GNRMC,000056.00,A,3348.2660,S,15052.5436,E,107.5,014.7,010126,,*3F
$GNGGA,000056.10,3348.2652,S,15052.5471,E,4,18,0.6,30.0,M,46.9,M,,*54
$GNRMC,000056.10,A,3348.2652,S,15052.5471,E,107.5,014.7,010126,,*3C
$GNGGA,000056.20,3348.2645,S,15052.5505,E,4,18,0.6,30.0,M,46.9,M,,*53
$GNRMC,000056.20,A,3348.2645,S,15052.5505,E,107.5,014.7,010126,,*3B
$GNGGA,000056.30,3348.2637,S,15052.5540,E,4,18,0.6,30.0,M,46.9,M,,*56
$GNRMC,000056.30,A,3348.2637,S,15052.5540,E,107.5,014.7,010126,,*3E
$GNGGA,000056.40,3348.2629,S,15052.5575,E,4,18,0.6,30.0,M,46.9,M,,*58
$GNRMC,000056.40,A,3348.2629,S,15052.5575,E,107.5,016.8,010126,,*3D
$GNGGA,000056.50,3348.2621,S,15052.5609,E,4,18,0.6,30.0,M,46.9,M,,*59
$GNRMC,000056.50,A,3348.2621,S,15052.5609,E,107.5,016.8,010126,,*3C
$GNGGA,000056.60,3348.2612,S,15052.5643,E,4,18,0.6,30.0,M,46.9,M,,*54
$GNRMC,000056.60,A,3348.2612,S,15052.5643,E,107.5,016.8,010126,,*31
$GNGGA,000056.70,3348.2604,S,15052.5678,E,4,18,0.6,30.0,M,46.9,M,,*5A
$GNRMC,000056.70,A,3348.2604,S,15052.5678,E,107.5,016.8,010126,,*3F
$GNGGA,000056.80,3348.2595,S,15052.5712,E,4,18,0.6,30.0,M,46.9,M,,*53
$GNRMC,000056.80,A,3348.2595,S,15052.5712,E,107.5,016.8,010126,,*36
$GNGGA,000056.90,3348.2586,S,15052.5747,E,4,18,0.6,30.0,M,46.9,M,,*50
$GNRMC,000056.90,A,3348.2586,S,15052.5747,E,107.5,016.8,010126,,*35
$GNGGA,000057.00,3348.2578,S,15052.5781,E,4,18,0.6,30.0,M,46.9,M,,*53
$GNRMC,000057.00,A,3348.2578,S,15052.5781,E,107.5,016.8,010126,,*36
$GNGGA,000057.10,3348.2569,S,15052.5815,E,4,18,0.6,30.0,M,46.9,M,,*50
$GNRMC,000057.10,A,3348.2569,S,15052.5815,E,107.5,016.8,010126,,*35
$GNGGA,000057.20,3348.2560,S,15052.5850,E,4,18,0.6,30.0,M,46.9,M,,*5B
$GNRMC,000057.20,A,3348.2560,S,15052.5850,E,107.5,016.8,010126,,*3E
$GNGGA,000057.30,3348.2551,S,15052.5884,E,4,18,0.6,30.0,M,46.9,M,,*51
$GNRMC,000057.30,A,3348.2551,S,15052.5884,E,107.5,019.1,010126,,*32
$GNGGA,000057.40,3348.2541,S,15052.5918,E,4,18,0.6,30.0,M,46.9,M,,*53
$GNRMC,000057.40,A,3348.2541,S,15052.5918,E,107.5,019.1,010126,,*30
$GNGGA,000057.50,3348.2531,S,15052.5952,E,4,18,0.6,30.0,M,46.9,M,,*5B
$GNRMC,000057.50,A,3348.2531,S,15052.5952,E,107.5,019.1,010126,,*38
$GNGGA,000057.60,3348.2521,S,15052.5986,E,4,18,0.6,30.0,M,46.9,M,,*50
$GNRMC,000057.60,A,3348.2521,S,15052.5986,E,107.6,019.1,010126,,*30
$GNGGA,000057.70,3348.2512,S,15052.6019,E,4,18,0.6,30.0,M,46.9,M,,*5D
$GNRMC,000057.70,A,3348.2512,S,15052.6019,E,107.6,019.1,010126,,*3D
$GNGGA,000057.80,3348.2502,S,15052.6053,E,4,18,0.6,30.0,M,46.9,M,,*5D
$GNRMC,000057.80,A,3348.2502,S,15052.6053,E,107.6,019.1,010126,,*3D
$GNGGA,000057.90,3348.2492,S,15052.6087,E,4,18,0.6,30.0,M,46.9,M,,*5D
$GNRMC,000057.90,A,3348.2492,S,15052.6087,E,107.6,019.1,010126,,*3D
$GNGGA,000058.00,3348.2482,S,15052.6121,E,4,18,0.6,30.0,M,46.9,M,,*57
$GNRMC,000058.00,A,3348.2482,S,15052.6121,E,107.6,019.1,010126,,*37
$GNGGA,000058.10,3348.2472,S,15052.6155,E,4,18,0.6,30.0,M,46.9,M,,*5A
$GNRMC,000058.10,A,3348.2472,S,15052.6155,E,107.7,021.5,010126,,*34
$GNGGA,000058.20,3348.2461,S,15052.6188,E,4,18,0.6,30.0,M,46.9,M,,*5B
$GNRMC,000058.20,A,3348.2461,S,15052.6188,E,107.7,021.5,010126,,*35
$GNGGA,000058.30,3348.2450,S,15052.6222,E,4,18,0.6,30.0,M,46.9,M,,*5B
$GNRMC,000058.30,A,3348.2450,S,15052.6222,E,107.7,021.5,010126,,*35
$GNGGA,000058.40,3348.2439,S,15052.6255,E,4,18,0.6,30.0,M,46.9,M,,*53
$GNRMC,000058.40,A,3348.2439,S,15052.6255,E,107.7,021.5,010126,,*3D
$GNGGA,000058.50,3348.2428,S,15052.6289,E,4,18,0.6,30.0,M,46.9,M,,*53
$GNRMC,000058.50,A,3348.2428,S,15052.6289,E,107.8,021.5,010126,,*32
$GNGGA,000058.60,3348.2417,S,15052.6322,E,4,18,0.6,30.0,M,46.9,M,,*5C
$GNRMC,000058.60,A,3348.2417,S,15052.6322,E,107.8,021.5,010126,,*3D
$GNGGA,000058.70,3348.2406,S,15052.6356,E,4,18,0.6,30.0,M,46.9,M,,*5E
$GNRMC,000058.70,A,3348.2406,S,15052.6356,E,107.8,021.5,010126,,*3F
$GNGGA,000058.80,3348.2395,S,15052.6389,E,4,18,0.6,30.0,M,46.9,M,,*5E
$GNRMC,000058.80,A,3348.2395,S,15052.6389,E,107.8,024.2,010126,,*3D
$GNGGA,000058.90,3348.2383,S,15052.6422,E,4,18,0.6,30.0,M,46.9,M,,*5E
$GNRMC,000058.90,A,3348.2383,S,15052.6422,E,107.9,024.2,010126,,*3C
$GNGGA,000059.00,3348.2370,S,15052.6455,E,4,18,0.6,30.0,M,46.9,M,,*5A
$GNRMC,000059.00,A,3348.2370,S,15052.6455,E,107.9,024.2,010126,,*38
$GNGGA,000059.10,3348.2358,S,15052.6488,E,4,18,0.6,30.0,M,46.9,M,,*51
$GNRMC,000059.10,A,3348.2358,S,15052.6488,E,107.9,024.2,010126,,*33
$GNGGA,000059.20,3348.2346,S,15052.6521,E,4,18,0.6,30.0,M,46.9,M,,*5F
$GNRMC,000059.20,A,3348.2346,S,15052.6521,E,108.0,024.2,010126,,*3B
$GNGGA,000059.30,3348.2333,S,15052.6554,E,4,18,0.6,30.0,M,46.9,M,,*5E
$GNRMC,000059.30,A,3348.2333,S,15052.6554,E,108.0,024.2,010126,,*3A
$GNGGA,000059.40,3348.2321,S,15052.6587,E,4,18,0.6,30.0,M,46.9,M,,*54
$GNRMC,000059.40,A,3348.2321,S,15052.6587,E,108.1,024.2,010126,,*31
$GNGGA,000059.50,3348.2309,S,15052.6619,E,4,18,0.6,30.0,M,46.9,M,,*5B
$GNRMC,000059.50,A,3348.2309,S,15052.6619,E,108.1,024.2,010126,,*3E
$GNGGA,000059.60,3348.2296,S,15052.6652,E,4,18,0.6,30.0,M,46.9,M,,*50
$GNRMC,000059.60,A,3348.2296,S,15052.6652,E,108.1,027.2,010126,,*36
$GNGGA,000059.70,3348.2282,S,15052.6684,E,4,18,0.6,30.0,M,46.9,M,,*5F
$GNRMC,000059.70,A,3348.2282,S,15052.6684,E,108.2,027.2,010126,,*3A
$GNGGA,000059.80,3348.2268,S,15052.6716,E,4,18,0.6,30.0,M,46.9,M,,*5E
$GNRMC,000059.80,A,3348.2268,S,15052.6716,E,108.2,027.2,010126,,*3B
$GNGGA,000059.90,3348.2254,S,15052.6748,E,4,18,0.6,30.0,M,46.9,M,,*5B
$GNRMC,000059.90,A,3348.2254,S,15052.6748,E,108.3,027.2,010126,,*3F
