$GNGGA,000000.00,3348.1050,S,15052.7980,E,4,18,0.6,30.0,M,46.9,M,,*50
$GNRMC,000000.00,A,3348.1050,S,15052.7980,E,087.5,094.4,010126,,*3A
$GNGGA,000000.10,3348.1026,S,15052.7977,E,4,18,0.6,30.0,M,46.9,M,,*58
$GNRMC,000000.10,A,3348.1026,S,15052.7977,E,087.5,094.4,010126,,*32
$GNGGA,000000.20,3348.1002,S,15052.7975,E,4,18,0.6,30.0,M,46.9,M,,*5F
$GNRMC,000000.20,A,3348.1002,S,15052.7975,E,087.6,094.4,010126,,*36
$GNGGA,000000.30,3348.0977,S,15052.7973,E,4,18,0.6,30.0,M,46.9,M,,*52
$GNRMC,000000.30,A,3348.0977,S,15052.7973,E,087.6,094.4,010126,,*3B
$GNGGA,000000.40,3348.0953,S,15052.7971,E,4,18,0.6,30.0,M,46.9,M,,*51
$GNRMC,000000.40,A,3348.0953,S,15052.7971,E,087.6,094.4,010126,,*38
$GNGGA,000000.50,3348.0929,S,15052.7968,E,4,18,0.6,30.0,M,46.9,M,,*55
$GNRMC,000000.50,A,3348.0929,S,15052.7968,E,087.7,094.4,010126,,*3D
$GNGGA,000000.60,3348.0905,S,15052.7962,E,4,18,0.6,30.0,M,46.9,M,,*52
$GNRMC,000000.60,A,3348.0905,S,15052.7962,E,087.7,103.2,010126,,*33
$GNGGA,000000.70,3348.0881,S,15052.7956,E,4,18,0.6,30.0,M,46.9,M,,*59
$GNRMC,000000.70,A,3348.0881,S,15052.7956,E,087.8,103.2,010126,,*37
$GNGGA,000000.80,3348.0858,S,15052.7949,E,4,18,0.6,30.0,M,46.9,M,,*5C
$GNRMC,000000.80,A,3348.0858,S,15052.7949,E,087.8,103.2,010126,,*32
$GNGGA,000000.90,3348.0834,S,15052.7942,E,4,18,0.6,30.0,M,46.9,M,,*5C
$GNRMC,000000.90,A,3348.0834,S,15052.7942,E,087.9,103.2,010126,,*33
$GNGGA,000001.00,3348.0810,S,15052.7936,E,4,18,0.6,30.0,M,46.9,M,,*51
$GNRMC,000001.00,A,3348.0810,S,15052.7936,E,087.9,103.2,010126,,*3E
$GNGGA,000001.10,3348.0787,S,15052.7926,E,4,18,0.6,30.0,M,46.9,M,,*50
$GNRMC,000001.10,A,3348.0787,S,15052.7926,E,087.9,111.4,010126,,*3A
$GNGGA,000001.20,3348.0764,S,15052.7916,E,4,18,0.6,30.0,M,46.9,M,,*5D
$GNRMC,000001.20,A,3348.0764,S,15052.7916,E,088.0,111.4,010126,,*31
$GNGGA,000001.30,3348.0742,S,15052.7905,E,4,18,0.6,30.0,M,46.9,M,,*5A
$GNRMC,000001.30,A,3348.0742,S,15052.7905,E,088.0,111.4,010126,,*36
$GNGGA,000001.40,3348.0719,S,15052.7894,E,4,18,0.6,30.0,M,46.9,M,,*5A
$GNRMC,000001.40,A,3348.0719,S,15052.7894,E,088.1,111.4,010126,,*37
$GNGGA,000001.50,3348.0696,S,15052.7883,E,4,18,0.6,30.0,M,46.9,M,,*5B
$GNRMC,000001.50,A,3348.0696,S,15052.7883,E,088.1,111.4,010126,,*36
$GNGGA,000001.60,3348.0674,S,15052.7872,E,4,18,0.6,30.0,M,46.9,M,,*5A
$GNRMC,000001.60,A,3348.0674,S,15052.7872,E,088.1,119.0,010126,,*3B
$GNGGA,000001.70,3348.0652,S,15052.7858,E,4,18,0.6,30.0,M,46.9,M,,*57
$GNRMC,000001.70,A,3348.0652,S,15052.7858,E,088.2,119.0,010126,,*35
$GNGGA,000001.80,3348.0631,S,15052.7843,E,4,18,0.6,30.0,M,46.9,M,,*57
$GNRMC,000001.80,A,3348.0631,S,15052.7843,E,088.2,119.0,010126,,*35
$GNGGA,000001.90,3348.0609,S,15052.7829,E,4,18,0.6,30.0,M,46.9,M,,*51
$GNRMC,000001.90,A,3348.0609,S,15052.7829,E,088.3,119.0,010126,,*32
$GNGGA,000002.00,3348.0588,S,15052.7815,E,4,18,0.6,30.0,M,46.9,M,,*5E
$GNRMC,000002.00,A,3348.0588,S,15052.7815,E,088.3,119.0,010126,,*3D
$GNGGA,000002.10,3348.0567,S,15052.7800,E,4,18,0.6,30.0,M,46.9,M,,*5A
$GNRMC,000002.10,A,3348.0567,S,15052.7800,E,088.4,119.0,010126,,*3E
$GNGGA,000002.20,3348.0546,S,15052.7784,E,4,18,0.6,30.0,M,46.9,M,,*59
$GNRMC,000002.20,A,3348.0546,S,15052.7784,E,088.4,125.8,010126,,*3A
$GNGGA,000002.30,3348.0526,S,15052.7767,E,4,18,0.6,30.0,M,46.9,M,,*53
$GNRMC,000002.30,A,3348.0526,S,15052.7767,E,088.4,125.8,010126,,*30
$GNGGA,000002.40,3348.0506,S,15052.7750,E,4,18,0.6,30.0,M,46.9,M,,*52
$GNRMC,000002.40,A,3348.0506,S,15052.7750,E,088.5,125.8,010126,,*30
$GNGGA,000002.50,3348.0486,S,15052.7733,E,4,18,0.6,30.0,M,46.9,M,,*5F
$GNRMC,000002.50,A,3348.0486,S,15052.7733,E,088.5,125.8,010126,,*3D
$GNGGA,000002.60,3348.0466,S,15052.7715,E,4,18,0.6,30.0,M,46.9,M,,*56
$GNRMC,000002.60,A,3348.0466,S,15052.7715,E,088.6,125.8,010126,,*37
$GNGGA,000002.70,3348.0446,S,15052.7698,E,4,18,0.6,30.0,M,46.9,M,,*51
$GNRMC,000002.70,A,3348.0446,S,15052.7698,E,088.6,125.8,010126,,*30
$GNGGA,000002.80,3348.0427,S,15052.7679,E,4,18,0.6,30.0,M,46.9,M,,*56
$GNRMC,000002.80,A,3348.0427,S,15052.7679,E,088.6,131.8,010126,,*32
$GNGGA,000002.90,3348.0409,S,15052.7660,E,4,18,0.6,30.0,M,46.9,M,,*53
$GNRMC,000002.90,A,3348.0409,S,15052.7660,E,088.7,131.8,010126,,*36
$GNGGA,000003.00,3348.0391,S,15052.7640,E,4,18,0.6,30.0,M,46.9,M,,*5F
$GNRMC,000003.00,A,3348.0391,S,15052.7640,E,088.7,131.8,010126,,*3A
$GNGGA,000003.10,3348.0372,S,15052.7620,E,4,18,0.6,30.0,M,46.9,M,,*55
$GNRMC,000003.10,A,3348.0372,S,15052.7620,E,088.7,131.8,010126,,*30
$GNGGA,000003.20,3348.0354,S,15052.7600,E,4,18,0.6,30.0,M,46.9,M,,*50
$GNRMC,000003.20,A,3348.0354,S,15052.7600,E,088.8,131.8,010126,,*3A
$GNGGA,000003.30,3348.0336,S,15052.7581,E,4,18,0.6,30.0,M,46.9,M,,*5F
$GNRMC,000003.30,A,3348.0336,S,15052.7581,E,088.8,131.8,010126,,*35
$GNGGA,000003.40,3348.0318,S,15052.7560,E,4,18,0.6,30.0,M,46.9,M,,*5B
$GNRMC,000003.40,A,3348.0318,S,15052.7560,E,088.9,137.1,010126,,*3F
$GNGGA,000003.50,3348.0301,S,15052.7538,E,4,18,0.6,30.0,M,46.9,M,,*5F
$GNRMC,000003.50,A,3348.0301,S,15052.7538,E,088.9,137.1,010126,,*3B
$GNGGA,000003.60,3348.0284,S,15052.7517,E,4,18,0.6,30.0,M,46.9,M,,*5D
$GNRMC,000003.60,A,3348.0284,S,15052.7517,E,088.9,137.1,010126,,*39
$GNGGA,000003.70,3348.0267,S,15052.7495,E,4,18,0.6,30.0,M,46.9,M,,*5A
$GNRMC,000003.70,A,3348.0267,S,15052.7495,E,089.0,137.1,010126,,*36
$GNGGA,000003.80,3348.0250,S,15052.7473,E,4,18,0.6,30.0,M,46.9,M,,*59
$GNRMC,000003.80,A,3348.0250,S,15052.7473,E,089.0,137.1,010126,,*35
$GNGGA,000003.90,3348.0234,S,15052.7451,E,4,18,0.6,30.0,M,46.9,M,,*5A
$GNRMC,000003.90,A,3348.0234,S,15052.7451,E,089.0,137.1,010126,,*36
$GNGGA,000004.00,3348.0217,S,15052.7430,E,4,18,0.6,30.0,M,46.9,M,,*52
$GNRMC,000004.00,A,3348.0217,S,15052.7430,E,089.1,137.1,010126,,*3F
$GNGGA,000004.10,3348.0201,S,15052.7407,E,4,18,0.6,30.0,M,46.9,M,,*50
$GNRMC,000004.10,A,3348.0201,S,15052.7407,E,089.1,141.8,010126,,*35
$GNGGA,000004.20,3348.0185,S,15052.7384,E,4,18,0.6,30.0,M,46.9,M,,*50
$GNRMC,000004.20,A,3348.0185,S,15052.7384,E,089.2,141.8,010126,,*36
$GNGGA,000004.30,3348.0170,S,15052.7360,E,4,18,0.6,30.0,M,46.9,M,,*51
$GNRMC,000004.30,A,3348.0170,S,15052.7360,E,089.2,141.8,010126,,*37
$GNGGA,000004.40,3348.0155,S,15052.7337,E,4,18,0.6,30.0,M,46.9,M,,*53
$GNRMC,000004.40,A,3348.0155,S,15052.7337,E,089.2,141.8,010126,,*35
$GNGGA,000004.50,3348.0139,S,15052.7313,E,4,18,0.6,30.0,M,46.9,M,,*5E
$GNRMC,000004.50,A,3348.0139,S,15052.7313,E,089.3,141.8,010126,,*39
$GNGGA,000004.60,3348.0124,S,15052.7290,E,4,18,0.6,30.0,M,46.9,M,,*5B
$GNRMC,000004.60,A,3348.0124,S,15052.7290,E,089.3,141.8,010126,,*3C
$GNGGA,000004.70,3348.0109,S,15052.7267,E,4,18,0.6,30.0,M,46.9,M,,*5D
$GNRMC,000004.70,A,3348.0109,S,15052.7267,E,089.3,141.8,010126,,*3A
$GNGGA,000004.80,3348.0094,S,15052.7243,E,4,18,0.6,30.0,M,46.9,M,,*51
$GNRMC,000004.80,A,3348.0094,S,15052.7243,E,089.4,145.9,010126,,*34
$GNGGA,000004.90,3348.0080,S,15052.7218,E,4,18,0.6,30.0,M,46.9,M,,*5B
$GNRMC,000004.90,A,3348.0080,S,15052.7218,E,089.4,145.9,010126,,*3E
$GNGGA,000005.00,3348.0066,S,15052.7193,E,4,18,0.6,30.0,M,46.9,M,,*5B
$GNRMC,000005.00,A,3348.0066,S,15052.7193,E,089.4,145.9,010126,,*3E
$GNGGA,000005.10,3348.0052,S,15052.7169,E,4,18,0.6,30.0,M,46.9,M,,*58
$GNRMC,000005.10,A,3348.0052,S,15052.7169,E,089.5,145.9,010126,,*3C
$GNGGA,000005.20,3348.0038,S,15052.7144,E,4,18,0.6,30.0,M,46.9,M,,*58
$GNRMC,000005.20,A,3348.0038,S,15052.7144,E,089.5,145.9,010126,,*3C
$GNGGA,000005.30,3348.0024,S,15052.7119,E,4,18,0.6,30.0,M,46.9,M,,*5C
$GNRMC,000005.30,A,3348.0024,S,15052.7119,E,089.5,145.9,010126,,*38
$GNGGA,000005.40,3348.0010,S,15052.7094,E,4,18,0.6,30.0,M,46.9,M,,*58
$GNRMC,000005.40,A,3348.0010,S,15052.7094,E,089.6,145.9,010126,,*3F
$GNGGA,000005.50,3347.9996,S,15052.7070,E,4,18,0.6,30.0,M,46.9,M,,*52
$GNRMC,000005.50,A,3347.9996,S,15052.7070,E,089.6,145.9,010126,,*35
$GNGGA,000005.60,3347.9983,S,15052.7044,E,4,18,0.6,30.0,M,46.9,M,,*52
$GNRMC,000005.60,A,3347.9983,S,15052.7044,E,089.6,149.6,010126,,*36
$GNGGA,000005.70,3347.9971,S,15052.7018,E,4,18,0.6,30.0,M,46.9,M,,*57
$GNRMC,000005.70,A,3347.9971,S,15052.7018,E,089.6,149.6,010126,,*33
$GNGGA,000005.80,3347.9958,S,15052.6992,E,4,18,0.6,30.0,M,46.9,M,,*59
$GNRMC,000005.80,A,3347.9958,S,15052.6992,E,089.7,149.6,010126,,*3C
$GNGGA,000005.90,3347.9946,S,15052.6967,E,4,18,0.6,30.0,M,46.9,M,,*5D
$GNRMC,000005.90,A,3347.9946,S,15052.6967,E,089.7,149.6,010126,,*38
$GNGGA,000006.00,3347.9933,S,15052.6941,E,4,18,0.6,30.0,M,46.9,M,,*51
$GNRMC,000006.00,A,3347.9933,S,15052.6941,E,089.7,149.6,010126,,*34
$GNGGA,000006.10,3347.9920,S,15052.6915,E,4,18,0.6,30.0,M,46.9,M,,*53
$GNRMC,000006.10,A,3347.9920,S,15052.6915,E,089.8,149.6,010126,,*39
$GNGGA,000006.20,3347.9908,S,15052.6889,E,4,18,0.6,30.0,M,46.9,M,,*5E
$GNRMC,000006.20,A,3347.9908,S,15052.6889,E,089.8,149.6,010126,,*34
$GNGGA,000006.30,3347.9895,S,15052.6863,E,4,18,0.6,30.0,M,46.9,M,,*5E
$GNRMC,000006.30,A,3347.9895,S,15052.6863,E,089.8,149.6,010126,,*34
$GNGGA,000006.40,3347.9883,S,15052.6837,E,4,18,0.6,30.0,M,46.9,M,,*5F
$GNRMC,000006.40,A,3347.9883,S,15052.6837,E,089.8,152.8,010126,,*31
$GNGGA,000006.50,3347.9872,S,15052.6810,E,4,18,0.6,30.0,M,46.9,M,,*55
$GNRMC,000006.50,A,3347.9872,S,15052.6810,E,089.9,152.8,010126,,*3A
$GNGGA,000006.60,3347.9861,S,15052.6783,E,4,18,0.6,30.0,M,46.9,M,,*51
$GNRMC,000006.60,A,3347.9861,S,15052.6783,E,089.9,152.8,010126,,*3E
$GNGGA,000006.70,3347.9849,S,15052.6757,E,4,18,0.6,30.0,M,46.9,M,,*53
$GNRMC,000006.70,A,3347.9849,S,15052.6757,E,089.9,152.8,010126,,*3C
$GNGGA,000006.80,3347.9838,S,15052.6730,E,4,18,0.6,30.0,M,46.9,M,,*5B
$GNRMC,000006.80,A,3347.9838,S,15052.6730,E,089.9,152.8,010126,,*34
$GNGGA,000006.90,3347.9826,S,15052.6703,E,4,18,0.6,30.0,M,46.9,M,,*55
$GNRMC,000006.90,A,3347.9826,S,15052.6703,E,090.0,152.8,010126,,*3B
$GNGGA,000007.00,3347.9815,S,15052.6676,E,4,18,0.6,30.0,M,46.9,M,,*5E
$GNRMC,000007.00,A,3347.9815,S,15052.6676,E,090.0,152.8,010126,,*30
$GNGGA,000007.10,3347.9804,S,15052.6650,E,4,18,0.6,30.0,M,46.9,M,,*5B
$GNRMC,000007.10,A,3347.9804,S,15052.6650,E,090.0,152.8,010126,,*35
$GNGGA,000007.20,3347.9792,S,15052.6623,E,4,18,0.6,30.0,M,46.9,M,,*5C
$GNRMC,000007.20,A,3347.9792,S,15052.6623,E,090.0,155.8,010126,,*35
$GNGGA,000007.30,3347.9782,S,15052.6595,E,4,18,0.6,30.0,M,46.9,M,,*52
$GNRMC,000007.30,A,3347.9782,S,15052.6595,E,090.0,155.8,010126,,*3B
$GNGGA,000007.40,3347.9772,S,15052.6568,E,4,18,0.6,30.0,M,46.9,M,,*58
$GNRMC,000007.40,A,3347.9772,S,15052.6568,E,090.1,155.8,010126,,*30
$GNGGA,000007.50,3347.9762,S,15052.6540,E,4,18,0.6,30.0,M,46.9,M,,*52
$GNRMC,000007.50,A,3347.9762,S,15052.6540,E,090.1,155.8,010126,,*3A
$GNGGA,000007.60,3347.9751,S,15052.6513,E,4,18,0.6,30.0,M,46.9,M,,*57
$GNRMC,000007.60,A,3347.9751,S,15052.6513,E,090.1,155.8,010126,,*3F
$GNGGA,000007.70,3347.9741,S,15052.6486,E,4,18,0.6,30.0,M,46.9,M,,*5A
$GNRMC,000007.70,A,3347.9741,S,15052.6486,E,090.1,155.8,010126,,*32
$GNGGA,000007.80,3347.9731,S,15052.6458,E,4,18,0.6,30.0,M,46.9,M,,*51
$GNRMC,000007.80,A,3347.9731,S,15052.6458,E,090.1,155.8,010126,,*39
$GNGGA,000007.90,3347.9721,S,15052.6431,E,4,18,0.6,30.0,M,46.9,M,,*5E
$GNRMC,000007.90,A,3347.9721,S,15052.6431,E,090.2,155.8,010126,,*35
$GNGGA,000008.00,3347.9710,S,15052.6403,E,4,18,0.6,30.0,M,46.9,M,,*5B
$GNRMC,000008.00,A,3347.9710,S,15052.6403,E,090.2,155.8,010126,,*30
$GNGGA,000008.10,3347.9701,S,15052.6375,E,4,18,0.6,30.0,M,46.9,M,,*5C
$GNRMC,000008.10,A,3347.9701,S,15052.6375,E,090.2,158.5,010126,,*37
$GNGGA,000008.20,3347.9691,S,15052.6347,E,4,18,0.6,30.0,M,46.9,M,,*56
$GNRMC,000008.20,A,3347.9691,S,15052.6347,E,090.2,158.5,010126,,*3D
$GNGGA,000008.30,3347.9682,S,15052.6319,E,4,18,0.6,30.0,M,46.9,M,,*5E
$GNRMC,000008.30,A,3347.9682,S,15052.6319,E,090.2,158.5,010126,,*35
$GNGGA,000008.40,3347.9673,S,15052.6291,E,4,18,0.6,30.0,M,46.9,M,,*56
$GNRMC,000008.40,A,3347.9673,S,15052.6291,E,090.2,158.5,010126,,*3D
$GNGGA,000008.50,3347.9664,S,15052.6263,E,4,18,0.6,30.0,M,46.9,M,,*5C
$GNRMC,000008.50,A,3347.9664,S,15052.6263,E,090.2,158.5,010126,,*37
$GNGGA,000008.60,3347.9655,S,15052.6235,E,4,18,0.6,30.0,M,46.9,M,,*5E
$GNRMC,000008.60,A,3347.9655,S,15052.6235,E,090.3,158.5,010126,,*34
$GNGGA,000008.70,3347.9645,S,15052.6207,E,4,18,0.6,30.0,M,46.9,M,,*5F
$GNRMC,000008.70,A,3347.9645,S,15052.6207,E,090.3,158.5,010126,,*35
$GNGGA,000008.80,3347.9636,S,15052.6179,E,4,18,0.6,30.0,M,46.9,M,,*5E
$GNRMC,000008.80,A,3347.9636,S,15052.6179,E,090.3,158.5,010126,,*34
$GNGGA,000008.90,3347.9627,S,15052.6151,E,4,18,0.6,30.0,M,46.9,M,,*55
$GNRMC,000008.90,A,3347.9627,S,15052.6151,E,090.3,158.5,010126,,*3F
$GNGGA,000009.00,3347.9618,S,15052.6123,E,4,18,0.6,30.0,M,46.9,M,,*54
$GNRMC,000009.00,A,3347.9618,S,15052.6123,E,090.3,160.9,010126,,*39
$GNGGA,000009.10,3347.9610,S,15052.6094,E,4,18,0.6,30.0,M,46.9,M,,*50
$GNRMC,000009.10,A,3347.9610,S,15052.6094,E,090.3,160.9,010126,,*3D
$GNGGA,000009.20,3347.9602,S,15052.6066,E,4,18,0.6,30.0,M,46.9,M,,*5D
$GNRMC,000009.20,A,3347.9602,S,15052.6066,E,090.3,160.9,010126,,*30
$GNGGA,000009.30,3347.9593,S,15052.6037,E,4,18,0.6,30.0,M,46.9,M,,*53
$GNRMC,000009.30,A,3347.9593,S,15052.6037,E,090.3,160.9,010126,,*3E
$GNGGA,000009.40,3347.9585,S,15052.6009,E,4,18,0.6,30.0,M,46.9,M,,*5E
$GNRMC,000009.40,A,3347.9585,S,15052.6009,E,090.3,160.9,010126,,*33
$GNGGA,000009.50,3347.9577,S,15052.5980,E,4,18,0.6,30.0,M,46.9,M,,*59
$GNRMC,000009.50,A,3347.9577,S,15052.5980,E,090.3,160.9,010126,,*34
$GNGGA,000009.60,3347.9569,S,15052.5952,E,4,18,0.6,30.0,M,46.9,M,,*5A
$GNRMC,000009.60,A,3347.9569,S,15052.5952,E,090.4,160.9,010126,,*30
$GNGGA,000009.70,3347.9561,S,15052.5923,E,4,18,0.6,30.0,M,46.9,M,,*55
$GNRMC,000009.70,A,3347.9561,S,15052.5923,E,090.4,160.9,010126,,*3F
$GNGGA,000009.80,3347.9553,S,15052.5895,E,4,18,0.6,30.0,M,46.9,M,,*57
$GNRMC,000009.80,A,3347.9553,S,15052.5895,E,090.4,160.9,010126,,*3D
$GNGGA,000009.90,3347.9544,S,15052.5866,E,4,18,0.6,30.0,M,46.9,M,,*5C
$GNRMC,000009.90,A,3347.9544,S,15052.5866,E,090.4,160.9,010126,,*36
$GNGGA,000010.00,3347.9537,S,15052.5838,E,4,18,0.6,30.0,M,46.9,M,,*52
$GNRMC,000010.00,A,3347.9537,S,15052.5838,E,090.4,163.2,010126,,*30
$GNGGA,000010.10,3347.9529,S,15052.5809,E,4,18,0.6,30.0,M,46.9,M,,*5E
$GNRMC,000010.10,A,3347.9529,S,15052.5809,E,090.4,163.2,010126,,*3C
$GNGGA,000010.20,3347.9522,S,15052.5780,E,4,18,0.6,30.0,M,46.9,M,,*58
$GNRMC,000010.20,A,3347.9522,S,15052.5780,E,090.4,163.2,010126,,*3A
$GNGGA,000010.30,3347.9515,S,15052.5751,E,4,18,0.6,30.0,M,46.9,M,,*51
$GNRMC,000010.30,A,3347.9515,S,15052.5751,E,090.4,163.2,010126,,*33
$GNGGA,000010.40,3347.9508,S,15052.5722,E,4,18,0.6,30.0,M,46.9,M,,*5E
$GNRMC,000010.40,A,3347.9508,S,15052.5722,E,090.4,163.2,010126,,*3C
$GNGGA,000010.50,3347.9500,S,15052.5693,E,4,18,0.6,30.0,M,46.9,M,,*5C
$GNRMC,000010.50,A,3347.9500,S,15052.5693,E,090.4,163.2,010126,,*3E
$GNGGA,000010.60,3347.9493,S,15052.5664,E,4,18,0.6,30.0,M,46.9,M,,*5C
$GNRMC,000010.60,A,3347.9493,S,15052.5664,E,090.4,163.2,010126,,*3E
$GNGGA,000010.70,3347.9486,S,15052.5635,E,4,18,0.6,30.0,M,46.9,M,,*5D
$GNRMC,000010.70,A,3347.9486,S,15052.5635,E,090.4,163.2,010126,,*3F
$GNGGA,000010.80,3347.9479,S,15052.5606,E,4,18,0.6,30.0,M,46.9,M,,*52
$GNRMC,000010.80,A,3347.9479,S,15052.5606,E,090.4,163.2,010126,,*30
$GNGGA,000010.90,3347.9471,S,15052.5577,E,4,18,0.6,30.0,M,46.9,M,,*5E
$GNRMC,000010.90,A,3347.9471,S,15052.5577,E,090.4,163.2,010126,,*3C
$GNGGA,000011.00,3347.9465,S,15052.5548,E,4,18,0.6,30.0,M,46.9,M,,*5F
$GNRMC,000011.00,A,3347.9465,S,15052.5548,E,090.4,165.3,010126,,*3A
$GNGGA,000011.10,3347.9458,S,15052.5519,E,4,18,0.6,30.0,M,46.9,M,,*54
$GNRMC,000011.10,A,3347.9458,S,15052.5519,E,090.4,165.3,010126,,*31
$GNGGA,000011.20,3347.9452,S,15052.5490,E,4,18,0.6,30.0,M,46.9,M,,*5D
$GNRMC,000011.20,A,3347.9452,S,15052.5490,E,090.4,165.3,010126,,*38
$GNGGA,000011.30,3347.9445,S,15052.5461,E,4,18,0.6,30.0,M,46.9,M,,*54
$GNRMC,000011.30,A,3347.9445,S,15052.5461,E,090.4,165.3,010126,,*31
$GNGGA,000011.40,3347.9439,S,15052.5432,E,4,18,0.6,30.0,M,46.9,M,,*5E
$GNRMC,000011.40,A,3347.9439,S,15052.5432,E,090.4,165.3,010126,,*3B
$GNGGA,000011.50,3347.9433,S,15052.5402,E,4,18,0.6,30.0,M,46.9,M,,*56
$GNRMC,000011.50,A,3347.9433,S,15052.5402,E,090.4,165.3,010126,,*33
$GNGGA,000011.60,3347.9426,S,15052.5373,E,4,18,0.6,30.0,M,46.9,M,,*50
$GNRMC,000011.60,A,3347.9426,S,15052.5373,E,090.4,165.3,010126,,*35
$GNGGA,000011.70,3347.9420,S,15052.5344,E,4,18,0.6,30.0,M,46.9,M,,*53
$GNRMC,000011.70,A,3347.9420,S,15052.5344,E,090.3,165.3,010126,,*31
$GNGGA,000011.80,3347.9414,S,15052.5315,E,4,18,0.6,30.0,M,46.9,M,,*5F
$GNRMC,000011.80,A,3347.9414,S,15052.5315,E,090.3,165.3,010126,,*3D
$GNGGA,000011.90,3347.9407,S,15052.5286,E,4,18,0.6,30.0,M,46.9,M,,*57
$GNRMC,000011.90,A,3347.9407,S,15052.5286,E,090.3,165.3,010126,,*35
$GNGGA,000012.00,3347.9401,S,15052.5256,E,4,18,0.6,30.0,M,46.9,M,,*56
$GNRMC,000012.00,A,3347.9401,S,15052.5256,E,090.3,167.3,010126,,*36
$GNGGA,000012.10,3347.9396,S,15052.5227,E,4,18,0.6,30.0,M,46.9,M,,*58
$GNRMC,000012.10,A,3347.9396,S,15052.5227,E,090.3,167.3,010126,,*38
$GNGGA,000012.20,3347.9390,S,15052.5197,E,4,18,0.6,30.0,M,46.9,M,,*55
$GNRMC,000012.20,A,3347.9390,S,15052.5197,E,090.3,167.3,010126,,*35
$GNGGA,000012.30,3347.9385,S,15052.5168,E,4,18,0.6,30.0,M,46.9,M,,*50
$GNRMC,000012.30,A,3347.9385,S,15052.5168,E,090.3,167.3,010126,,*30
$GNGGA,000012.40,3347.9379,S,15052.5139,E,4,18,0.6,30.0,M,46.9,M,,*50
$GNRMC,000012.40,A,3347.9379,S,15052.5139,E,090.3,167.3,010126,,*30
$GNGGA,000012.50,3347.9374,S,15052.5109,E,4,18,0.6,30.0,M,46.9,M,,*5F
$GNRMC,000012.50,A,3347.9374,S,15052.5109,E,090.3,167.3,010126,,*3F
$GNGGA,000012.60,3347.9368,S,15052.5080,E,4,18,0.6,30.0,M,46.9,M,,*51
$GNRMC,000012.60,A,3347.9368,S,15052.5080,E,090.3,167.3,010126,,*31
$GNGGA,000012.70,3347.9363,S,15052.5050,E,4,18,0.6,30.0,M,46.9,M,,*56
$GNRMC,000012.70,A,3347.9363,S,15052.5050,E,090.2,167.3,010126,,*37
$GNGGA,000012.80,3347.9357,S,15052.5021,E,4,18,0.6,30.0,M,46.9,M,,*58
$GNRMC,000012.80,A,3347.9357,S,15052.5021,E,090.2,167.3,010126,,*39
$GNGGA,000012.90,3347.9352,S,15052.4991,E,4,18,0.6,30.0,M,46.9,M,,*5F
$GNRMC,000012.90,A,3347.9352,S,15052.4991,E,090.2,167.3,010126,,*3E
$GNGGA,000013.00,3347.9346,S,15052.4962,E,4,18,0.6,30.0,M,46.9,M,,*5E
$GNRMC,000013.00,A,3347.9346,S,15052.4962,E,090.2,167.3,010126,,*3F
$GNGGA,000013.10,3347.9341,S,15052.4933,E,4,18,0.6,30.0,M,46.9,M,,*5C
$GNRMC,000013.10,A,3347.9341,S,15052.4933,E,090.2,169.2,010126,,*32
$GNGGA,000013.20,3347.9336,S,15052.4903,E,4,18,0.6,30.0,M,46.9,M,,*5C
$GNRMC,000013.20,A,3347.9336,S,15052.4903,E,090.2,169.2,010126,,*32
$GNGGA,000013.30,3347.9332,S,15052.4873,E,4,18,0.6,30.0,M,46.9,M,,*5F
$GNRMC,000013.30,A,3347.9332,S,15052.4873,E,090.2,169.2,010126,,*31
$GNGGA,000013.40,3347.9327,S,15052.4844,E,4,18,0.6,30.0,M,46.9,M,,*58
$GNRMC,000013.40,A,3347.9327,S,15052.4844,E,090.1,169.2,010126,,*35
$GNGGA,000013.50,3347.9322,S,15052.4814,E,4,18,0.6,30.0,M,46.9,M,,*59
$GNRMC,000013.50,A,3347.9322,S,15052.4814,E,090.1,169.2,010126,,*34
$GNGGA,000013.60,3347.9317,S,15052.4785,E,4,18,0.6,30.0,M,46.9,M,,*5B
$GNRMC,000013.60,A,3347.9317,S,15052.4785,E,090.1,169.2,010126,,*36
$GNGGA,000013.70,3347.9313,S,15052.4755,E,4,18,0.6,30.0,M,46.9,M,,*53
$GNRMC,000013.70,A,3347.9313,S,15052.4755,E,090.1,169.2,010126,,*3E
$GNGGA,000013.80,3347.9308,S,15052.4726,E,4,18,0.6,30.0,M,46.9,M,,*52
$GNRMC,000013.80,A,3347.9308,S,15052.4726,E,090.1,169.2,010126,,*3F
$GNGGA,000013.90,3347.9303,S,15052.4696,E,4,18,0.6,30.0,M,46.9,M,,*52
$GNRMC,000013.90,A,3347.9303,S,15052.4696,E,090.0,169.2,010126,,*3E
$GNGGA,000014.00,3347.9299,S,15052.4666,E,4,18,0.6,30.0,M,46.9,M,,*51
$GNRMC,000014.00,A,3347.9299,S,15052.4666,E,090.0,169.2,010126,,*3D
$GNGGA,000014.10,3347.9294,S,15052.4637,E,4,18,0.6,30.0,M,46.9,M,,*59
$GNRMC,000014.10,A,3347.9294,S,15052.4637,E,090.0,169.2,010126,,*35
$GNGGA,000014.20,3347.9290,S,15052.4607,E,4,18,0.6,30.0,M,46.9,M,,*5D
$GNRMC,000014.20,A,3347.9290,S,15052.4607,E,090.0,171.0,010126,,*3A
$GNGGA,000014.30,3347.9286,S,15052.4578,E,4,18,0.6,30.0,M,46.9,M,,*50
$GNRMC,000014.30,A,3347.9286,S,15052.4578,E,090.0,171.0,010126,,*37
$GNGGA,000014.40,3347.9282,S,15052.4548,E,4,18,0.6,30.0,M,46.9,M,,*50
$GNRMC,000014.40,A,3347.9282,S,15052.4548,E,089.9,171.0,010126,,*36
$GNGGA,000014.50,3347.9278,S,15052.4518,E,4,18,0.6,30.0,M,46.9,M,,*51
$GNRMC,000014.50,A,3347.9278,S,15052.4518,E,089.9,171.0,010126,,*37
$GNGGA,000014.60,3347.9274,S,15052.4489,E,4,18,0.6,30.0,M,46.9,M,,*57
$GNRMC,000014.60,A,3347.9274,S,15052.4489,E,089.9,171.0,010126,,*31
$GNGGA,000014.70,3347.9270,S,15052.4459,E,4,18,0.6,30.0,M,46.9,M,,*5F
$GNRMC,000014.70,A,3347.9270,S,15052.4459,E,089.9,171.0,010126,,*39
$GNGGA,000014.80,3347.9266,S,15052.4429,E,4,18,0.6,30.0,M,46.9,M,,*50
$GNRMC,000014.80,A,3347.9266,S,15052.4429,E,089.8,171.0,010126,,*37
$GNGGA,000014.90,3347.9262,S,15052.4400,E,4,18,0.6,30.0,M,46.9,M,,*5E
$GNRMC,000014.90,A,3347.9262,S,15052.4400,E,089.8,171.0,010126,,*39
$GNGGA,000015.00,3347.9259,S,15052.4370,E,4,18,0.6,30.0,M,46.9,M,,*5E
$GNRMC,000015.00,A,3347.9259,S,15052.4370,E,089.8,171.0,010126,,*39
$GNGGA,000015.10,3347.9255,S,15052.4340,E,4,18,0.6,30.0,M,46.9,M,,*50
$GNRMC,000015.10,A,3347.9255,S,15052.4340,E,089.8,171.0,010126,,*37
$GNGGA,000015.20,3347.9251,S,15052.4311,E,4,18,0.6,30.0,M,46.9,M,,*53
$GNRMC,000015.20,A,3347.9251,S,15052.4311,E,089.7,171.0,010126,,*3B
$GNGGA,000015.30,3347.9247,S,15052.4281,E,4,18,0.6,30.0,M,46.9,M,,*5D
$GNRMC,000015.30,A,3347.9247,S,15052.4281,E,089.7,172.7,010126,,*31
$GNGGA,000015.40,3347.9244,S,15052.4251,E,4,18,0.6,30.0,M,46.9,M,,*54
$GNRMC,000015.40,A,3347.9244,S,15052.4251,E,089.7,172.7,010126,,*38
$GNGGA,000015.50,3347.9241,S,15052.4222,E,4,18,0.6,30.0,M,46.9,M,,*54
$GNRMC,000015.50,A,3347.9241,S,15052.4222,E,089.6,172.7,010126,,*39
$GNGGA,000015.60,3347.9238,S,15052.4192,E,4,18,0.6,30.0,M,46.9,M,,*51
$GNRMC,000015.60,A,3347.9238,S,15052.4192,E,089.6,172.7,010126,,*3C
$GNGGA,000015.70,3347.9234,S,15052.4162,E,4,18,0.6,30.0,M,46.9,M,,*53
$GNRMC,000015.70,A,3347.9234,S,15052.4162,E,089.6,172.7,010126,,*3E
$GNGGA,000015.80,3347.9231,S,15052.4133,E,4,18,0.6,30.0,M,46.9,M,,*5D
$GNRMC,000015.80,A,3347.9231,S,15052.4133,E,089.6,172.7,010126,,*30
$GNGGA,000015.90,3347.9228,S,15052.4103,E,4,18,0.6,30.0,M,46.9,M,,*57
$GNRMC,000015.90,A,3347.9228,S,15052.4103,E,089.5,172.7,010126,,*39
$GNGGA,000016.00,3347.9225,S,15052.4073,E,4,18,0.6,30.0,M,46.9,M,,*56
$GNRMC,000016.00,A,3347.9225,S,15052.4073,E,089.5,172.7,010126,,*38
$GNGGA,000016.10,3347.9222,S,15052.4044,E,4,18,0.6,30.0,M,46.9,M,,*54
$GNRMC,000016.10,A,3347.9222,S,15052.4044,E,089.5,172.7,010126,,*3A
$GNGGA,000016.20,3347.9219,S,15052.4014,E,4,18,0.6,30.0,M,46.9,M,,*5A
$GNRMC,000016.20,A,3347.9219,S,15052.4014,E,089.4,172.7,010126,,*35
$GNGGA,000016.30,3347.9215,S,15052.3984,E,4,18,0.6,30.0,M,46.9,M,,*50
$GNRMC,000016.30,A,3347.9215,S,15052.3984,E,089.4,172.7,010126,,*3F
$GNGGA,000016.40,3347.9212,S,15052.3955,E,4,18,0.6,30.0,M,46.9,M,,*5C
$GNRMC,000016.40,A,3347.9212,S,15052.3955,E,089.4,172.7,010126,,*33
$GNGGA,000016.50,3347.9210,S,15052.3925,E,4,18,0.6,30.0,M,46.9,M,,*58
$GNRMC,000016.50,A,3347.9210,S,15052.3925,E,089.3,174.4,010126,,*35
$GNGGA,000016.60,3347.9207,S,15052.3895,E,4,18,0.6,30.0,M,46.9,M,,*57
$GNRMC,000016.60,A,3347.9207,S,15052.3895,E,089.3,174.4,010126,,*3A
$GNGGA,000016.70,3347.9205,S,15052.3866,E,4,18,0.6,30.0,M,46.9,M,,*58
$GNRMC,000016.70,A,3347.9205,S,15052.3866,E,089.3,174.4,010126,,*35
$GNGGA,000016.80,3347.9202,S,15052.3836,E,4,18,0.6,30.0,M,46.9,M,,*55
$GNRMC,000016.80,A,3347.9202,S,15052.3836,E,089.2,174.4,010126,,*39
$GNGGA,000016.90,3347.9200,S,15052.3806,E,4,18,0.6,30.0,M,46.9,M,,*55
$GNRMC,000016.90,A,3347.9200,S,15052.3806,E,089.2,174.4,010126,,*39
$GNGGA,000017.00,3347.9198,S,15052.3777,E,4,18,0.6,30.0,M,46.9,M,,*56
$GNRMC,000017.00,A,3347.9198,S,15052.3777,E,089.2,174.4,010126,,*3A
$GNGGA,000017.10,3347.9195,S,15052.3747,E,4,18,0.6,30.0,M,46.9,M,,*59
$GNRMC,000017.10,A,3347.9195,S,15052.3747,E,089.1,174.4,010126,,*36
$GNGGA,000017.20,3347.9193,S,15052.3717,E,4,18,0.6,30.0,M,46.9,M,,*59
$GNRMC,000017.20,A,3347.9193,S,15052.3717,E,089.1,174.4,010126,,*36
$GNGGA,000017.30,3347.9190,S,15052.3688,E,4,18,0.6,30.0,M,46.9,M,,*5C
$GNRMC,000017.30,A,3347.9190,S,15052.3688,E,089.0,174.4,010126,,*32
$GNGGA,000017.40,3347.9188,S,15052.3658,E,4,18,0.6,30.0,M,46.9,M,,*5F
$GNRMC,000017.40,A,3347.9188,S,15052.3658,E,089.0,174.4,010126,,*31
$GNGGA,000017.50,3347.9186,S,15052.3629,E,4,18,0.6,30.0,M,46.9,M,,*56
$GNRMC,000017.50,A,3347.9186,S,15052.3629,E,089.0,174.4,010126,,*38
$GNGGA,000017.60,3347.9183,S,15052.3599,E,4,18,0.6,30.0,M,46.9,M,,*58
$GNRMC,000017.60,A,3347.9183,S,15052.3599,E,088.9,176.0,010126,,*38
$GNGGA,000017.70,3347.9181,S,15052.3569,E,4,18,0.6,30.0,M,46.9,M,,*54
$GNRMC,000017.70,A,3347.9181,S,15052.3569,E,088.9,176.0,010126,,*34
$GNGGA,000017.80,3347.9180,S,15052.3540,E,4,18,0.6,30.0,M,46.9,M,,*51
$GNRMC,000017.80,A,3347.9180,S,15052.3540,E,088.9,176.0,010126,,*31
$GNGGA,000017.90,3347.9178,S,15052.3510,E,4,18,0.6,30.0,M,46.9,M,,*52
$GNRMC,000017.90,A,3347.9178,S,15052.3510,E,088.8,176.0,010126,,*33
$GNGGA,000018.00,3347.9176,S,15052.3481,E,4,18,0.6,30.0,M,46.9,M,,*53
$GNRMC,000018.00,A,3347.9176,S,15052.3481,E,088.8,176.0,010126,,*32
$GNGGA,000018.10,3347.9175,S,15052.3451,E,4,18,0.6,30.0,M,46.9,M,,*5C
$GNRMC,000018.10,A,3347.9175,S,15052.3451,E,088.7,176.0,010126,,*32
$GNGGA,000018.20,3347.9173,S,15052.3421,E,4,18,0.6,30.0,M,46.9,M,,*5E
$GNRMC,000018.20,A,3347.9173,S,15052.3421,E,088.7,176.0,010126,,*30
$GNGGA,000018.30,3347.9171,S,15052.3392,E,4,18,0.6,30.0,M,46.9,M,,*52
$GNRMC,000018.30,A,3347.9171,S,15052.3392,E,088.7,176.0,010126,,*3C
$GNGGA,000018.40,3347.9170,S,15052.3362,E,4,18,0.6,30.0,M,46.9,M,,*5B
$GNRMC,000018.40,A,3347.9170,S,15052.3362,E,088.6,176.0,010126,,*34
$GNGGA,000018.50,3347.9168,S,15052.3333,E,4,18,0.6,30.0,M,46.9,M,,*57
$GNRMC,000018.50,A,3347.9168,S,15052.3333,E,088.6,176.0,010126,,*38
$GNGGA,000018.60,3347.9166,S,15052.3303,E,4,18,0.6,30.0,M,46.9,M,,*59
$GNRMC,000018.60,A,3347.9166,S,15052.3303,E,088.6,176.0,010126,,*36
$GNGGA,000018.70,3347.9164,S,15052.3274,E,4,18,0.6,30.0,M,46.9,M,,*5B
$GNRMC,000018.70,A,3347.9164,S,15052.3274,E,088.5,176.0,010126,,*37
$GNGGA,000018.80,3347.9163,S,15052.3244,E,4,18,0.6,30.0,M,46.9,M,,*50
$GNRMC,000018.80,A,3347.9163,S,15052.3244,E,088.5,177.6,010126,,*3B
$GNGGA,000018.90,3347.9162,S,15052.3215,E,4,18,0.6,30.0,M,46.9,M,,*54
$GNRMC,000018.90,A,3347.9162,S,15052.3215,E,088.4,177.6,010126,,*3E
$GNGGA,000019.00,3347.9161,S,15052.3185,E,4,18,0.6,30.0,M,46.9,M,,*55
$GNRMC,000019.00,A,3347.9161,S,15052.3185,E,088.4,177.6,010126,,*3F
$GNGGA,000019.10,3347.9160,S,15052.3156,E,4,18,0.6,30.0,M,46.9,M,,*5B
$GNRMC,000019.10,A,3347.9160,S,15052.3156,E,088.4,177.6,010126,,*31
$GNGGA,000019.20,3347.9159,S,15052.3126,E,4,18,0.6,30.0,M,46.9,M,,*55
$GNRMC,000019.20,A,3347.9159,S,15052.3126,E,088.3,177.6,010126,,*38
$GNGGA,000019.30,3347.9158,S,15052.3097,E,4,18,0.6,30.0,M,46.9,M,,*5E
$GNRMC,000019.30,A,3347.9158,S,15052.3097,E,088.3,177.6,010126,,*33
$GNGGA,000019.40,3347.9157,S,15052.3067,E,4,18,0.6,30.0,M,46.9,M,,*59
$GNRMC,000019.40,A,3347.9157,S,15052.3067,E,088.2,177.6,010126,,*35
$GNGGA,000019.50,3347.9156,S,15052.3038,E,4,18,0.6,30.0,M,46.9,M,,*53
$GNRMC,000019.50,A,3347.9156,S,15052.3038,E,088.2,177.6,010126,,*3F
$GNGGA,000019.60,3347.9155,S,15052.3008,E,4,18,0.6,30.0,M,46.9,M,,*50
$GNRMC,000019.60,A,3347.9155,S,15052.3008,E,088.1,177.6,010126,,*3F
$GNGGA,000019.70,3347.9154,S,15052.2979,E,4,18,0.6,30.0,M,46.9,M,,*5E
$GNRMC,000019.70,A,3347.9154,S,15052.2979,E,088.1,177.6,010126,,*31
$GNGGA,000019.80,3347.9153,S,15052.2950,E,4,18,0.6,30.0,M,46.9,M,,*5D
$GNRMC,000019.80,A,3347.9153,S,15052.2950,E,088.1,177.6,010126,,*32
$GNGGA,000019.90,3347.9152,S,15052.2920,E,4,18,0.6,30.0,M,46.9,M,,*5A
$GNRMC,000019.90,A,3347.9152,S,15052.2920,E,088.0,177.6,010126,,*34
$GNGGA,000020.00,3347.9151,S,15052.2891,E,4,18,0.6,30.0,M,46.9,M,,*51
$GNRMC,000020.00,A,3347.9151,S,15052.2891,E,088.0,179.2,010126,,*35
$GNGGA,000020.10,3347.9150,S,15052.2861,E,4,18,0.6,30.0,M,46.9,M,,*5E
$GNRMC,000020.10,A,3347.9150,S,15052.2861,E,087.9,179.2,010126,,*3C
$GNGGA,000020.20,3347.9150,S,15052.2832,E,4,18,0.6,30.0,M,46.9,M,,*5B
$GNRMC,000020.20,A,3347.9150,S,15052.2832,E,087.9,179.2,010126,,*39
$GNGGA,000020.30,3347.9150,S,15052.2803,E,4,18,0.6,30.0,M,46.9,M,,*58
$GNRMC,000020.30,A,3347.9150,S,15052.2803,E,087.9,179.2,010126,,*3A
$GNGGA,000020.40,3347.9149,S,15052.2773,E,4,18,0.6,30.0,M,46.9,M,,*5F
$GNRMC,000020.40,A,3347.9149,S,15052.2773,E,087.8,179.2,010126,,*3C
$GNGGA,000020.50,3347.9149,S,15052.2744,E,4,18,0.6,30.0,M,46.9,M,,*5A
$GNRMC,000020.50,A,3347.9149,S,15052.2744,E,087.8,179.2,010126,,*39
$GNGGA,000020.60,3347.9149,S,15052.2715,E,4,18,0.6,30.0,M,46.9,M,,*5D
$GNRMC,000020.60,A,3347.9149,S,15052.2715,E,087.7,179.2,010126,,*31
$GNGGA,000020.70,3347.9148,S,15052.2685,E,4,18,0.6,30.0,M,46.9,M,,*55
$GNRMC,000020.70,A,3347.9148,S,15052.2685,E,087.7,179.2,010126,,*39
$GNGGA,000020.80,3347.9148,S,15052.2656,E,4,18,0.6,30.0,M,46.9,M,,*54
$GNRMC,000020.80,A,3347.9148,S,15052.2656,E,087.6,179.2,010126,,*39
$GNGGA,000020.90,3347.9148,S,15052.2627,E,4,18,0.6,30.0,M,46.9,M,,*53
$GNRMC,000020.90,A,3347.9148,S,15052.2627,E,087.6,179.2,010126,,*3E
$GNGGA,000021.00,3347.9147,S,15052.2598,E,4,18,0.6,30.0,M,46.9,M,,*53
$GNRMC,000021.00,A,3347.9147,S,15052.2598,E,087.6,179.2,010126,,*3E
$GNGGA,000021.10,3347.9147,S,15052.2568,E,4,18,0.6,30.0,M,46.9,M,,*5D
$GNRMC,000021.10,A,3347.9147,S,15052.2568,E,087.5,179.2,010126,,*33
$GNGGA,000021.20,3347.9147,S,15052.2539,E,4,18,0.6,30.0,M,46.9,M,,*5A
$GNRMC,000021.20,A,3347.9147,S,15052.2539,E,087.5,180.8,010126,,*38
$GNGGA,000021.30,3347.9147,S,15052.2510,E,4,18,0.6,30.0,M,46.9,M,,*50
$GNRMC,000021.30,A,3347.9147,S,15052.2510,E,087.4,180.8,010126,,*33
$GNGGA,000021.40,3347.9147,S,15052.2481,E,4,18,0.6,30.0,M,46.9,M,,*5E
$GNRMC,000021.40,A,3347.9147,S,15052.2481,E,087.4,180.8,010126,,*3D
$GNGGA,000021.50,3347.9148,S,15052.2451,E,4,18,0.6,30.0,M,46.9,M,,*5D
$GNRMC,000021.50,A,3347.9148,S,15052.2451,E,087.3,180.8,010126,,*39
$GNGGA,000021.60,3347.9148,S,15052.2422,E,4,18,0.6,30.0,M,46.9,M,,*5A
$GNRMC,000021.60,A,3347.9148,S,15052.2422,E,087.3,180.8,010126,,*3E
$GNGGA,000021.70,3347.9148,S,15052.2393,E,4,18,0.6,30.0,M,46.9,M,,*56
$GNRMC,000021.70,A,3347.9148,S,15052.2393,E,087.3,180.8,010126,,*32
$GNGGA,000021.80,3347.9149,S,15052.2364,E,4,18,0.6,30.0,M,46.9,M,,*50
$GNRMC,000021.80,A,3347.9149,S,15052.2364,E,087.2,180.8,010126,,*35
$GNGGA,000021.90,3347.9149,S,15052.2335,E,4,18,0.6,30.0,M,46.9,M,,*55
$GNRMC,000021.90,A,3347.9149,S,15052.2335,E,087.2,180.8,010126,,*30
$GNGGA,000022.00,3347.9149,S,15052.2306,E,4,18,0.6,30.0,M,46.9,M,,*5F
$GNRMC,000022.00,A,3347.9149,S,15052.2306,E,087.1,180.8,010126,,*39
$GNGGA,000022.10,3347.9150,S,15052.2277,E,4,18,0.6,30.0,M,46.9,M,,*51
$GNRMC,000022.10,A,3347.9150,S,15052.2277,E,087.1,180.8,010126,,*37
$GNGGA,000022.20,3347.9150,S,15052.2248,E,4,18,0.6,30.0,M,46.9,M,,*5E
$GNRMC,000022.20,A,3347.9150,S,15052.2248,E,087.1,180.8,010126,,*38
$GNGGA,000022.30,3347.9150,S,15052.2218,E,4,18,0.6,30.0,M,46.9,M,,*5A
$GNRMC,000022.30,A,3347.9150,S,15052.2218,E,087.0,180.8,010126,,*3D
$GNGGA,000022.40,3347.9151,S,15052.2189,E,4,18,0.6,30.0,M,46.9,M,,*57
$GNRMC,000022.40,A,3347.9151,S,15052.2189,E,087.0,180.8,010126,,*30
$GNGGA,000022.50,3347.9152,S,15052.2160,E,4,18,0.6,30.0,M,46.9,M,,*52
$GNRMC,000022.50,A,3347.9152,S,15052.2160,E,086.9,182.4,010126,,*33
$GNGGA,000022.60,3347.9153,S,15052.2131,E,4,18,0.6,30.0,M,46.9,M,,*54
$GNRMC,000022.60,A,3347.9153,S,15052.2131,E,086.9,182.4,010126,,*35
$GNGGA,000022.70,3347.9154,S,15052.2102,E,4,18,0.6,30.0,M,46.9,M,,*52
$GNRMC,000022.70,A,3347.9154,S,15052.2102,E,086.8,182.4,010126,,*32
$GNGGA,000022.80,3347.9155,S,15052.2073,E,4,18,0.6,30.0,M,46.9,M,,*5B
$GNRMC,000022.80,A,3347.9155,S,15052.2073,E,086.8,182.4,010126,,*3B
$GNGGA,000022.90,3347.9156,S,15052.2044,E,4,18,0.6,30.0,M,46.9,M,,*5D
$GNRMC,000022.90,A,3347.9156,S,15052.2044,E,086.8,182.4,010126,,*3D
$GNGGA,000023.00,3347.9157,S,15052.2015,E,4,18,0.6,30.0,M,46.9,M,,*50
$GNRMC,000023.00,A,3347.9157,S,15052.2015,E,086.7,182.4,010126,,*3F
$GNGGA,000023.10,3347.9158,S,15052.1986,E,4,18,0.6,30.0,M,46.9,M,,*5E
$GNRMC,000023.10,A,3347.9158,S,15052.1986,E,086.7,182.4,010126,,*31
$GNGGA,000023.20,3347.9159,S,15052.1958,E,4,18,0.6,30.0,M,46.9,M,,*5F
$GNRMC,000023.20,A,3347.9159,S,15052.1958,E,086.6,182.4,010126,,*31
$GNGGA,000023.30,3347.9160,S,15052.1929,E,4,18,0.6,30.0,M,46.9,M,,*52
$GNRMC,000023.30,A,3347.9160,S,15052.1929,E,086.6,182.4,010126,,*3C
$GNGGA,000023.40,3347.9161,S,15052.1900,E,4,18,0.6,30.0,M,46.9,M,,*5F
$GNRMC,000023.40,A,3347.9161,S,15052.1900,E,086.6,182.4,010126,,*31
$GNGGA,000023.50,3347.9162,S,15052.1871,E,4,18,0.6,30.0,M,46.9,M,,*5A
$GNRMC,000023.50,A,3347.9162,S,15052.1871,E,086.5,182.4,010126,,*37
$GNGGA,000023.60,3347.9163,S,15052.1842,E,4,18,0.6,30.0,M,46.9,M,,*58
$GNRMC,000023.60,A,3347.9163,S,15052.1842,E,086.5,182.4,010126,,*35
$GNGGA,000023.70,3347.9164,S,15052.1813,E,4,18,0.6,30.0,M,46.9,M,,*5A
$GNRMC,000023.70,A,3347.9164,S,15052.1813,E,086.4,184.0,010126,,*34
$GNGGA,000023.80,3347.9166,S,15052.1784,E,4,18,0.6,30.0,M,46.9,M,,*56
$GNRMC,000023.80,A,3347.9166,S,15052.1784,E,086.4,184.0,010126,,*38
$GNGGA,000023.90,3347.9167,S,15052.1756,E,4,18,0.6,30.0,M,46.9,M,,*59
$GNRMC,000023.90,A,3347.9167,S,15052.1756,E,086.4,184.0,010126,,*37
$GNGGA,000024.00,3347.9169,S,15052.1727,E,4,18,0.6,30.0,M,46.9,M,,*5F
$GNRMC,000024.00,A,3347.9169,S,15052.1727,E,086.3,184.0,010126,,*36
$GNGGA,000024.10,3347.9171,S,15052.1698,E,4,18,0.6,30.0,M,46.9,M,,*52
$GNRMC,000024.10,A,3347.9171,S,15052.1698,E,086.3,184.0,010126,,*3B
$GNGGA,000024.20,3347.9172,S,15052.1669,E,4,18,0.6,30.0,M,46.9,M,,*5C
$GNRMC,000024.20,A,3347.9172,S,15052.1669,E,086.2,184.0,010126,,*34
$GNGGA,000024.30,3347.9174,S,15052.1640,E,4,18,0.6,30.0,M,46.9,M,,*50
$GNRMC,000024.30,A,3347.9174,S,15052.1640,E,086.2,184.0,010126,,*38
$GNGGA,000024.40,3347.9176,S,15052.1612,E,4,18,0.6,30.0,M,46.9,M,,*52
$GNRMC,000024.40,A,3347.9176,S,15052.1612,E,086.2,184.0,010126,,*3A
$GNGGA,000024.50,3347.9177,S,15052.1583,E,4,18,0.6,30.0,M,46.9,M,,*59
$GNRMC,000024.50,A,3347.9177,S,15052.1583,E,086.1,184.0,010126,,*32
$GNGGA,000024.60,3347.9179,S,15052.1554,E,4,18,0.6,30.0,M,46.9,M,,*5E
$GNRMC,000024.60,A,3347.9179,S,15052.1554,E,086.1,184.0,010126,,*35
$GNGGA,000024.70,3347.9181,S,15052.1526,E,4,18,0.6,30.0,M,46.9,M,,*5D
$GNRMC,000024.70,A,3347.9181,S,15052.1526,E,086.1,184.0,010126,,*36
$GNGGA,000024.80,3347.9182,S,15052.1497,E,4,18,0.6,30.0,M,46.9,M,,*5A
$GNRMC,000024.80,A,3347.9182,S,15052.1497,E,086.0,184.0,010126,,*30
$GNGGA,000024.90,3347.9184,S,15052.1468,E,4,18,0.6,30.0,M,46.9,M,,*5D
$GNRMC,000024.90,A,3347.9184,S,15052.1468,E,086.0,185.6,010126,,*30
$GNGGA,000025.00,3347.9187,S,15052.1440,E,4,18,0.6,30.0,M,46.9,M,,*5C
$GNRMC,000025.00,A,3347.9187,S,15052.1440,E,086.0,185.6,010126,,*31
$GNGGA,000025.10,3347.9189,S,15052.1411,E,4,18,0.6,30.0,M,46.9,M,,*57
$GNRMC,000025.10,A,3347.9189,S,15052.1411,E,085.9,185.6,010126,,*30
$GNGGA,000025.20,3347.9191,S,15052.1383,E,4,18,0.6,30.0,M,46.9,M,,*51
$GNRMC,000025.20,A,3347.9191,S,15052.1383,E,085.9,185.6,010126,,*36
$GNGGA,000025.30,3347.9194,S,15052.1354,E,4,18,0.6,30.0,M,46.9,M,,*5F
$GNRMC,000025.30,A,3347.9194,S,15052.1354,E,085.9,185.6,010126,,*38
$GNGGA,000025.40,3347.9196,S,15052.1325,E,4,18,0.6,30.0,M,46.9,M,,*5C
$GNRMC,000025.40,A,3347.9196,S,15052.1325,E,085.8,185.6,010126,,*3A
$GNGGA,000025.50,3347.9198,S,15052.1297,E,4,18,0.6,30.0,M,46.9,M,,*5B
$GNRMC,000025.50,A,3347.9198,S,15052.1297,E,085.8,185.6,010126,,*3D
$GNGGA,000025.60,3347.9200,S,15052.1268,E,4,18,0.6,30.0,M,46.9,M,,*5A
$GNRMC,000025.60,A,3347.9200,S,15052.1268,E,085.7,185.6,010126,,*33
$GNGGA,000025.70,3347.9203,S,15052.1240,E,4,18,0.6,30.0,M,46.9,M,,*52
$GNRMC,000025.70,A,3347.9203,S,15052.1240,E,085.7,185.6,010126,,*3B
$GNGGA,000025.80,3347.9205,S,15052.1211,E,4,18,0.6,30.0,M,46.9,M,,*5F
$GNRMC,000025.80,A,3347.9205,S,15052.1211,E,085.7,185.6,010126,,*36
$GNGGA,000025.90,3347.9207,S,15052.1183,E,4,18,0.6,30.0,M,46.9,M,,*54
$GNRMC,000025.90,A,3347.9207,S,15052.1183,E,085.7,185.6,010126,,*3D
$GNGGA,000026.00,3347.9210,S,15052.1154,E,4,18,0.6,30.0,M,46.9,M,,*52
$GNRMC,000026.00,A,3347.9210,S,15052.1154,E,085.6,185.6,010126,,*3A
$GNGGA,000026.10,3347.9212,S,15052.1126,E,4,18,0.6,30.0,M,46.9,M,,*54
$GNRMC,000026.10,A,3347.9212,S,15052.1126,E,085.6,187.3,010126,,*3B
$GNGGA,000026.20,3347.9215,S,15052.1098,E,4,18,0.6,30.0,M,46.9,M,,*54
$GNRMC,000026.20,A,3347.9215,S,15052.1098,E,085.6,187.3,010126,,*3B
$GNGGA,000026.30,3347.9218,S,15052.1069,E,4,18,0.6,30.0,M,46.9,M,,*56
$GNRMC,000026.30,A,3347.9218,S,15052.1069,E,085.5,187.3,010126,,*3A
$GNGGA,000026.40,3347.9221,S,15052.1041,E,4,18,0.6,30.0,M,46.9,M,,*51
$GNRMC,000026.40,A,3347.9221,S,15052.1041,E,085.5,187.3,010126,,*3D
$GNGGA,000026.50,3347.9224,S,15052.1013,E,4,18,0.6,30.0,M,46.9,M,,*52
$GNRMC,000026.50,A,3347.9224,S,15052.1013,E,085.5,187.3,010126,,*3E
$GNGGA,000026.60,3347.9227,S,15052.0984,E,4,18,0.6,30.0,M,46.9,M,,*54
$GNRMC,000026.60,A,3347.9227,S,15052.0984,E,085.4,187.3,010126,,*39
$GNGGA,000026.70,3347.9230,S,15052.0956,E,4,18,0.6,30.0,M,46.9,M,,*5C
$GNRMC,000026.70,A,3347.9230,S,15052.0956,E,085.4,187.3,010126,,*31
$GNGGA,000026.80,3347.9233,S,15052.0928,E,4,18,0.6,30.0,M,46.9,M,,*59
$GNRMC,000026.80,A,3347.9233,S,15052.0928,E,085.4,187.3,010126,,*34
$GNGGA,000026.90,3347.9236,S,15052.0899,E,4,18,0.6,30.0,M,46.9,M,,*56
$GNRMC,000026.90,A,3347.9236,S,15052.0899,E,085.3,187.3,010126,,*3C
$GNGGA,000027.00,3347.9239,S,15052.0871,E,4,18,0.6,30.0,M,46.9,M,,*57
$GNRMC,000027.00,A,3347.9239,S,15052.0871,E,085.3,187.3,010126,,*3D
$GNGGA,000027.10,3347.9242,S,15052.0843,E,4,18,0.6,30.0,M,46.9,M,,*5B
$GNRMC,000027.10,A,3347.9242,S,15052.0843,E,085.3,187.3,010126,,*31
$GNGGA,000027.20,3347.9245,S,15052.0815,E,4,18,0.6,30.0,M,46.9,M,,*5C
$GNRMC,000027.20,A,3347.9245,S,15052.0815,E,085.3,187.3,010126,,*36
$GNGGA,000027.30,3347.9248,S,15052.0786,E,4,18,0.6,30.0,M,46.9,M,,*55
$GNRMC,000027.30,A,3347.9248,S,15052.0786,E,085.2,189.0,010126,,*33
$GNGGA,000027.40,3347.9252,S,15052.0758,E,4,18,0.6,30.0,M,46.9,M,,*5A
$GNRMC,000027.40,A,3347.9252,S,15052.0758,E,085.2,189.0,010126,,*3C
$GNGGA,000027.50,3347.9256,S,15052.0730,E,4,18,0.6,30.0,M,46.9,M,,*51
$GNRMC,000027.50,A,3347.9256,S,15052.0730,E,085.2,189.0,010126,,*37
$GNGGA,000027.60,3347.9260,S,15052.0702,E,4,18,0.6,30.0,M,46.9,M,,*56
$GNRMC,000027.60,A,3347.9260,S,15052.0702,E,085.2,189.0,010126,,*30
$GNGGA,000027.70,3347.9263,S,15052.0674,E,4,18,0.6,30.0,M,46.9,M,,*54
$GNRMC,000027.70,A,3347.9263,S,15052.0674,E,085.1,189.0,010126,,*31
$GNGGA,000027.80,3347.9267,S,15052.0646,E,4,18,0.6,30.0,M,46.9,M,,*5E
$GNRMC,000027.80,A,3347.9267,S,15052.0646,E,085.1,189.0,010126,,*3B
$GNGGA,000027.90,3347.9271,S,15052.0618,E,4,18,0.6,30.0,M,46.9,M,,*53
$GNRMC,000027.90,A,3347.9271,S,15052.0618,E,085.1,189.0,010126,,*36
$GNGGA,000028.00,3347.9274,S,15052.0590,E,4,18,0.6,30.0,M,46.9,M,,*53
$GNRMC,000028.00,A,3347.9274,S,15052.0590,E,085.1,189.0,010126,,*36
$GNGGA,000028.10,3347.9278,S,15052.0562,E,4,18,0.6,30.0,M,46.9,M,,*53
$GNRMC,000028.10,A,3347.9278,S,15052.0562,E,085.0,189.0,010126,,*37
$GNGGA,000028.20,3347.9282,S,15052.0534,E,4,18,0.6,30.0,M,46.9,M,,*56
$GNRMC,000028.20,A,3347.9282,S,15052.0534,E,085.0,189.0,010126,,*32
$GNGGA,000028.30,3347.9285,S,15052.0506,E,4,18,0.6,30.0,M,46.9,M,,*51
$GNRMC,000028.30,A,3347.9285,S,15052.0506,E,085.0,189.0,010126,,*35
$GNGGA,000028.40,3347.9289,S,15052.0478,E,4,18,0.6,30.0,M,46.9,M,,*52
$GNRMC,000028.40,A,3347.9289,S,15052.0478,E,085.0,189.0,010126,,*36
$GNGGA,000028.50,3347.9293,S,15052.0450,E,4,18,0.6,30.0,M,46.9,M,,*52
$GNRMC,000028.50,A,3347.9293,S,15052.0450,E,085.0,190.8,010126,,*36
$GNGGA,000028.60,3347.9297,S,15052.0422,E,4,18,0.6,30.0,M,46.9,M,,*50
$GNRMC,000028.60,A,3347.9297,S,15052.0422,E,084.9,190.8,010126,,*3C
$GNGGA,000028.70,3347.9302,S,15052.0394,E,4,18,0.6,30.0,M,46.9,M,,*56
$GNRMC,000028.70,A,3347.9302,S,15052.0394,E,084.9,190.8,010126,,*3A
$GNGGA,000028.80,3347.9306,S,15052.0366,E,4,18,0.6,30.0,M,46.9,M,,*50
$GNRMC,000028.80,A,3347.9306,S,15052.0366,E,084.9,190.8,010126,,*3C
$GNGGA,000028.90,3347.9311,S,15052.0338,E,4,18,0.6,30.0,M,46.9,M,,*5C
$GNRMC,000028.90,A,3347.9311,S,15052.0338,E,084.9,190.8,010126,,*30
$GNGGA,000029.00,3347.9315,S,15052.0310,E,4,18,0.6,30.0,M,46.9,M,,*5A
$GNRMC,000029.00,A,3347.9315,S,15052.0310,E,084.9,190.8,010126,,*36
$GNGGA,000029.10,3347.9320,S,15052.0282,E,4,18,0.6,30.0,M,46.9,M,,*57
$GNRMC,000029.10,A,3347.9320,S,15052.0282,E,084.8,190.8,010126,,*3A
$GNGGA,000029.20,3347.9324,S,15052.0255,E,4,18,0.6,30.0,M,46.9,M,,*5A
$GNRMC,000029.20,A,3347.9324,S,15052.0255,E,084.8,190.8,010126,,*37
$GNGGA,000029.30,3347.9328,S,15052.0227,E,4,18,0.6,30.0,M,46.9,M,,*52
$GNRMC,000029.30,A,3347.9328,S,15052.0227,E,084.8,190.8,010126,,*3F
$GNGGA,000029.40,3347.9333,S,15052.0199,E,4,18,0.6,30.0,M,46.9,M,,*59
$GNRMC,000029.40,A,3347.9333,S,15052.0199,E,084.8,190.8,010126,,*34
$GNGGA,000029.50,3347.9337,S,15052.0171,E,4,18,0.6,30.0,M,46.9,M,,*5A
$GNRMC,000029.50,A,3347.9337,S,15052.0171,E,084.8,190.8,010126,,*37
$GNGGA,000029.60,3347.9342,S,15052.0143,E,4,18,0.6,30.0,M,46.9,M,,*5A
$GNRMC,000029.60,A,3347.9342,S,15052.0143,E,084.8,190.8,010126,,*37
$GNGGA,000029.70,3347.9347,S,15052.0116,E,4,18,0.6,30.0,M,46.9,M,,*5E
$GNRMC,000029.70,A,3347.9347,S,15052.0116,E,084.7,192.7,010126,,*31
$GNGGA,000029.80,3347.9352,S,15052.0088,E,4,18,0.6,30.0,M,46.9,M,,*53
$GNRMC,000029.80,A,3347.9352,S,15052.0088,E,084.7,192.7,010126,,*3C
$GNGGA,000029.90,3347.9357,S,15052.0060,E,4,18,0.6,30.0,M,46.9,M,,*51
$GNRMC,000029.90,A,3347.9357,S,15052.0060,E,084.7,192.7,010126,,*3E
$GNGGA,000030.00,3347.9362,S,15052.0033,E,4,18,0.6,30.0,M,46.9,M,,*50
$GNRMC,000030.00,A,3347.9362,S,15052.0033,E,084.7,192.7,010126,,*3F
$GNGGA,000030.10,3347.9367,S,15052.0005,E,4,18,0.6,30.0,M,46.9,M,,*51
$GNRMC,000030.10,A,3347.9367,S,15052.0005,E,084.7,192.7,010126,,*3E
$GNGGA,000030.20,3347.9372,S,15051.9977,E,4,18,0.6,30.0,M,46.9,M,,*50
$GNRMC,000030.20,A,3347.9372,S,15051.9977,E,084.7,192.7,010126,,*3F
$GNGGA,000030.30,3347.9377,S,15051.9950,E,4,18,0.6,30.0,M,46.9,M,,*51
$GNRMC,000030.30,A,3347.9377,S,15051.9950,E,084.7,192.7,010126,,*3E
$GNGGA,000030.40,3347.9383,S,15051.9922,E,4,18,0.6,30.0,M,46.9,M,,*58
$GNRMC,000030.40,A,3347.9383,S,15051.9922,E,084.7,192.7,010126,,*37
$GNGGA,000030.50,3347.9388,S,15051.9895,E,4,18,0.6,30.0,M,46.9,M,,*5F
$GNRMC,000030.50,A,3347.9388,S,15051.9895,E,084.6,192.7,010126,,*31
$GNGGA,000030.60,3347.9393,S,15051.9867,E,4,18,0.6,30.0,M,46.9,M,,*5B
$GNRMC,000030.60,A,3347.9393,S,15051.9867,E,084.6,192.7,010126,,*35
$GNGGA,000030.70,3347.9398,S,15051.9840,E,4,18,0.6,30.0,M,46.9,M,,*54
$GNRMC,000030.70,A,3347.9398,S,15051.9840,E,084.6,192.7,010126,,*3A
$GNGGA,000030.80,3347.9404,S,15051.9812,E,4,18,0.6,30.0,M,46.9,M,,*5E
$GNRMC,000030.80,A,3347.9404,S,15051.9812,E,084.6,194.7,010126,,*36
$GNGGA,000030.90,3347.9409,S,15051.9785,E,4,18,0.6,30.0,M,46.9,M,,*53
$GNRMC,000030.90,A,3347.9409,S,15051.9785,E,084.6,194.7,010126,,*3B
$GNGGA,000031.00,3347.9415,S,15051.9757,E,4,18,0.6,30.0,M,46.9,M,,*59
$GNRMC,000031.00,A,3347.9415,S,15051.9757,E,084.6,194.7,010126,,*31
$GNGGA,000031.10,3347.9421,S,15051.9730,E,4,18,0.6,30.0,M,46.9,M,,*5E
$GNRMC,000031.10,A,3347.9421,S,15051.9730,E,084.6,194.7,010126,,*36
$GNGGA,000031.20,3347.9427,S,15051.9703,E,4,18,0.6,30.0,M,46.9,M,,*5B
$GNRMC,000031.20,A,3347.9427,S,15051.9703,E,084.6,194.7,010126,,*33
$GNGGA,000031.30,3347.9433,S,15051.9675,E,4,18,0.6,30.0,M,46.9,M,,*5F
$GNRMC,000031.30,A,3347.9433,S,15051.9675,E,084.6,194.7,010126,,*37
$GNGGA,000031.40,3347.9439,S,15051.9648,E,4,18,0.6,30.0,M,46.9,M,,*5C
$GNRMC,000031.40,A,3347.9439,S,15051.9648,E,084.6,194.7,010126,,*34
$GNGGA,000031.50,3347.9445,S,15051.9621,E,4,18,0.6,30.0,M,46.9,M,,*59
$GNRMC,000031.50,A,3347.9445,S,15051.9621,E,084.6,194.7,010126,,*31
$GNGGA,000031.60,3347.9451,S,15051.9593,E,4,18,0.6,30.0,M,46.9,M,,*55
$GNRMC,000031.60,A,3347.9451,S,15051.9593,E,084.6,194.7,010126,,*3D
$GNGGA,000031.70,3347.9457,S,15051.9566,E,4,18,0.6,30.0,M,46.9,M,,*58
$GNRMC,000031.70,A,3347.9457,S,15051.9566,E,084.6,194.7,010126,,*30
$GNGGA,000031.80,3347.9463,S,15051.9539,E,4,18,0.6,30.0,M,46.9,M,,*5A
$GNRMC,000031.80,A,3347.9463,S,15051.9539,E,084.6,194.7,010126,,*32
$GNGGA,000031.90,3347.9469,S,15051.9511,E,4,18,0.6,30.0,M,46.9,M,,*5B
$GNRMC,000031.90,A,3347.9469,S,15051.9511,E,084.6,196.8,010126,,*3E
$GNGGA,000032.00,3347.9476,S,15051.9484,E,4,18,0.6,30.0,M,46.9,M,,*52
$GNRMC,000032.00,A,3347.9476,S,15051.9484,E,084.6,196.8,010126,,*37
$GNGGA,000032.10,3347.9483,S,15051.9457,E,4,18,0.6,30.0,M,46.9,M,,*57
$GNRMC,000032.10,A,3347.9483,S,15051.9457,E,084.6,196.8,010126,,*32
$GNGGA,000032.20,3347.9489,S,15051.9430,E,4,18,0.6,30.0,M,46.9,M,,*5F
$GNRMC,000032.20,A,3347.9489,S,15051.9430,E,084.6,196.8,010126,,*3A
$GNGGA,000032.30,3347.9496,S,15051.9403,E,4,18,0.6,30.0,M,46.9,M,,*50
$GNRMC,000032.30,A,3347.9496,S,15051.9403,E,084.6,196.8,010126,,*35
$GNGGA,000032.40,3347.9503,S,15051.9376,E,4,18,0.6,30.0,M,46.9,M,,*5F
$GNRMC,000032.40,A,3347.9503,S,15051.9376,E,084.6,196.8,010126,,*3A
$GNGGA,000032.50,3347.9510,S,15051.9349,E,4,18,0.6,30.0,M,46.9,M,,*50
$GNRMC,000032.50,A,3347.9510,S,15051.9349,E,084.6,196.8,010126,,*35
$GNGGA,000032.60,3347.9517,S,15051.9322,E,4,18,0.6,30.0,M,46.9,M,,*59
$GNRMC,000032.60,A,3347.9517,S,15051.9322,E,084.6,196.8,010126,,*3C
$GNGGA,000032.70,3347.9523,S,15051.9295,E,4,18,0.6,30.0,M,46.9,M,,*52
$GNRMC,000032.70,A,3347.9523,S,15051.9295,E,084.6,196.8,010126,,*37
$GNGGA,000032.80,3347.9530,S,15051.9268,E,4,18,0.6,30.0,M,46.9,M,,*5D
$GNRMC,000032.80,A,3347.9530,S,15051.9268,E,084.6,196.8,010126,,*38
$GNGGA,000032.90,3347.9537,S,15051.9241,E,4,18,0.6,30.0,M,46.9,M,,*50
$GNRMC,000032.90,A,3347.9537,S,15051.9241,E,084.6,196.8,010126,,*35
$GNGGA,000033.00,3347.9544,S,15051.9214,E,4,18,0.6,30.0,M,46.9,M,,*5C
$GNRMC,000033.00,A,3347.9544,S,15051.9214,E,084.6,199.1,010126,,*3F
$GNGGA,000033.10,3347.9552,S,15051.9187,E,4,18,0.6,30.0,M,46.9,M,,*53
$GNRMC,000033.10,A,3347.9552,S,15051.9187,E,084.6,199.1,010126,,*30
$GNGGA,000033.20,3347.9560,S,15051.9161,E,4,18,0.6,30.0,M,46.9,M,,*59
$GNRMC,000033.20,A,3347.9560,S,15051.9161,E,084.6,199.1,010126,,*3A
$GNGGA,000033.30,3347.9567,S,15051.9134,E,4,18,0.6,30.0,M,46.9,M,,*5F
$GNRMC,000033.30,A,3347.9567,S,15051.9134,E,084.6,199.1,010126,,*3C
$GNGGA,000033.40,3347.9575,S,15051.9107,E,4,18,0.6,30.0,M,46.9,M,,*5B
$GNRMC,000033.40,A,3347.9575,S,15051.9107,E,084.6,199.1,010126,,*38
$GNGGA,000033.50,3347.9583,S,15051.9081,E,4,18,0.6,30.0,M,46.9,M,,*5C
$GNRMC,000033.50,A,3347.9583,S,15051.9081,E,084.6,199.1,010126,,*3F
$GNGGA,000033.60,3347.9590,S,15051.9054,E,4,18,0.6,30.0,M,46.9,M,,*55
$GNRMC,000033.60,A,3347.9590,S,15051.9054,E,084.6,199.1,010126,,*36
$GNGGA,000033.70,3347.9598,S,15051.9027,E,4,18,0.6,30.0,M,46.9,M,,*58
$GNRMC,000033.70,A,3347.9598,S,15051.9027,E,084.6,199.1,010126,,*3B
$GNGGA,000033.80,3347.9606,S,15051.9000,E,4,18,0.6,30.0,M,46.9,M,,*56
$GNRMC,000033.80,A,3347.9606,S,15051.9000,E,084.6,199.1,010126,,*35
$GNGGA,000033.90,3347.9613,S,15051.8974,E,4,18,0.6,30.0,M,46.9,M,,*58
$GNRMC,000033.90,A,3347.9613,S,15051.8974,E,084.6,199.1,010126,,*3B
$GNGGA,000034.00,3347.9621,S,15051.8947,E,4,18,0.6,30.0,M,46.9,M,,*57
$GNRMC,000034.00,A,3347.9621,S,15051.8947,E,084.6,201.5,010126,,*32
$GNGGA,000034.10,3347.9630,S,15051.8921,E,4,18,0.6,30.0,M,46.9,M,,*56
$GNRMC,000034.10,A,3347.9630,S,15051.8921,E,084.7,201.5,010126,,*32
$GNGGA,000034.20,3347.9638,S,15051.8894,E,4,18,0.6,30.0,M,46.9,M,,*52
$GNRMC,000034.20,A,3347.9638,S,15051.8894,E,084.7,201.5,010126,,*36
$GNGGA,000034.30,3347.9647,S,15051.8868,E,4,18,0.6,30.0,M,46.9,M,,*58
$GNRMC,000034.30,A,3347.9647,S,15051.8868,E,084.7,201.5,010126,,*3C
$GNGGA,000034.40,3347.9656,S,15051.8842,E,4,18,0.6,30.0,M,46.9,M,,*57
$GNRMC,000034.40,A,3347.9656,S,15051.8842,E,084.7,201.5,010126,,*33
$GNGGA,000034.50,3347.9664,S,15051.8816,E,4,18,0.6,30.0,M,46.9,M,,*56
$GNRMC,000034.50,A,3347.9664,S,15051.8816,E,084.7,201.5,010126,,*32
$GNGGA,000034.60,3347.9673,S,15051.8789,E,4,18,0.6,30.0,M,46.9,M,,*5A
$GNRMC,000034.60,A,3347.9673,S,15051.8789,E,084.7,201.5,010126,,*3E
$GNGGA,000034.70,3347.9681,S,15051.8763,E,4,18,0.6,30.0,M,46.9,M,,*52
$GNRMC,000034.70,A,3347.9681,S,15051.8763,E,084.7,201.5,010126,,*36
$GNGGA,000034.80,3347.9690,S,15051.8737,E,4,18,0.6,30.0,M,46.9,M,,*5C
$GNRMC,000034.80,A,3347.9690,S,15051.8737,E,084.7,201.5,010126,,*38
$GNGGA,000034.90,3347.9699,S,15051.8710,E,4,18,0.6,30.0,M,46.9,M,,*51
$GNRMC,000034.90,A,3347.9699,S,15051.8710,E,084.8,201.5,010126,,*3A
$GNGGA,000035.00,3347.9708,S,15051.8684,E,4,18,0.6,30.0,M,46.9,M,,*5C
$GNRMC,000035.00,A,3347.9708,S,15051.8684,E,084.8,204.2,010126,,*35
$GNGGA,000035.10,3347.9717,S,15051.8658,E,4,18,0.6,30.0,M,46.9,M,,*52
$GNRMC,000035.10,A,3347.9717,S,15051.8658,E,084.8,204.2,010126,,*3B
$GNGGA,000035.20,3347.9727,S,15051.8632,E,4,18,0.6,30.0,M,46.9,M,,*5E
$GNRMC,000035.20,A,3347.9727,S,15051.8632,E,084.8,204.2,010126,,*37
$GNGGA,000035.30,3347.9737,S,15051.8607,E,4,18,0.6,30.0,M,46.9,M,,*58
$GNRMC,000035.30,A,3347.9737,S,15051.8607,E,084.8,204.2,010126,,*31
$GNGGA,000035.40,3347.9746,S,15051.8581,E,4,18,0.6,30.0,M,46.9,M,,*54
$GNRMC,000035.40,A,3347.9746,S,15051.8581,E,084.8,204.2,010126,,*3D
$GNGGA,000035.50,3347.9756,S,15051.8555,E,4,18,0.6,30.0,M,46.9,M,,*5D
$GNRMC,000035.50,A,3347.9756,S,15051.8555,E,084.9,204.2,010126,,*35
$GNGGA,000035.60,3347.9766,S,15051.8529,E,4,18,0.6,30.0,M,46.9,M,,*56
$GNRMC,000035.60,A,3347.9766,S,15051.8529,E,084.9,204.2,010126,,*3E
$GNGGA,000035.70,3347.9775,S,15051.8503,E,4,18,0.6,30.0,M,46.9,M,,*5D
$GNRMC,000035.70,A,3347.9775,S,15051.8503,E,084.9,204.2,010126,,*35
$GNGGA,000035.80,3347.9785,S,15051.8477,E,4,18,0.6,30.0,M,46.9,M,,*5F
$GNRMC,000035.80,A,3347.9785,S,15051.8477,E,084.9,204.2,010126,,*37
$GNGGA,000035.90,3347.9795,S,15051.8451,E,4,18,0.6,30.0,M,46.9,M,,*5B
$GNRMC,000035.90,A,3347.9795,S,15051.8451,E,084.9,204.2,010126,,*33
$GNGGA,000036.00,3347.9805,S,15051.8426,E,4,18,0.6,30.0,M,46.9,M,,*57
$GNRMC,000036.00,A,3347.9805,S,15051.8426,E,085.0,207.2,010126,,*34
$GNGGA,000036.10,3347.9816,S,15051.8401,E,4,18,0.6,30.0,M,46.9,M,,*51
$GNRMC,000036.10,A,3347.9816,S,15051.8401,E,085.0,207.2,010126,,*32
$GNGGA,000036.20,3347.9827,S,15051.8376,E,4,18,0.6,30.0,M,46.9,M,,*57
$GNRMC,000036.20,A,3347.9827,S,15051.8376,E,085.0,207.2,010126,,*34
$GNGGA,000036.30,3347.9838,S,15051.8350,E,4,18,0.6,30.0,M,46.9,M,,*5C
$GNRMC,000036.30,A,3347.9838,S,15051.8350,E,085.0,207.2,010126,,*3F
$GNGGA,000036.40,3347.9848,S,15051.8325,E,4,18,0.6,30.0,M,46.9,M,,*5E
$GNRMC,000036.40,A,3347.9848,S,15051.8325,E,085.0,207.2,010126,,*3D
$GNGGA,000036.50,3347.9859,S,15051.8300,E,4,18,0.6,30.0,M,46.9,M,,*58
$GNRMC,000036.50,A,3347.9859,S,15051.8300,E,085.1,207.2,010126,,*3A
$GNGGA,000036.60,3347.9870,S,15051.8275,E,4,18,0.6,30.0,M,46.9,M,,*53
$GNRMC,000036.60,A,3347.9870,S,15051.8275,E,085.1,207.2,010126,,*31
$GNGGA,000036.70,3347.9881,S,15051.8249,E,4,18,0.6,30.0,M,46.9,M,,*53
$GNRMC,000036.70,A,3347.9881,S,15051.8249,E,085.1,207.2,010126,,*31
$GNGGA,000036.80,3347.9892,S,15051.8224,E,4,18,0.6,30.0,M,46.9,M,,*55
$GNRMC,000036.80,A,3347.9892,S,15051.8224,E,085.1,210.4,010126,,*37
$GNGGA,000036.90,3347.9904,S,15051.8199,E,4,18,0.6,30.0,M,46.9,M,,*5F
$GNRMC,000036.90,A,3347.9904,S,15051.8199,E,085.2,210.4,010126,,*3E
$GNGGA,000037.00,3347.9916,S,15051.8175,E,4,18,0.6,30.0,M,46.9,M,,*56
$GNRMC,000037.00,A,3347.9916,S,15051.8175,E,085.2,210.4,010126,,*37
$GNGGA,000037.10,3347.9928,S,15051.8150,E,4,18,0.6,30.0,M,46.9,M,,*5D
$GNRMC,000037.10,A,3347.9928,S,15051.8150,E,085.2,210.4,010126,,*3C
$GNGGA,000037.20,3347.9940,S,15051.8126,E,4,18,0.6,30.0,M,46.9,M,,*51
$GNRMC,000037.20,A,3347.9940,S,15051.8126,E,085.2,210.4,010126,,*30
$GNGGA,000037.30,3347.9951,S,15051.8101,E,4,18,0.6,30.0,M,46.9,M,,*55
$GNRMC,000037.30,A,3347.9951,S,15051.8101,E,085.3,210.4,010126,,*35
$GNGGA,000037.40,3347.9963,S,15051.8077,E,4,18,0.6,30.0,M,46.9,M,,*53
$GNRMC,000037.40,A,3347.9963,S,15051.8077,E,085.3,210.4,010126,,*33
$GNGGA,000037.50,3347.9975,S,15051.8052,E,4,18,0.6,30.0,M,46.9,M,,*52
$GNRMC,000037.50,A,3347.9975,S,15051.8052,E,085.3,210.4,010126,,*32
$GNGGA,000037.60,3347.9987,S,15051.8028,E,4,18,0.6,30.0,M,46.9,M,,*51
$GNRMC,000037.60,A,3347.9987,S,15051.8028,E,085.3,210.4,010126,,*31
$GNGGA,000037.70,3348.0000,S,15051.8004,E,4,18,0.6,30.0,M,46.9,M,,*5E
$GNRMC,000037.70,A,3348.0000,S,15051.8004,E,085.4,214.1,010126,,*38
$GNGGA,000037.80,3348.0013,S,15051.7980,E,4,18,0.6,30.0,M,46.9,M,,*59
$GNRMC,000037.80,A,3348.0013,S,15051.7980,E,085.4,214.1,010126,,*3F
$GNGGA,000037.90,3348.0027,S,15051.7956,E,4,18,0.6,30.0,M,46.9,M,,*54
$GNRMC,000037.90,A,3348.0027,S,15051.7956,E,085.4,214.1,010126,,*32
$GNGGA,000038.00,3348.0040,S,15051.7933,E,4,18,0.6,30.0,M,46.9,M,,*50
$GNRMC,000038.00,A,3348.0040,S,15051.7933,E,085.5,214.1,010126,,*37
$GNGGA,000038.10,3348.0053,S,15051.7909,E,4,18,0.6,30.0,M,46.9,M,,*5A
$GNRMC,000038.10,A,3348.0053,S,15051.7909,E,085.5,214.1,010126,,*3D
$GNGGA,000038.20,3348.0067,S,15051.7885,E,4,18,0.6,30.0,M,46.9,M,,*5B
$GNRMC,000038.20,A,3348.0067,S,15051.7885,E,085.5,214.1,010126,,*3C
$GNGGA,000038.30,3348.0080,S,15051.7862,E,4,18,0.6,30.0,M,46.9,M,,*5A
$GNRMC,000038.30,A,3348.0080,S,15051.7862,E,085.6,214.1,010126,,*3E
$GNGGA,000038.40,3348.0093,S,15051.7838,E,4,18,0.6,30.0,M,46.9,M,,*50
$GNRMC,000038.40,A,3348.0093,S,15051.7838,E,085.6,214.1,010126,,*34
$GNGGA,000038.50,3348.0107,S,15051.7815,E,4,18,0.6,30.0,M,46.9,M,,*52
$GNRMC,000038.50,A,3348.0107,S,15051.7815,E,085.6,218.2,010126,,*39
$GNGGA,000038.60,3348.0122,S,15051.7793,E,4,18,0.6,30.0,M,46.9,M,,*57
$GNRMC,000038.60,A,3348.0122,S,15051.7793,E,085.6,218.2,010126,,*3C
$GNGGA,000038.70,3348.0137,S,15051.7770,E,4,18,0.6,30.0,M,46.9,M,,*5F
$GNRMC,000038.70,A,3348.0137,S,15051.7770,E,085.7,218.2,010126,,*35
$GNGGA,000038.80,3348.0152,S,15051.7748,E,4,18,0.6,30.0,M,46.9,M,,*58
$GNRMC,000038.80,A,3348.0152,S,15051.7748,E,085.7,218.2,010126,,*32
$GNGGA,000038.90,3348.0166,S,15051.7725,E,4,18,0.6,30.0,M,46.9,M,,*55
$GNRMC,000038.90,A,3348.0166,S,15051.7725,E,085.7,218.2,010126,,*3F
$GNGGA,000039.00,3348.0181,S,15051.7703,E,4,18,0.6,30.0,M,46.9,M,,*50
$GNRMC,000039.00,A,3348.0181,S,15051.7703,E,085.8,218.2,010126,,*35
$GNGGA,000039.10,3348.0196,S,15051.7680,E,4,18,0.6,30.0,M,46.9,M,,*5D
$GNRMC,000039.10,A,3348.0196,S,15051.7680,E,085.8,218.2,010126,,*38
$GNGGA,000039.20,3348.0211,S,15051.7658,E,4,18,0.6,30.0,M,46.9,M,,*57
$GNRMC,000039.20,A,3348.0211,S,15051.7658,E,085.8,222.9,010126,,*30
$GNGGA,000039.30,3348.0227,S,15051.7637,E,4,18,0.6,30.0,M,46.9,M,,*5A
$GNRMC,000039.30,A,3348.0227,S,15051.7637,E,085.9,222.9,010126,,*3C
$GNGGA,000039.40,3348.0243,S,15051.7616,E,4,18,0.6,30.0,M,46.9,M,,*5C
$GNRMC,000039.40,A,3348.0243,S,15051.7616,E,085.9,222.9,010126,,*3A
$GNGGA,000039.50,3348.0259,S,15051.7595,E,4,18,0.6,30.0,M,46.9,M,,*5E
$GNRMC,000039.50,A,3348.0259,S,15051.7595,E,086.0,222.9,010126,,*32
$GNGGA,000039.60,3348.0276,S,15051.7574,E,4,18,0.6,30.0,M,46.9,M,,*5F
$GNRMC,000039.60,A,3348.0276,S,15051.7574,E,086.0,222.9,010126,,*33
$GNGGA,000039.70,3348.0292,S,15051.7553,E,4,18,0.6,30.0,M,46.9,M,,*51
$GNRMC,000039.70,A,3348.0292,S,15051.7553,E,086.0,222.9,010126,,*3D
$GNGGA,000039.80,3348.0308,S,15051.7532,E,4,18,0.6,30.0,M,46.9,M,,*5B
$GNRMC,000039.80,A,3348.0308,S,15051.7532,E,086.1,222.9,010126,,*36
$GNGGA,000039.90,3348.0325,S,15051.7511,E,4,18,0.6,30.0,M,46.9,M,,*54
$GNRMC,000039.90,A,3348.0325,S,15051.7511,E,086.1,228.2,010126,,*38
$GNGGA,000040.00,3348.0343,S,15051.7492,E,4,18,0.6,30.0,M,46.9,M,,*59
$GNRMC,000040.00,A,3348.0343,S,15051.7492,E,086.1,228.2,010126,,*35
$GNGGA,000040.10,3348.0360,S,15051.7473,E,4,18,0.6,30.0,M,46.9,M,,*56
$GNRMC,000040.10,A,3348.0360,S,15051.7473,E,086.2,228.2,010126,,*39
$GNGGA,000040.20,3348.0378,S,15051.7454,E,4,18,0.6,30.0,M,46.9,M,,*59
$GNRMC,000040.20,A,3348.0378,S,15051.7454,E,086.2,228.2,010126,,*36
$GNGGA,000040.30,3348.0396,S,15051.7434,E,4,18,0.6,30.0,M,46.9,M,,*5E
$GNRMC,000040.30,A,3348.0396,S,15051.7434,E,086.2,228.2,010126,,*31
$GNGGA,000040.40,3348.0414,S,15051.7415,E,4,18,0.6,30.0,M,46.9,M,,*57
$GNRMC,000040.40,A,3348.0414,S,15051.7415,E,086.3,228.2,010126,,*39
$GNGGA,000040.50,3348.0432,S,15051.7396,E,4,18,0.6,30.0,M,46.9,M,,*5E
$GNRMC,000040.50,A,3348.0432,S,15051.7396,E,086.3,228.2,010126,,*30
$GNGGA,000040.60,3348.0451,S,15051.7378,E,4,18,0.6,30.0,M,46.9,M,,*58
$GNRMC,000040.60,A,3348.0451,S,15051.7378,E,086.4,234.2,010126,,*3C
$GNGGA,000040.70,3348.0470,S,15051.7361,E,4,18,0.6,30.0,M,46.9,M,,*52
$GNRMC,000040.70,A,3348.0470,S,15051.7361,E,086.4,234.2,010126,,*36
$GNGGA,000040.80,3348.0490,S,15051.7345,E,4,18,0.6,30.0,M,46.9,M,,*55
$GNRMC,000040.80,A,3348.0490,S,15051.7345,E,086.4,234.2,010126,,*31
$GNGGA,000040.90,3348.0509,S,15051.7328,E,4,18,0.6,30.0,M,46.9,M,,*5E
$GNRMC,000040.90,A,3348.0509,S,15051.7328,E,086.5,234.2,010126,,*3B
$GNGGA,000041.00,3348.0529,S,15051.7311,E,4,18,0.6,30.0,M,46.9,M,,*5E
$GNRMC,000041.00,A,3348.0529,S,15051.7311,E,086.5,234.2,010126,,*3B
$GNGGA,000041.10,3348.0548,S,15051.7294,E,4,18,0.6,30.0,M,46.9,M,,*54
$GNRMC,000041.10,A,3348.0548,S,15051.7294,E,086.6,234.2,010126,,*32
$GNGGA,000041.20,3348.0568,S,15051.7278,E,4,18,0.6,30.0,M,46.9,M,,*57
$GNRMC,000041.20,A,3348.0568,S,15051.7278,E,086.6,241.0,010126,,*31
$GNGGA,000041.30,3348.0589,S,15051.7264,E,4,18,0.6,30.0,M,46.9,M,,*54
$GNRMC,000041.30,A,3348.0589,S,15051.7264,E,086.6,241.0,010126,,*32
$GNGGA,000041.40,3348.0610,S,15051.7250,E,4,18,0.6,30.0,M,46.9,M,,*57
$GNRMC,000041.40,A,3348.0610,S,15051.7250,E,086.7,241.0,010126,,*30
$GNGGA,000041.50,3348.0631,S,15051.7236,E,4,18,0.6,30.0,M,46.9,M,,*55
$GNRMC,000041.50,A,3348.0631,S,15051.7236,E,086.7,241.0,010126,,*32
$GNGGA,000041.60,3348.0652,S,15051.7222,E,4,18,0.6,30.0,M,46.9,M,,*56
$GNRMC,000041.60,A,3348.0652,S,15051.7222,E,086.8,241.0,010126,,*3E
$GNGGA,000041.70,3348.0674,S,15051.7208,E,4,18,0.6,30.0,M,46.9,M,,*5B
$GNRMC,000041.70,A,3348.0674,S,15051.7208,E,086.8,241.0,010126,,*33
$GNGGA,000041.80,3348.0696,S,15051.7197,E,4,18,0.6,30.0,M,46.9,M,,*5D
$GNRMC,000041.80,A,3348.0696,S,15051.7197,E,086.8,248.6,010126,,*3A
$GNGGA,000041.90,3348.0718,S,15051.7186,E,4,18,0.6,30.0,M,46.9,M,,*5B
$GNRMC,000041.90,A,3348.0718,S,15051.7186,E,086.9,248.6,010126,,*3D
$GNGGA,000042.00,3348.0741,S,15051.7176,E,4,18,0.6,30.0,M,46.9,M,,*52
$GNRMC,000042.00,A,3348.0741,S,15051.7176,E,086.9,248.6,010126,,*34
$GNGGA,000042.10,3348.0763,S,15051.7165,E,4,18,0.6,30.0,M,46.9,M,,*51
$GNRMC,000042.10,A,3348.0763,S,15051.7165,E,087.0,248.6,010126,,*3F
$GNGGA,000042.20,3348.0785,S,15051.7154,E,4,18,0.6,30.0,M,46.9,M,,*58
$GNRMC,000042.20,A,3348.0785,S,15051.7154,E,087.0,248.6,010126,,*36
$GNGGA,000042.30,3348.0808,S,15051.7145,E,4,18,0.6,30.0,M,46.9,M,,*53
$GNRMC,000042.30,A,3348.0808,S,15051.7145,E,087.0,256.8,010126,,*3C
$GNGGA,000042.40,3348.0832,S,15051.7138,E,4,18,0.6,30.0,M,46.9,M,,*57
$GNRMC,000042.40,A,3348.0832,S,15051.7138,E,087.1,256.8,010126,,*39
$GNGGA,000042.50,3348.0855,S,15051.7132,E,4,18,0.6,30.0,M,46.9,M,,*5D
$GNRMC,000042.50,A,3348.0855,S,15051.7132,E,087.1,256.8,010126,,*33
$GNGGA,000042.60,3348.0879,S,15051.7125,E,4,18,0.6,30.0,M,46.9,M,,*56
$GNRMC,000042.60,A,3348.0879,S,15051.7125,E,087.2,256.8,010126,,*3B
$GNGGA,000042.70,3348.0902,S,15051.7118,E,4,18,0.6,30.0,M,46.9,M,,*54
$GNRMC,000042.70,A,3348.0902,S,15051.7118,E,087.2,256.8,010126,,*39
$GNGGA,000042.80,3348.0926,S,15051.7112,E,4,18,0.6,30.0,M,46.9,M,,*57
$GNRMC,000042.80,A,3348.0926,S,15051.7112,E,087.3,265.6,010126,,*35
$GNGGA,000042.90,3348.0950,S,15051.7110,E,4,18,0.6,30.0,M,46.9,M,,*55
$GNRMC,000042.90,A,3348.0950,S,15051.7110,E,087.3,265.6,010126,,*37
$GNGGA,000043.00,3348.0974,S,15051.7107,E,4,18,0.6,30.0,M,46.9,M,,*5D
$GNRMC,000043.00,A,3348.0974,S,15051.7107,E,087.3,265.6,010126,,*3F
$GNGGA,000043.10,3348.0998,S,15051.7105,E,4,18,0.6,30.0,M,46.9,M,,*5C
$GNRMC,000043.10,A,3348.0998,S,15051.7105,E,087.4,265.6,010126,,*39
$GNGGA,000043.20,3348.1023,S,15051.7103,E,4,18,0.6,30.0,M,46.9,M,,*51
$GNRMC,000043.20,A,3348.1023,S,15051.7103,E,087.4,265.6,010126,,*34
$GNGGA,000043.30,3348.1047,S,15051.7101,E,4,18,0.6,30.0,M,46.9,M,,*50
$GNRMC,000043.30,A,3348.1047,S,15051.7101,E,087.5,265.6,010126,,*34
$GNGGA,000043.40,3348.1071,S,15051.7102,E,4,18,0.6,30.0,M,46.9,M,,*51
$GNRMC,000043.40,A,3348.1071,S,15051.7102,E,087.5,274.4,010126,,*37
$GNGGA,000043.50,3348.1095,S,15051.7105,E,4,18,0.6,30.0,M,46.9,M,,*5D
$GNRMC,000043.50,A,3348.1095,S,15051.7105,E,087.6,274.4,010126,,*38
$GNGGA,000043.60,3348.1120,S,15051.7107,E,4,18,0.6,30.0,M,46.9,M,,*53
$GNRMC,000043.60,A,3348.1120,S,15051.7107,E,087.6,274.4,010126,,*36
$GNGGA,000043.70,3348.1144,S,15051.7109,E,4,18,0.6,30.0,M,46.9,M,,*5E
$GNRMC,000043.70,A,3348.1144,S,15051.7109,E,087.6,274.4,010126,,*3B
$GNGGA,000043.80,3348.1168,S,15051.7111,E,4,18,0.6,30.0,M,46.9,M,,*56
$GNRMC,000043.80,A,3348.1168,S,15051.7111,E,087.7,274.4,010126,,*32
$GNGGA,000043.90,3348.1192,S,15051.7117,E,4,18,0.6,30.0,M,46.9,M,,*54
$GNRMC,000043.90,A,3348.1192,S,15051.7117,E,087.7,283.2,010126,,*3E
$GNGGA,000044.00,3348.1216,S,15051.7124,E,4,18,0.6,30.0,M,46.9,M,,*55
$GNRMC,000044.00,A,3348.1216,S,15051.7124,E,087.8,283.2,010126,,*30
$GNGGA,000044.10,3348.1239,S,15051.7130,E,4,18,0.6,30.0,M,46.9,M,,*5C
$GNRMC,000044.10,A,3348.1239,S,15051.7130,E,087.8,283.2,010126,,*39
$GNGGA,000044.20,3348.1263,S,15051.7137,E,4,18,0.6,30.0,M,46.9,M,,*57
$GNRMC,000044.20,A,3348.1263,S,15051.7137,E,087.8,283.2,010126,,*32
$GNGGA,000044.30,3348.1287,S,15051.7144,E,4,18,0.6,30.0,M,46.9,M,,*58
$GNRMC,000044.30,A,3348.1287,S,15051.7144,E,087.9,283.2,010126,,*3C
$GNGGA,000044.40,3348.1310,S,15051.7152,E,4,18,0.6,30.0,M,46.9,M,,*57
$GNRMC,000044.40,A,3348.1310,S,15051.7152,E,087.9,291.4,010126,,*36
$GNGGA,000044.50,3348.1333,S,15051.7163,E,4,18,0.6,30.0,M,46.9,M,,*55
$GNRMC,000044.50,A,3348.1333,S,15051.7163,E,088.0,291.4,010126,,*32
$GNGGA,000044.60,3348.1355,S,15051.7174,E,4,18,0.6,30.0,M,46.9,M,,*50
$GNRMC,000044.60,A,3348.1355,S,15051.7174,E,088.0,291.4,010126,,*37
$GNGGA,000044.70,3348.1378,S,15051.7184,E,4,18,0.6,30.0,M,46.9,M,,*51
$GNRMC,000044.70,A,3348.1378,S,15051.7184,E,088.1,291.4,010126,,*37
$GNGGA,000044.80,3348.1401,S,15051.7195,E,4,18,0.6,30.0,M,46.9,M,,*57
$GNRMC,000044.80,A,3348.1401,S,15051.7195,E,088.1,291.4,010126,,*31
$GNGGA,000044.90,3348.1424,S,15051.7206,E,4,18,0.6,30.0,M,46.9,M,,*58
$GNRMC,000044.90,A,3348.1424,S,15051.7206,E,088.1,299.0,010126,,*32
$GNGGA,000045.00,3348.1445,S,15051.7221,E,4,18,0.6,30.0,M,46.9,M,,*52
$GNRMC,000045.00,A,3348.1445,S,15051.7221,E,088.2,299.0,010126,,*3B
$GNGGA,000045.10,3348.1466,S,15051.7235,E,4,18,0.6,30.0,M,46.9,M,,*57
$GNRMC,000045.10,A,3348.1466,S,15051.7235,E,088.2,299.0,010126,,*3E
$GNGGA,000045.20,3348.1488,S,15051.7249,E,4,18,0.6,30.0,M,46.9,M,,*5F
$GNRMC,000045.20,A,3348.1488,S,15051.7249,E,088.3,299.0,010126,,*37
$GNGGA,000045.30,3348.1509,S,15051.7263,E,4,18,0.6,30.0,M,46.9,M,,*5E
$GNRMC,000045.30,A,3348.1509,S,15051.7263,E,088.3,299.0,010126,,*36
$GNGGA,000045.40,3348.1531,S,15051.7278,E,4,18,0.6,30.0,M,46.9,M,,*58
$GNRMC,000045.40,A,3348.1531,S,15051.7278,E,088.3,299.0,010126,,*30
$GNGGA,000045.50,3348.1551,S,15051.7293,E,4,18,0.6,30.0,M,46.9,M,,*5A
$GNRMC,000045.50,A,3348.1551,S,15051.7293,E,088.4,305.8,010126,,*39
$GNGGA,000045.60,3348.1571,S,15051.7311,E,4,18,0.6,30.0,M,46.9,M,,*50
$GNRMC,000045.60,A,3348.1571,S,15051.7311,E,088.4,305.8,010126,,*33
$GNGGA,000045.70,3348.1591,S,15051.7328,E,4,18,0.6,30.0,M,46.9,M,,*55
$GNRMC,000045.70,A,3348.1591,S,15051.7328,E,088.5,305.8,010126,,*37
$GNGGA,000045.80,3348.1611,S,15051.7345,E,4,18,0.6,30.0,M,46.9,M,,*5A
$GNRMC,000045.80,A,3348.1611,S,15051.7345,E,088.5,305.8,010126,,*38
$GNGGA,000045.90,3348.1631,S,15051.7362,E,4,18,0.6,30.0,M,46.9,M,,*5C
$GNRMC,000045.90,A,3348.1631,S,15051.7362,E,088.5,305.8,010126,,*3E
$GNGGA,000046.00,3348.1651,S,15051.7380,E,4,18,0.6,30.0,M,46.9,M,,*5C
$GNRMC,000046.00,A,3348.1651,S,15051.7380,E,088.6,305.8,010126,,*3D
$GNGGA,000046.10,3348.1670,S,15051.7398,E,4,18,0.6,30.0,M,46.9,M,,*57
$GNRMC,000046.10,A,3348.1670,S,15051.7398,E,088.6,311.8,010126,,*33
$GNGGA,000046.20,3348.1689,S,15051.7418,E,4,18,0.6,30.0,M,46.9,M,,*5D
$GNRMC,000046.20,A,3348.1689,S,15051.7418,E,088.7,311.8,010126,,*38
$GNGGA,000046.30,3348.1707,S,15051.7438,E,4,18,0.6,30.0,M,46.9,M,,*59
$GNRMC,000046.30,A,3348.1707,S,15051.7438,E,088.7,311.8,010126,,*3C
$GNGGA,000046.40,3348.1725,S,15051.7457,E,4,18,0.6,30.0,M,46.9,M,,*57
$GNRMC,000046.40,A,3348.1725,S,15051.7457,E,088.7,311.8,010126,,*32
$GNGGA,000046.50,3348.1744,S,15051.7477,E,4,18,0.6,30.0,M,46.9,M,,*53
$GNRMC,000046.50,A,3348.1744,S,15051.7477,E,088.8,311.8,010126,,*39
$GNGGA,000046.60,3348.1762,S,15051.7497,E,4,18,0.6,30.0,M,46.9,M,,*5A
$GNRMC,000046.60,A,3348.1762,S,15051.7497,E,088.8,311.8,010126,,*30
$GNGGA,000046.70,3348.1780,S,15051.7517,E,4,18,0.6,30.0,M,46.9,M,,*5E
$GNRMC,000046.70,A,3348.1780,S,15051.7517,E,088.9,317.1,010126,,*3A
$GNGGA,000046.80,3348.1797,S,15051.7539,E,4,18,0.6,30.0,M,46.9,M,,*5B
$GNRMC,000046.80,A,3348.1797,S,15051.7539,E,088.9,317.1,010126,,*3F
$GNGGA,000046.90,3348.1814,S,15051.7560,E,4,18,0.6,30.0,M,46.9,M,,*52
$GNRMC,000046.90,A,3348.1814,S,15051.7560,E,088.9,317.1,010126,,*36
$GNGGA,000047.00,3348.1831,S,15051.7582,E,4,18,0.6,30.0,M,46.9,M,,*51
$GNRMC,000047.00,A,3348.1831,S,15051.7582,E,089.0,317.1,010126,,*3D
$GNGGA,000047.10,3348.1847,S,15051.7604,E,4,18,0.6,30.0,M,46.9,M,,*5C
$GNRMC,000047.10,A,3348.1847,S,15051.7604,E,089.0,317.1,010126,,*30
$GNGGA,000047.20,3348.1864,S,15051.7626,E,4,18,0.6,30.0,M,46.9,M,,*5E
$GNRMC,000047.20,A,3348.1864,S,15051.7626,E,089.0,317.1,010126,,*32
$GNGGA,000047.30,3348.1881,S,15051.7647,E,4,18,0.6,30.0,M,46.9,M,,*53
$GNRMC,000047.30,A,3348.1881,S,15051.7647,E,089.1,317.1,010126,,*3E
$GNGGA,000047.40,3348.1897,S,15051.7670,E,4,18,0.6,30.0,M,46.9,M,,*57
$GNRMC,000047.40,A,3348.1897,S,15051.7670,E,089.1,321.8,010126,,*36
$GNGGA,000047.50,3348.1913,S,15051.7693,E,4,18,0.6,30.0,M,46.9,M,,*56
$GNRMC,000047.50,A,3348.1913,S,15051.7693,E,089.2,321.8,010126,,*34
$GNGGA,000047.60,3348.1928,S,15051.7717,E,4,18,0.6,30.0,M,46.9,M,,*50
$GNRMC,000047.60,A,3348.1928,S,15051.7717,E,089.2,321.8,010126,,*32
$GNGGA,000047.70,3348.1943,S,15051.7740,E,4,18,0.6,30.0,M,46.9,M,,*5E
$GNRMC,000047.70,A,3348.1943,S,15051.7740,E,089.2,321.8,010126,,*3C
$GNGGA,000047.80,3348.1959,S,15051.7763,E,4,18,0.6,30.0,M,46.9,M,,*5B
$GNRMC,000047.80,A,3348.1959,S,15051.7763,E,089.3,321.8,010126,,*38
$GNGGA,000047.90,3348.1974,S,15051.7787,E,4,18,0.6,30.0,M,46.9,M,,*5F
$GNRMC,000047.90,A,3348.1974,S,15051.7787,E,089.3,321.8,010126,,*3C
$GNGGA,000048.00,3348.1989,S,15051.7810,E,4,18,0.6,30.0,M,46.9,M,,*5A
$GNRMC,000048.00,A,3348.1989,S,15051.7810,E,089.3,321.8,010126,,*39
$GNGGA,000048.10,3348.2004,S,15051.7834,E,4,18,0.6,30.0,M,46.9,M,,*52
$GNRMC,000048.10,A,3348.2004,S,15051.7834,E,089.4,325.9,010126,,*33
$GNGGA,000048.20,3348.2018,S,15051.7859,E,4,18,0.6,30.0,M,46.9,M,,*57
$GNRMC,000048.20,A,3348.2018,S,15051.7859,E,089.4,325.9,010126,,*36
$GNGGA,000048.30,3348.2032,S,15051.7883,E,4,18,0.6,30.0,M,46.9,M,,*59
$GNRMC,000048.30,A,3348.2032,S,15051.7883,E,089.4,325.9,010126,,*38
$GNGGA,000048.40,3348.2046,S,15051.7908,E,4,18,0.6,30.0,M,46.9,M,,*5F
$GNRMC,000048.40,A,3348.2046,S,15051.7908,E,089.5,325.9,010126,,*3F
$GNGGA,000048.50,3348.2060,S,15051.7933,E,4,18,0.6,30.0,M,46.9,M,,*52
$GNRMC,000048.50,A,3348.2060,S,15051.7933,E,089.5,325.9,010126,,*32
$GNGGA,000048.60,3348.2074,S,15051.7958,E,4,18,0.6,30.0,M,46.9,M,,*59
$GNRMC,000048.60,A,3348.2074,S,15051.7958,E,089.5,325.9,010126,,*39
$GNGGA,000048.70,3348.2088,S,15051.7982,E,4,18,0.6,30.0,M,46.9,M,,*5C
$GNRMC,000048.70,A,3348.2088,S,15051.7982,E,089.5,325.9,010126,,*3C
$GNGGA,000048.80,3348.2102,S,15051.8007,E,4,18,0.6,30.0,M,46.9,M,,*5B
$GNRMC,000048.80,A,3348.2102,S,15051.8007,E,089.6,325.9,010126,,*38
$GNGGA,000048.90,3348.2115,S,15051.8033,E,4,18,0.6,30.0,M,46.9,M,,*5B
$GNRMC,000048.90,A,3348.2115,S,15051.8033,E,089.6,329.6,010126,,*3B
$GNGGA,000049.00,3348.2128,S,15051.8058,E,4,18,0.6,30.0,M,46.9,M,,*50
$GNRMC,000049.00,A,3348.2128,S,15051.8058,E,089.6,329.6,010126,,*30
$GNGGA,000049.10,3348.2140,S,15051.8084,E,4,18,0.6,30.0,M,46.9,M,,*5E
$GNRMC,000049.10,A,3348.2140,S,15051.8084,E,089.7,329.6,010126,,*3F
$GNGGA,000049.20,3348.2153,S,15051.8110,E,4,18,0.6,30.0,M,46.9,M,,*53
$GNRMC,000049.20,A,3348.2153,S,15051.8110,E,089.7,329.6,010126,,*32
$GNGGA,000049.30,3348.2165,S,15051.8136,E,4,18,0.6,30.0,M,46.9,M,,*53
$GNRMC,000049.30,A,3348.2165,S,15051.8136,E,089.7,329.6,010126,,*32
$GNGGA,000049.40,3348.2178,S,15051.8162,E,4,18,0.6,30.0,M,46.9,M,,*59
$GNRMC,000049.40,A,3348.2178,S,15051.8162,E,089.7,329.6,010126,,*38
$GNGGA,000049.50,3348.2191,S,15051.8188,E,4,18,0.6,30.0,M,46.9,M,,*5B
$GNRMC,000049.50,A,3348.2191,S,15051.8188,E,089.8,329.6,010126,,*35
$GNGGA,000049.60,3348.2203,S,15051.8213,E,4,18,0.6,30.0,M,46.9,M,,*51
$GNRMC,000049.60,A,3348.2203,S,15051.8213,E,089.8,329.6,010126,,*3F
$GNGGA,000049.70,3348.2215,S,15051.8240,E,4,18,0.6,30.0,M,46.9,M,,*51
$GNRMC,000049.70,A,3348.2215,S,15051.8240,E,089.8,332.8,010126,,*3B
$GNGGA,000049.80,3348.2227,S,15051.8266,E,4,18,0.6,30.0,M,46.9,M,,*5B
$GNRMC,000049.80,A,3348.2227,S,15051.8266,E,089.9,332.8,010126,,*30
$GNGGA,000049.90,3348.2238,S,15051.8293,E,4,18,0.6,30.0,M,46.9,M,,*5E
$GNRMC,000049.90,A,3348.2238,S,15051.8293,E,089.9,332.8,010126,,*35
$GNGGA,000050.00,3348.2249,S,15051.8320,E,4,18,0.6,30.0,M,46.9,M,,*50
$GNRMC,000050.00,A,3348.2249,S,15051.8320,E,089.9,332.8,010126,,*3B
$GNGGA,000050.10,3348.2261,S,15051.8347,E,4,18,0.6,30.0,M,46.9,M,,*5A
$GNRMC,000050.10,A,3348.2261,S,15051.8347,E,089.9,332.8,010126,,*31
$GNGGA,000050.20,3348.2272,S,15051.8373,E,4,18,0.6,30.0,M,46.9,M,,*5C
$GNRMC,000050.20,A,3348.2272,S,15051.8373,E,089.9,332.8,010126,,*37
$GNGGA,000050.30,3348.2284,S,15051.8400,E,4,18,0.6,30.0,M,46.9,M,,*57
$GNRMC,000050.30,A,3348.2284,S,15051.8400,E,090.0,332.8,010126,,*3D
$GNGGA,000050.40,3348.2295,S,15051.8427,E,4,18,0.6,30.0,M,46.9,M,,*55
$GNRMC,000050.40,A,3348.2295,S,15051.8427,E,090.0,332.8,010126,,*3F
$GNGGA,000050.50,3348.2306,S,15051.8454,E,4,18,0.6,30.0,M,46.9,M,,*5B
$GNRMC,000050.50,A,3348.2306,S,15051.8454,E,090.0,335.8,010126,,*36
$GNGGA,000050.60,3348.2316,S,15051.8481,E,4,18,0.6,30.0,M,46.9,M,,*51
$GNRMC,000050.60,A,3348.2316,S,15051.8481,E,090.0,335.8,010126,,*3C
$GNGGA,000050.70,3348.2327,S,15051.8508,E,4,18,0.6,30.0,M,46.9,M,,*52
$GNRMC,000050.70,A,3348.2327,S,15051.8508,E,090.1,335.8,010126,,*3E
$GNGGA,000050.80,3348.2337,S,15051.8536,E,4,18,0.6,30.0,M,46.9,M,,*51
$GNRMC,000050.80,A,3348.2337,S,15051.8536,E,090.1,335.8,010126,,*3D
$GNGGA,000050.90,3348.2347,S,15051.8563,E,4,18,0.6,30.0,M,46.9,M,,*57
$GNRMC,000050.90,A,3348.2347,S,15051.8563,E,090.1,335.8,010126,,*3B
$GNGGA,000051.00,3348.2357,S,15051.8591,E,4,18,0.6,30.0,M,46.9,M,,*53
$GNRMC,000051.00,A,3348.2357,S,15051.8591,E,090.1,335.8,010126,,*3F
$GNGGA,000051.10,3348.2368,S,15051.8618,E,4,18,0.6,30.0,M,46.9,M,,*5C
$GNRMC,000051.10,A,3348.2368,S,15051.8618,E,090.1,335.8,010126,,*30
$GNGGA,000051.20,3348.2378,S,15051.8646,E,4,18,0.6,30.0,M,46.9,M,,*55
$GNRMC,000051.20,A,3348.2378,S,15051.8646,E,090.2,335.8,010126,,*3A
$GNGGA,000051.30,3348.2388,S,15051.8673,E,4,18,0.6,30.0,M,46.9,M,,*5D
$GNRMC,000051.30,A,3348.2388,S,15051.8673,E,090.2,335.8,010126,,*32
$GNGGA,000051.40,3348.2398,S,15051.8701,E,4,18,0.6,30.0,M,46.9,M,,*5F
$GNRMC,000051.40,A,3348.2398,S,15051.8701,E,090.2,338.5,010126,,*30
$GNGGA,000051.50,3348.2407,S,15051.8729,E,4,18,0.6,30.0,M,46.9,M,,*55
$GNRMC,000051.50,A,3348.2407,S,15051.8729,E,090.2,338.5,010126,,*3A
$GNGGA,000051.60,3348.2417,S,15051.8757,E,4,18,0.6,30.0,M,46.9,M,,*5E
$GNRMC,000051.60,A,3348.2417,S,15051.8757,E,090.2,338.5,010126,,*31
$GNGGA,000051.70,3348.2426,S,15051.8785,E,4,18,0.6,30.0,M,46.9,M,,*52
$GNRMC,000051.70,A,3348.2426,S,15051.8785,E,090.2,338.5,010126,,*3D
$GNGGA,000051.80,3348.2435,S,15051.8813,E,4,18,0.6,30.0,M,46.9,M,,*5F
$GNRMC,000051.80,A,3348.2435,S,15051.8813,E,090.2,338.5,010126,,*30
$GNGGA,000051.90,3348.2444,S,15051.8841,E,4,18,0.6,30.0,M,46.9,M,,*5F
$GNRMC,000051.90,A,3348.2444,S,15051.8841,E,090.3,338.5,010126,,*31
$GNGGA,000052.00,3348.2453,S,15051.8869,E,4,18,0.6,30.0,M,46.9,M,,*59
$GNRMC,000052.00,A,3348.2453,S,15051.8869,E,090.3,338.5,010126,,*37
$GNGGA,000052.10,3348.2463,S,15051.8897,E,4,18,0.6,30.0,M,46.9,M,,*5A
$GNRMC,000052.10,A,3348.2463,S,15051.8897,E,090.3,338.5,010126,,*34
$GNGGA,000052.20,3348.2472,S,15051.8925,E,4,18,0.6,30.0,M,46.9,M,,*51
$GNRMC,000052.20,A,3348.2472,S,15051.8925,E,090.3,338.5,010126,,*3F
$GNGGA,000052.30,3348.2481,S,15051.8953,E,4,18,0.6,30.0,M,46.9,M,,*5D
$GNRMC,000052.30,A,3348.2481,S,15051.8953,E,090.3,338.5,010126,,*33
$GNGGA,000052.40,3348.2489,S,15051.8982,E,4,18,0.6,30.0,M,46.9,M,,*5E
$GNRMC,000052.40,A,3348.2489,S,15051.8982,E,090.3,340.9,010126,,*33
$GNGGA,000052.50,3348.2497,S,15051.9010,E,4,18,0.6,30.0,M,46.9,M,,*53
$GNRMC,000052.50,A,3348.2497,S,15051.9010,E,090.3,340.9,010126,,*3E
$GNGGA,000052.60,3348.2505,S,15051.9039,E,4,18,0.6,30.0,M,46.9,M,,*51
$GNRMC,000052.60,A,3348.2505,S,15051.9039,E,090.3,340.9,010126,,*3C
$GNGGA,000052.70,3348.2514,S,15051.9067,E,4,18,0.6,30.0,M,46.9,M,,*5B
$GNRMC,000052.70,A,3348.2514,S,15051.9067,E,090.3,340.9,010126,,*36
$GNGGA,000052.80,3348.2522,S,15051.9096,E,4,18,0.6,30.0,M,46.9,M,,*5F
$GNRMC,000052.80,A,3348.2522,S,15051.9096,E,090.3,340.9,010126,,*32
$GNGGA,000052.90,3348.2530,S,15051.9124,E,4,18,0.6,30.0,M,46.9,M,,*55
$GNRMC,000052.90,A,3348.2530,S,15051.9124,E,090.4,340.9,010126,,*3F
$GNGGA,000053.00,3348.2538,S,15051.9153,E,4,18,0.6,30.0,M,46.9,M,,*55
$GNRMC,000053.00,A,3348.2538,S,15051.9153,E,090.4,340.9,010126,,*3F
$GNGGA,000053.10,3348.2546,S,15051.9181,E,4,18,0.6,30.0,M,46.9,M,,*52
$GNRMC,000053.10,A,3348.2546,S,15051.9181,E,090.4,340.9,010126,,*38
$GNGGA,000053.20,3348.2555,S,15051.9210,E,4,18,0.6,30.0,M,46.9,M,,*58
$GNRMC,000053.20,A,3348.2555,S,15051.9210,E,090.4,340.9,010126,,*32
$GNGGA,000053.30,3348.2562,S,15051.9239,E,4,18,0.6,30.0,M,46.9,M,,*56
$GNRMC,000053.30,A,3348.2562,S,15051.9239,E,090.4,343.2,010126,,*34
$GNGGA,000053.40,3348.2570,S,15051.9268,E,4,18,0.6,30.0,M,46.9,M,,*56
$GNRMC,000053.40,A,3348.2570,S,15051.9268,E,090.4,343.2,010126,,*34
$GNGGA,000053.50,3348.2577,S,15051.9296,E,4,18,0.6,30.0,M,46.9,M,,*51
$GNRMC,000053.50,A,3348.2577,S,15051.9296,E,090.4,343.2,010126,,*33
$GNGGA,000053.60,3348.2584,S,15051.9325,E,4,18,0.6,30.0,M,46.9,M,,*57
$GNRMC,000053.60,A,3348.2584,S,15051.9325,E,090.4,343.2,010126,,*35
$GNGGA,000053.70,3348.2591,S,15051.9354,E,4,18,0.6,30.0,M,46.9,M,,*54
$GNRMC,000053.70,A,3348.2591,S,15051.9354,E,090.4,343.2,010126,,*36
$GNGGA,000053.80,3348.2599,S,15051.9383,E,4,18,0.6,30.0,M,46.9,M,,*59
$GNRMC,000053.80,A,3348.2599,S,15051.9383,E,090.4,343.2,010126,,*3B
$GNGGA,000053.90,3348.2606,S,15051.9412,E,4,18,0.6,30.0,M,46.9,M,,*52
$GNRMC,000053.90,A,3348.2606,S,15051.9412,E,090.4,343.2,010126,,*30
$GNGGA,000054.00,3348.2613,S,15051.9441,E,4,18,0.6,30.0,M,46.9,M,,*5E
$GNRMC,000054.00,A,3348.2613,S,15051.9441,E,090.4,343.2,010126,,*3C
$GNGGA,000054.10,3348.2620,S,15051.9470,E,4,18,0.6,30.0,M,46.9,M,,*5D
$GNRMC,000054.10,A,3348.2620,S,15051.9470,E,090.4,343.2,010126,,*3F
$GNGGA,000054.20,3348.2628,S,15051.9499,E,4,18,0.6,30.0,M,46.9,M,,*51
$GNRMC,000054.20,A,3348.2628,S,15051.9499,E,090.4,343.2,010126,,*33
$GNGGA,000054.30,3348.2635,S,15051.9528,E,4,18,0.6,30.0,M,46.9,M,,*57
$GNRMC,000054.30,A,3348.2635,S,15051.9528,E,090.4,345.3,010126,,*32
$GNGGA,000054.40,3348.2641,S,15051.9557,E,4,18,0.6,30.0,M,46.9,M,,*5B
$GNRMC,000054.40,A,3348.2641,S,15051.9557,E,090.4,345.3,010126,,*3E
$GNGGA,000054.50,3348.2647,S,15051.9586,E,4,18,0.6,30.0,M,46.9,M,,*50
$GNRMC,000054.50,A,3348.2647,S,15051.9586,E,090.4,345.3,010126,,*35
$GNGGA,000054.60,3348.2654,S,15051.9615,E,4,18,0.6,30.0,M,46.9,M,,*58
$GNRMC,000054.60,A,3348.2654,S,15051.9615,E,090.4,345.3,010126,,*3D
$GNGGA,000054.70,3348.2660,S,15051.9645,E,4,18,0.6,30.0,M,46.9,M,,*5B
$GNRMC,000054.70,A,3348.2660,S,15051.9645,E,090.4,345.3,010126,,*3E
$GNGGA,000054.80,3348.2666,S,15051.9674,E,4,18,0.6,30.0,M,46.9,M,,*50
$GNRMC,000054.80,A,3348.2666,S,15051.9674,E,090.4,345.3,010126,,*35
$GNGGA,000054.90,3348.2673,S,15051.9703,E,4,18,0.6,30.0,M,46.9,M,,*54
$GNRMC,000054.90,A,3348.2673,S,15051.9703,E,090.4,345.3,010126,,*31
$GNGGA,000055.00,3348.2679,S,15051.9732,E,4,18,0.6,30.0,M,46.9,M,,*54
$GNRMC,000055.00,A,3348.2679,S,15051.9732,E,090.4,345.3,010126,,*31
$GNGGA,000055.10,3348.2685,S,15051.9761,E,4,18,0.6,30.0,M,46.9,M,,*50
$GNRMC,000055.10,A,3348.2685,S,15051.9761,E,090.3,345.3,010126,,*32
$GNGGA,000055.20,3348.2692,S,15051.9791,E,4,18,0.6,30.0,M,46.9,M,,*5A
$GNRMC,000055.20,A,3348.2692,S,15051.9791,E,090.3,345.3,010126,,*38
$GNGGA,000055.30,3348.2698,S,15051.9820,E,4,18,0.6,30.0,M,46.9,M,,*54
$GNRMC,000055.30,A,3348.2698,S,15051.9820,E,090.3,345.3,010126,,*36
$GNGGA,000055.40,3348.2704,S,15051.9849,E,4,18,0.6,30.0,M,46.9,M,,*58
$GNRMC,000055.40,A,3348.2704,S,15051.9849,E,090.3,347.3,010126,,*38
$GNGGA,000055.50,3348.2709,S,15051.9879,E,4,18,0.6,30.0,M,46.9,M,,*57
$GNRMC,000055.50,A,3348.2709,S,15051.9879,E,090.3,347.3,010126,,*37
$GNGGA,000055.60,3348.2715,S,15051.9908,E,4,18,0.6,30.0,M,46.9,M,,*5E
$GNRMC,000055.60,A,3348.2715,S,15051.9908,E,090.3,347.3,010126,,*3E
$GNGGA,000055.70,3348.2720,S,15051.9938,E,4,18,0.6,30.0,M,46.9,M,,*5A
$GNRMC,000055.70,A,3348.2720,S,15051.9938,E,090.3,347.3,010126,,*3A
$GNGGA,000055.80,3348.2726,S,15051.9967,E,4,18,0.6,30.0,M,46.9,M,,*59
$GNRMC,000055.80,A,3348.2726,S,15051.9967,E,090.3,347.3,010126,,*39
$GNGGA,000055.90,3348.2731,S,15051.9996,E,4,18,0.6,30.0,M,46.9,M,,*50
$GNRMC,000055.90,A,3348.2731,S,15051.9996,E,090.3,347.3,010126,,*30
$GNGGA,000056.00,3348.2737,S,15052.0026,E,4,18,0.6,30.0,M,46.9,M,,*54
$GNRMC,000056.00,A,3348.2737,S,15052.0026,E,090.2,347.3,010126,,*35
$GNGGA,000056.10,3348.2742,S,15052.0055,E,4,18,0.6,30.0,M,46.9,M,,*53
$GNRMC,000056.10,A,3348.2742,S,15052.0055,E,090.2,347.3,010126,,*32
$GNGGA,000056.20,3348.2748,S,15052.0085,E,4,18,0.6,30.0,M,46.9,M,,*57
$GNRMC,000056.20,A,3348.2748,S,15052.0085,E,090.2,347.3,010126,,*36
$GNGGA,000056.30,3348.2753,S,15052.0114,E,4,18,0.6,30.0,M,46.9,M,,*55
$GNRMC,000056.30,A,3348.2753,S,15052.0114,E,090.2,347.3,010126,,*34
$GNGGA,000056.40,3348.2758,S,15052.0143,E,4,18,0.6,30.0,M,46.9,M,,*5B
$GNRMC,000056.40,A,3348.2758,S,15052.0143,E,090.2,349.2,010126,,*35
$GNGGA,000056.50,3348.2763,S,15052.0173,E,4,18,0.6,30.0,M,46.9,M,,*51
$GNRMC,000056.50,A,3348.2763,S,15052.0173,E,090.2,349.2,010126,,*3F
$GNGGA,000056.60,3348.2768,S,15052.0203,E,4,18,0.6,30.0,M,46.9,M,,*5D
$GNRMC,000056.60,A,3348.2768,S,15052.0203,E,090.2,349.2,010126,,*33
$GNGGA,000056.70,3348.2773,S,15052.0232,E,4,18,0.6,30.0,M,46.9,M,,*54
$GNRMC,000056.70,A,3348.2773,S,15052.0232,E,090.1,349.2,010126,,*39
$GNGGA,000056.80,3348.2777,S,15052.0262,E,4,18,0.6,30.0,M,46.9,M,,*5A
$GNRMC,000056.80,A,3348.2777,S,15052.0262,E,090.1,349.2,010126,,*37
$GNGGA,000056.90,3348.2782,S,15052.0291,E,4,18,0.6,30.0,M,46.9,M,,*5D
$GNRMC,000056.90,A,3348.2782,S,15052.0291,E,090.1,349.2,010126,,*30
$GNGGA,000057.00,3348.2787,S,15052.0321,E,4,18,0.6,30.0,M,46.9,M,,*5A
$GNRMC,000057.00,A,3348.2787,S,15052.0321,E,090.1,349.2,010126,,*37
$GNGGA,000057.10,3348.2791,S,15052.0351,E,4,18,0.6,30.0,M,46.9,M,,*5B
$GNRMC,000057.10,A,3348.2791,S,15052.0351,E,090.1,349.2,010126,,*36
$GNGGA,000057.20,3348.2796,S,15052.0380,E,4,18,0.6,30.0,M,46.9,M,,*53
$GNRMC,000057.20,A,3348.2796,S,15052.0380,E,090.0,349.2,010126,,*3F
$GNGGA,000057.30,3348.2801,S,15052.0410,E,4,18,0.6,30.0,M,46.9,M,,*5D
$GNRMC,000057.30,A,3348.2801,S,15052.0410,E,090.0,349.2,010126,,*31
$GNGGA,000057.40,3348.2805,S,15052.0439,E,4,18,0.6,30.0,M,46.9,M,,*55
$GNRMC,000057.40,A,3348.2805,S,15052.0439,E,090.0,349.2,010126,,*39
$GNGGA,000057.50,3348.2810,S,15052.0469,E,4,18,0.6,30.0,M,46.9,M,,*55
$GNRMC,000057.50,A,3348.2810,S,15052.0469,E,090.0,351.0,010126,,*32
$GNGGA,000057.60,3348.2814,S,15052.0498,E,4,18,0.6,30.0,M,46.9,M,,*5C
$GNRMC,000057.60,A,3348.2814,S,15052.0498,E,090.0,351.0,010126,,*3B
$GNGGA,000057.70,3348.2818,S,15052.0528,E,4,18,0.6,30.0,M,46.9,M,,*5B
$GNRMC,000057.70,A,3348.2818,S,15052.0528,E,089.9,351.0,010126,,*3D
$GNGGA,000057.80,3348.2821,S,15052.0558,E,4,18,0.6,30.0,M,46.9,M,,*59
$GNRMC,000057.80,A,3348.2821,S,15052.0558,E,089.9,351.0,010126,,*3F
$GNGGA,000057.90,3348.2825,S,15052.0587,E,4,18,0.6,30.0,M,46.9,M,,*5E
$GNRMC,000057.90,A,3348.2825,S,15052.0587,E,089.9,351.0,010126,,*38
$GNGGA,000058.00,3348.2829,S,15052.0617,E,4,18,0.6,30.0,M,46.9,M,,*5E
$GNRMC,000058.00,A,3348.2829,S,15052.0617,E,089.9,351.0,010126,,*38
$GNGGA,000058.10,3348.2833,S,15052.0647,E,4,18,0.6,30.0,M,46.9,M,,*51
$GNRMC,000058.10,A,3348.2833,S,15052.0647,E,089.8,351.0,010126,,*36
$GNGGA,000058.20,3348.2837,S,15052.0676,E,4,18,0.6,30.0,M,46.9,M,,*54
$GNRMC,000058.20,A,3348.2837,S,15052.0676,E,089.8,351.0,010126,,*33
$GNGGA,000058.30,3348.2841,S,15052.0706,E,4,18,0.6,30.0,M,46.9,M,,*52
$GNRMC,000058.30,A,3348.2841,S,15052.0706,E,089.8,351.0,010126,,*35
$GNGGA,000058.40,3348.2845,S,15052.0736,E,4,18,0.6,30.0,M,46.9,M,,*52
$GNRMC,000058.40,A,3348.2845,S,15052.0736,E,089.8,351.0,010126,,*35
$GNGGA,000058.50,3348.2849,S,15052.0765,E,4,18,0.6,30.0,M,46.9,M,,*59
$GNRMC,000058.50,A,3348.2849,S,15052.0765,E,089.7,351.0,010126,,*31
$GNGGA,000058.60,3348.2853,S,15052.0795,E,4,18,0.6,30.0,M,46.9,M,,*5E
$GNRMC,000058.60,A,3348.2853,S,15052.0795,E,089.7,352.7,010126,,*32
$GNGGA,000058.70,3348.2856,S,15052.0825,E,4,18,0.6,30.0,M,46.9,M,,*5E
$GNRMC,000058.70,A,3348.2856,S,15052.0825,E,089.7,352.7,010126,,*32
$GNGGA,000058.80,3348.2859,S,15052.0854,E,4,18,0.6,30.0,M,46.9,M,,*58
$GNRMC,000058.80,A,3348.2859,S,15052.0854,E,089.6,352.7,010126,,*35
$GNGGA,000058.90,3348.2862,S,15052.0884,E,4,18,0.6,30.0,M,46.9,M,,*5C
$GNRMC,000058.90,A,3348.2862,S,15052.0884,E,089.6,352.7,010126,,*31
$GNGGA,000059.00,3348.2865,S,15052.0914,E,4,18,0.6,30.0,M,46.9,M,,*5B
$GNRMC,000059.00,A,3348.2865,S,15052.0914,E,089.6,352.7,010126,,*36
$GNGGA,000059.10,3348.2868,S,15052.0943,E,4,18,0.6,30.0,M,46.9,M,,*55
$GNRMC,000059.10,A,3348.2868,S,15052.0943,E,089.6,352.7,010126,,*38
$GNGGA,000059.20,3348.2872,S,15052.0973,E,4,18,0.6,30.0,M,46.9,M,,*5E
$GNRMC,000059.20,A,3348.2872,S,15052.0973,E,089.5,352.7,010126,,*30
$GNGGA,000059.30,3348.2875,S,15052.1003,E,4,18,0.6,30.0,M,46.9,M,,*57
$GNRMC,000059.30,A,3348.2875,S,15052.1003,E,089.5,352.7,010126,,*39
$GNGGA,000059.40,3348.2878,S,15052.1032,E,4,18,0.6,30.0,M,46.9,M,,*5F
$GNRMC,000059.40,A,3348.2878,S,15052.1032,E,089.5,352.7,010126,,*31
$GNGGA,000059.50,3348.2881,S,15052.1062,E,4,18,0.6,30.0,M,46.9,M,,*5D
$GNRMC,000059.50,A,3348.2881,S,15052.1062,E,089.4,352.7,010126,,*32
$GNGGA,000059.60,3348.2884,S,15052.1092,E,4,18,0.6,30.0,M,46.9,M,,*54
$GNRMC,000059.60,A,3348.2884,S,15052.1092,E,089.4,352.7,010126,,*3B
$GNGGA,000059.70,3348.2887,S,15052.1121,E,4,18,0.6,30.0,M,46.9,M,,*5F
$GNRMC,000059.70,A,3348.2887,S,15052.1121,E,089.4,352.7,010126,,*30
$GNGGA,000059.80,3348.2890,S,15052.1151,E,4,18,0.6,30.0,M,46.9,M,,*51
$GNRMC,000059.80,A,3348.2890,S,15052.1151,E,089.3,354.4,010126,,*3C
$GNGGA,000059.90,3348.2892,S,15052.1181,E,4,18,0.6,30.0,M,46.9,M,,*5F
$GNRMC,000059.90,A,3348.2892,S,15052.1181,E,089.3,354.4,010126,,*32
