$GNGGA,000000.00,3348.0504,S,15052.7748,E,4,18,0.6,30.0,M,46.9,M,,*5F
$GNRMC,000000.00,A,3348.0504,S,15052.7748,E,110.6,125.8,010126,,*3E
$GNGGA,000000.10,3348.0479,S,15052.7726,E,4,18,0.6,30.0,M,46.9,M,,*5D
$GNRMC,000000.10,A,3348.0479,S,15052.7726,E,110.7,125.8,010126,,*3D
$GNGGA,000000.20,3348.0454,S,15052.7705,E,4,18,0.6,30.0,M,46.9,M,,*50
$GNRMC,000000.20,A,3348.0454,S,15052.7705,E,110.7,125.8,010126,,*30
$GNGGA,000000.30,3348.0430,S,15052.7682,E,4,18,0.6,30.0,M,46.9,M,,*5D
$GNRMC,000000.30,A,3348.0430,S,15052.7682,E,110.8,131.8,010126,,*37
$GNGGA,000000.40,3348.0407,S,15052.7657,E,4,18,0.6,30.0,M,46.9,M,,*56
$GNRMC,000000.40,A,3348.0407,S,15052.7657,E,110.8,131.8,010126,,*3C
$GNGGA,000000.50,3348.0384,S,15052.7633,E,4,18,0.6,30.0,M,46.9,M,,*59
$GNRMC,000000.50,A,3348.0384,S,15052.7633,E,110.9,131.8,010126,,*32
$GNGGA,000000.60,3348.0361,S,15052.7608,E,4,18,0.6,30.0,M,46.9,M,,*59
$GNRMC,000000.60,A,3348.0361,S,15052.7608,E,111.0,131.8,010126,,*3A
$GNGGA,000000.70,3348.0338,S,15052.7583,E,4,18,0.6,30.0,M,46.9,M,,*54
$GNRMC,000000.70,A,3348.0338,S,15052.7583,E,111.0,131.8,010126,,*37
$GNGGA,000000.80,3348.0316,S,15052.7558,E,4,18,0.6,30.0,M,46.9,M,,*51
$GNRMC,000000.80,A,3348.0316,S,15052.7558,E,111.1,137.1,010126,,*3C
$GNGGA,000000.90,3348.0295,S,15052.7531,E,4,18,0.6,30.0,M,46.9,M,,*55
$GNRMC,000000.90,A,3348.0295,S,15052.7531,E,111.2,137.1,010126,,*3B
$GNGGA,000001.00,3348.0274,S,15052.7504,E,4,18,0.6,30.0,M,46.9,M,,*54
$GNRMC,000001.00,A,3348.0274,S,15052.7504,E,111.2,137.1,010126,,*3A
$GNGGA,000001.10,3348.0253,S,15052.7476,E,4,18,0.6,30.0,M,46.9,M,,*54
$GNRMC,000001.10,A,3348.0253,S,15052.7476,E,111.3,137.1,010126,,*3B
$GNGGA,000001.20,3348.0232,S,15052.7449,E,4,18,0.6,30.0,M,46.9,M,,*5C
$GNRMC,000001.20,A,3348.0232,S,15052.7449,E,111.4,137.1,010126,,*34
$GNGGA,000001.30,3348.0211,S,15052.7422,E,4,18,0.6,30.0,M,46.9,M,,*51
$GNRMC,000001.30,A,3348.0211,S,15052.7422,E,111.4,137.1,010126,,*39
$GNGGA,000001.40,3348.0191,S,15052.7393,E,4,18,0.6,30.0,M,46.9,M,,*50
$GNRMC,000001.40,A,3348.0191,S,15052.7393,E,111.5,141.8,010126,,*31
$GNGGA,000001.50,3348.0172,S,15052.7364,E,4,18,0.6,30.0,M,46.9,M,,*54
$GNRMC,000001.50,A,3348.0172,S,15052.7364,E,111.5,141.8,010126,,*35
$GNGGA,000001.60,3348.0153,S,15052.7334,E,4,18,0.6,30.0,M,46.9,M,,*51
$GNRMC,000001.60,A,3348.0153,S,15052.7334,E,111.6,141.8,010126,,*33
$GNGGA,000001.70,3348.0134,S,15052.7305,E,4,18,0.6,30.0,M,46.9,M,,*53
$GNRMC,000001.70,A,3348.0134,S,15052.7305,E,111.6,141.8,010126,,*31
$GNGGA,000001.80,3348.0115,S,15052.7276,E,4,18,0.6,30.0,M,46.9,M,,*5A
$GNRMC,000001.80,A,3348.0115,S,15052.7276,E,111.7,141.8,010126,,*39
$GNGGA,000001.90,3348.0096,S,15052.7246,E,4,18,0.6,30.0,M,46.9,M,,*52
$GNRMC,000001.90,A,3348.0096,S,15052.7246,E,111.8,145.9,010126,,*3B
$GNGGA,000002.00,3348.0078,S,15052.7215,E,4,18,0.6,30.0,M,46.9,M,,*5E
$GNRMC,000002.00,A,3348.0078,S,15052.7215,E,111.8,145.9,010126,,*37
$GNGGA,000002.10,3348.0061,S,15052.7184,E,4,18,0.6,30.0,M,46.9,M,,*5C
$GNRMC,000002.10,A,3348.0061,S,15052.7184,E,111.9,145.9,010126,,*34
$GNGGA,000002.20,3348.0044,S,15052.7153,E,4,18,0.6,30.0,M,46.9,M,,*52
$GNRMC,000002.20,A,3348.0044,S,15052.7153,E,111.9,145.9,010126,,*3A
$GNGGA,000002.30,3348.0026,S,15052.7122,E,4,18,0.6,30.0,M,46.9,M,,*51
$GNRMC,000002.30,A,3348.0026,S,15052.7122,E,112.0,145.9,010126,,*33
$GNGGA,000002.40,3348.0009,S,15052.7091,E,4,18,0.6,30.0,M,46.9,M,,*52
$GNRMC,000002.40,A,3348.0009,S,15052.7091,E,112.0,145.9,010126,,*30
$GNGGA,000002.50,3347.9991,S,15052.7060,E,4,18,0.6,30.0,M,46.9,M,,*53
$GNRMC,000002.50,A,3347.9991,S,15052.7060,E,112.1,149.6,010126,,*33
$GNGGA,000002.60,3347.9976,S,15052.7028,E,4,18,0.6,30.0,M,46.9,M,,*55
$GNRMC,000002.60,A,3347.9976,S,15052.7028,E,112.1,149.6,010126,,*35
$GNGGA,000002.70,3347.9960,S,15052.6996,E,4,18,0.6,30.0,M,46.9,M,,*5E
$GNRMC,000002.70,A,3347.9960,S,15052.6996,E,112.2,149.6,010126,,*3D
$GNGGA,000002.80,3347.9944,S,15052.6963,E,4,18,0.6,30.0,M,46.9,M,,*5D
$GNRMC,000002.80,A,3347.9944,S,15052.6963,E,112.2,149.6,010126,,*3E
$GNGGA,000002.90,3347.9928,S,15052.6931,E,4,18,0.6,30.0,M,46.9,M,,*51
$GNRMC,000002.90,A,3347.9928,S,15052.6931,E,112.3,149.6,010126,,*33
$GNGGA,000003.00,3347.9913,S,15052.6899,E,4,18,0.6,30.0,M,46.9,M,,*52
$GNRMC,000003.00,A,3347.9913,S,15052.6899,E,112.3,149.6,010126,,*30
$GNGGA,000003.10,3347.9897,S,15052.6866,E,4,18,0.6,30.0,M,46.9,M,,*5E
$GNRMC,000003.10,A,3347.9897,S,15052.6866,E,112.3,149.6,010126,,*3C
$GNGGA,000003.20,3347.9882,S,15052.6833,E,4,18,0.6,30.0,M,46.9,M,,*59
$GNRMC,000003.20,A,3347.9882,S,15052.6833,E,112.4,152.8,010126,,*38
$GNGGA,000003.30,3347.9868,S,15052.6800,E,4,18,0.6,30.0,M,46.9,M,,*5C
$GNRMC,000003.30,A,3347.9868,S,15052.6800,E,112.4,152.8,010126,,*3D
$GNGGA,000003.40,3347.9853,S,15052.6767,E,4,18,0.6,30.0,M,46.9,M,,*5D
$GNRMC,000003.40,A,3347.9853,S,15052.6767,E,112.5,152.8,010126,,*3D
$GNGGA,000003.50,3347.9839,S,15052.6733,E,4,18,0.6,30.0,M,46.9,M,,*51
$GNRMC,000003.50,A,3347.9839,S,15052.6733,E,112.5,152.8,010126,,*31
$GNGGA,000003.60,3347.9825,S,15052.6700,E,4,18,0.6,30.0,M,46.9,M,,*5F
$GNRMC,000003.60,A,3347.9825,S,15052.6700,E,112.6,152.8,010126,,*3C
$GNGGA,000003.70,3347.9811,S,15052.6666,E,4,18,0.6,30.0,M,46.9,M,,*58
$GNRMC,000003.70,A,3347.9811,S,15052.6666,E,112.6,152.8,010126,,*3B
$GNGGA,000003.80,3347.9796,S,15052.6633,E,4,18,0.6,30.0,M,46.9,M,,*57
$GNRMC,000003.80,A,3347.9796,S,15052.6633,E,112.6,152.8,010126,,*34
$GNGGA,000003.90,3347.9783,S,15052.6599,E,4,18,0.6,30.0,M,46.9,M,,*51
$GNRMC,000003.90,A,3347.9783,S,15052.6599,E,112.7,155.8,010126,,*34
$GNGGA,000004.00,3347.9771,S,15052.6564,E,4,18,0.6,30.0,M,46.9,M,,*50
$GNRMC,000004.00,A,3347.9771,S,15052.6564,E,112.7,155.8,010126,,*35
$GNGGA,000004.10,3347.9758,S,15052.6530,E,4,18,0.6,30.0,M,46.9,M,,*5B
$GNRMC,000004.10,A,3347.9758,S,15052.6530,E,112.7,155.8,010126,,*3E
$GNGGA,000004.20,3347.9745,S,15052.6496,E,4,18,0.6,30.0,M,46.9,M,,*59
$GNRMC,000004.20,A,3347.9745,S,15052.6496,E,112.8,155.8,010126,,*33
$GNGGA,000004.30,3347.9732,S,15052.6461,E,4,18,0.6,30.0,M,46.9,M,,*50
$GNRMC,000004.30,A,3347.9732,S,15052.6461,E,112.8,155.8,010126,,*3A
$GNGGA,000004.40,3347.9719,S,15052.6427,E,4,18,0.6,30.0,M,46.9,M,,*5C
$GNRMC,000004.40,A,3347.9719,S,15052.6427,E,112.8,155.8,010126,,*36
$GNGGA,000004.50,3347.9706,S,15052.6392,E,4,18,0.6,30.0,M,46.9,M,,*5A
$GNRMC,000004.50,A,3347.9706,S,15052.6392,E,112.8,155.8,010126,,*30
$GNGGA,000004.60,3347.9695,S,15052.6358,E,4,18,0.6,30.0,M,46.9,M,,*54
$GNRMC,000004.60,A,3347.9695,S,15052.6358,E,112.9,158.5,010126,,*3F
$GNGGA,000004.70,3347.9683,S,15052.6322,E,4,18,0.6,30.0,M,46.9,M,,*5F
$GNRMC,000004.70,A,3347.9683,S,15052.6322,E,112.9,158.5,010126,,*34
$GNGGA,000004.80,3347.9672,S,15052.6287,E,4,18,0.6,30.0,M,46.9,M,,*50
$GNRMC,000004.80,A,3347.9672,S,15052.6287,E,112.9,158.5,010126,,*3B
$GNGGA,000004.90,3347.9660,S,15052.6252,E,4,18,0.6,30.0,M,46.9,M,,*5A
$GNRMC,000004.90,A,3347.9660,S,15052.6252,E,112.9,158.5,010126,,*31
$GNGGA,000005.00,3347.9649,S,15052.6217,E,4,18,0.6,30.0,M,46.9,M,,*58
$GNRMC,000005.00,A,3347.9649,S,15052.6217,E,113.0,158.5,010126,,*3B
$GNGGA,000005.10,3347.9637,S,15052.6182,E,4,18,0.6,30.0,M,46.9,M,,*5F
$GNRMC,000005.10,A,3347.9637,S,15052.6182,E,113.0,158.5,010126,,*3C
$GNGGA,000005.20,3347.9626,S,15052.6147,E,4,18,0.6,30.0,M,46.9,M,,*55
$GNRMC,000005.20,A,3347.9626,S,15052.6147,E,113.0,158.5,010126,,*36
$GNGGA,000005.30,3347.9615,S,15052.6112,E,4,18,0.6,30.0,M,46.9,M,,*54
$GNRMC,000005.30,A,3347.9615,S,15052.6112,E,113.0,160.9,010126,,*30
$GNGGA,000005.40,3347.9605,S,15052.6076,E,4,18,0.6,30.0,M,46.9,M,,*51
$GNRMC,000005.40,A,3347.9605,S,15052.6076,E,113.0,160.9,010126,,*35
$GNGGA,000005.50,3347.9594,S,15052.6040,E,4,18,0.6,30.0,M,46.9,M,,*5E
$GNRMC,000005.50,A,3347.9594,S,15052.6040,E,113.1,160.9,010126,,*3B
$GNGGA,000005.60,3347.9584,S,15052.6005,E,4,18,0.6,30.0,M,46.9,M,,*5D
$GNRMC,000005.60,A,3347.9584,S,15052.6005,E,113.1,160.9,010126,,*38
$GNGGA,000005.70,3347.9574,S,15052.5969,E,4,18,0.6,30.0,M,46.9,M,,*53
$GNRMC,000005.70,A,3347.9574,S,15052.5969,E,113.1,160.9,010126,,*36
$GNGGA,000005.80,3347.9564,S,15052.5933,E,4,18,0.6,30.0,M,46.9,M,,*52
$GNRMC,000005.80,A,3347.9564,S,15052.5933,E,113.1,160.9,010126,,*37
$GNGGA,000005.90,3347.9553,S,15052.5897,E,4,18,0.6,30.0,M,46.9,M,,*58
$GNRMC,000005.90,A,3347.9553,S,15052.5897,E,113.1,160.9,010126,,*3D
$GNGGA,000006.00,3347.9543,S,15052.5862,E,4,18,0.6,30.0,M,46.9,M,,*59
$GNRMC,000006.00,A,3347.9543,S,15052.5862,E,113.1,160.9,010126,,*3C
$GNGGA,000006.10,3347.9534,S,15052.5826,E,4,18,0.6,30.0,M,46.9,M,,*58
$GNRMC,000006.10,A,3347.9534,S,15052.5826,E,113.1,163.2,010126,,*35
$GNGGA,000006.20,3347.9525,S,15052.5789,E,4,18,0.6,30.0,M,46.9,M,,*51
$GNRMC,000006.20,A,3347.9525,S,15052.5789,E,113.1,163.2,010126,,*3C
$GNGGA,000006.30,3347.9515,S,15052.5753,E,4,18,0.6,30.0,M,46.9,M,,*54
$GNRMC,000006.30,A,3347.9515,S,15052.5753,E,113.1,163.2,010126,,*39
$GNGGA,000006.40,3347.9506,S,15052.5717,E,4,18,0.6,30.0,M,46.9,M,,*51
$GNRMC,000006.40,A,3347.9506,S,15052.5717,E,113.1,163.2,010126,,*3C
$GNGGA,000006.50,3347.9497,S,15052.5681,E,4,18,0.6,30.0,M,46.9,M,,*57
$GNRMC,000006.50,A,3347.9497,S,15052.5681,E,113.1,163.2,010126,,*3A
$GNGGA,000006.60,3347.9488,S,15052.5645,E,4,18,0.6,30.0,M,46.9,M,,*52
$GNRMC,000006.60,A,3347.9488,S,15052.5645,E,113.1,163.2,010126,,*3F
$GNGGA,000006.70,3347.9479,S,15052.5609,E,4,18,0.6,30.0,M,46.9,M,,*55
$GNRMC,000006.70,A,3347.9479,S,15052.5609,E,113.1,163.2,010126,,*38
$GNGGA,000006.80,3347.9470,S,15052.5572,E,4,18,0.6,30.0,M,46.9,M,,*5C
$GNRMC,000006.80,A,3347.9470,S,15052.5572,E,113.1,163.2,010126,,*31
$GNGGA,000006.90,3347.9462,S,15052.5536,E,4,18,0.6,30.0,M,46.9,M,,*5E
$GNRMC,000006.90,A,3347.9462,S,15052.5536,E,113.1,165.3,010126,,*34
$GNGGA,000007.00,3347.9454,S,15052.5499,E,4,18,0.6,30.0,M,46.9,M,,*57
$GNRMC,000007.00,A,3347.9454,S,15052.5499,E,113.1,165.3,010126,,*3D
$GNGGA,000007.10,3347.9446,S,15052.5463,E,4,18,0.6,30.0,M,46.9,M,,*50
$GNRMC,000007.10,A,3347.9446,S,15052.5463,E,113.1,165.3,010126,,*3A
$GNGGA,000007.20,3347.9438,S,15052.5426,E,4,18,0.6,30.0,M,46.9,M,,*5B
$GNRMC,000007.20,A,3347.9438,S,15052.5426,E,113.1,165.3,010126,,*31
$GNGGA,000007.30,3347.9430,S,15052.5390,E,4,18,0.6,30.0,M,46.9,M,,*58
$GNRMC,000007.30,A,3347.9430,S,15052.5390,E,113.1,165.3,010126,,*32
$GNGGA,000007.40,3347.9422,S,15052.5353,E,4,18,0.6,30.0,M,46.9,M,,*53
$GNRMC,000007.40,A,3347.9422,S,15052.5353,E,113.1,165.3,010126,,*39
$GNGGA,000007.50,3347.9414,S,15052.5317,E,4,18,0.6,30.0,M,46.9,M,,*57
$GNRMC,000007.50,A,3347.9414,S,15052.5317,E,113.1,165.3,010126,,*3D
$GNGGA,000007.60,3347.9406,S,15052.5280,E,4,18,0.6,30.0,M,46.9,M,,*58
$GNRMC,000007.60,A,3347.9406,S,15052.5280,E,113.1,165.3,010126,,*32
$GNGGA,000007.70,3347.9399,S,15052.5243,E,4,18,0.6,30.0,M,46.9,M,,*57
$GNRMC,000007.70,A,3347.9399,S,15052.5243,E,113.0,167.3,010126,,*3E
$GNGGA,000007.80,3347.9392,S,15052.5207,E,4,18,0.6,30.0,M,46.9,M,,*53
$GNRMC,000007.80,A,3347.9392,S,15052.5207,E,113.0,167.3,010126,,*3A
$GNGGA,000007.90,3347.9385,S,15052.5170,E,4,18,0.6,30.0,M,46.9,M,,*57
$GNRMC,000007.90,A,3347.9385,S,15052.5170,E,113.0,167.3,010126,,*3E
$GNGGA,000008.00,3347.9378,S,15052.5133,E,4,18,0.6,30.0,M,46.9,M,,*54
$GNRMC,000008.00,A,3347.9378,S,15052.5133,E,113.0,167.3,010126,,*3D
$GNGGA,000008.10,3347.9371,S,15052.5096,E,4,18,0.6,30.0,M,46.9,M,,*52
$GNRMC,000008.10,A,3347.9371,S,15052.5096,E,113.0,167.3,010126,,*3B
$GNGGA,000008.20,3347.9364,S,15052.5059,E,4,18,0.6,30.0,M,46.9,M,,*56
$GNRMC,000008.20,A,3347.9364,S,15052.5059,E,112.9,167.3,010126,,*37
$GNGGA,000008.30,3347.9357,S,15052.5022,E,4,18,0.6,30.0,M,46.9,M,,*5B
$GNRMC,000008.30,A,3347.9357,S,15052.5022,E,112.9,167.3,010126,,*3A
$GNGGA,000008.40,3347.9350,S,15052.4986,E,4,18,0.6,30.0,M,46.9,M,,*5D
$GNRMC,000008.40,A,3347.9350,S,15052.4986,E,112.9,167.3,010126,,*3C
$GNGGA,000008.50,3347.9344,S,15052.4949,E,4,18,0.6,30.0,M,46.9,M,,*5A
$GNRMC,000008.50,A,3347.9344,S,15052.4949,E,112.9,167.3,010126,,*3B
$GNGGA,000008.60,3347.9338,S,15052.4912,E,4,18,0.6,30.0,M,46.9,M,,*5C
$GNRMC,000008.60,A,3347.9338,S,15052.4912,E,112.8,169.2,010126,,*33
$GNGGA,000008.70,3347.9332,S,15052.4875,E,4,18,0.6,30.0,M,46.9,M,,*57
$GNRMC,000008.70,A,3347.9332,S,15052.4875,E,112.8,169.2,010126,,*38
$GNGGA,000008.80,3347.9326,S,15052.4838,E,4,18,0.6,30.0,M,46.9,M,,*54
$GNRMC,000008.80,A,3347.9326,S,15052.4838,E,112.8,169.2,010126,,*3B
$GNGGA,000008.90,3347.9320,S,15052.4801,E,4,18,0.6,30.0,M,46.9,M,,*59
$GNRMC,000008.90,A,3347.9320,S,15052.4801,E,112.8,169.2,010126,,*36
$GNGGA,000009.00,3347.9314,S,15052.4764,E,4,18,0.6,30.0,M,46.9,M,,*5A
$GNRMC,000009.00,A,3347.9314,S,15052.4764,E,112.7,169.2,010126,,*3A
$GNGGA,000009.10,3347.9308,S,15052.4727,E,4,18,0.6,30.0,M,46.9,M,,*51
$GNRMC,000009.10,A,3347.9308,S,15052.4727,E,112.7,169.2,010126,,*31
$GNGGA,000009.20,3347.9302,S,15052.4690,E,4,18,0.6,30.0,M,46.9,M,,*55
$GNRMC,000009.20,A,3347.9302,S,15052.4690,E,112.7,169.2,010126,,*35
$GNGGA,000009.30,3347.9297,S,15052.4653,E,4,18,0.6,30.0,M,46.9,M,,*56
$GNRMC,000009.30,A,3347.9297,S,15052.4653,E,112.6,169.2,010126,,*37
$GNGGA,000009.40,3347.9291,S,15052.4616,E,4,18,0.6,30.0,M,46.9,M,,*56
$GNRMC,000009.40,A,3347.9291,S,15052.4616,E,112.6,171.0,010126,,*3C
$GNGGA,000009.50,3347.9286,S,15052.4579,E,4,18,0.6,30.0,M,46.9,M,,*5B
$GNRMC,000009.50,A,3347.9286,S,15052.4579,E,112.6,171.0,010126,,*31
$GNGGA,000009.60,3347.9281,S,15052.4542,E,4,18,0.6,30.0,M,46.9,M,,*57
$GNRMC,000009.60,A,3347.9281,S,15052.4542,E,112.5,171.0,010126,,*3E
$GNGGA,000009.70,3347.9276,S,15052.4504,E,4,18,0.6,30.0,M,46.9,M,,*5C
$GNRMC,000009.70,A,3347.9276,S,15052.4504,E,112.5,171.0,010126,,*35
$GNGGA,000009.80,3347.9271,S,15052.4467,E,4,18,0.6,30.0,M,46.9,M,,*50
$GNRMC,000009.80,A,3347.9271,S,15052.4467,E,112.4,171.0,010126,,*38
$GNGGA,000009.90,3347.9266,S,15052.4430,E,4,18,0.6,30.0,M,46.9,M,,*55
$GNRMC,000009.90,A,3347.9266,S,15052.4430,E,112.4,171.0,010126,,*3D
$GNGGA,000010.00,3347.9262,S,15052.4393,E,4,18,0.6,30.0,M,46.9,M,,*5E
$GNRMC,000010.00,A,3347.9262,S,15052.4393,E,112.3,171.0,010126,,*31
$GNGGA,000010.10,3347.9257,S,15052.4356,E,4,18,0.6,30.0,M,46.9,M,,*50
$GNRMC,000010.10,A,3347.9257,S,15052.4356,E,112.3,171.0,010126,,*3F
$GNGGA,000010.20,3347.9252,S,15052.4319,E,4,18,0.6,30.0,M,46.9,M,,*5D
$GNRMC,000010.20,A,3347.9252,S,15052.4319,E,112.3,171.0,010126,,*32
$GNGGA,000010.30,3347.9247,S,15052.4282,E,4,18,0.6,30.0,M,46.9,M,,*5B
$GNRMC,000010.30,A,3347.9247,S,15052.4282,E,112.2,172.7,010126,,*31
$GNGGA,000010.40,3347.9243,S,15052.4245,E,4,18,0.6,30.0,M,46.9,M,,*53
$GNRMC,000010.40,A,3347.9243,S,15052.4245,E,112.2,172.7,010126,,*39
$GNGGA,000010.50,3347.9239,S,15052.4208,E,4,18,0.6,30.0,M,46.9,M,,*56
$GNRMC,000010.50,A,3347.9239,S,15052.4208,E,112.1,172.7,010126,,*3F
$GNGGA,000010.60,3347.9235,S,15052.4170,E,4,18,0.6,30.0,M,46.9,M,,*55
$GNRMC,000010.60,A,3347.9235,S,15052.4170,E,112.1,172.7,010126,,*3C
$GNGGA,000010.70,3347.9231,S,15052.4133,E,4,18,0.6,30.0,M,46.9,M,,*57
$GNRMC,000010.70,A,3347.9231,S,15052.4133,E,112.0,172.7,010126,,*3F
$GNGGA,000010.80,3347.9227,S,15052.4096,E,4,18,0.6,30.0,M,46.9,M,,*51
$GNRMC,000010.80,A,3347.9227,S,15052.4096,E,112.0,172.7,010126,,*39
$GNGGA,000010.90,3347.9223,S,15052.4059,E,4,18,0.6,30.0,M,46.9,M,,*57
$GNRMC,000010.90,A,3347.9223,S,15052.4059,E,111.9,172.7,010126,,*35
$GNGGA,000011.00,3347.9219,S,15052.4022,E,4,18,0.6,30.0,M,46.9,M,,*5A
$GNRMC,000011.00,A,3347.9219,S,15052.4022,E,111.9,172.7,010126,,*38
$GNGGA,000011.10,3347.9216,S,15052.3985,E,4,18,0.6,30.0,M,46.9,M,,*57
$GNRMC,000011.10,A,3347.9216,S,15052.3985,E,111.8,172.7,010126,,*34
$GNGGA,000011.20,3347.9212,S,15052.3948,E,4,18,0.6,30.0,M,46.9,M,,*51
$GNRMC,000011.20,A,3347.9212,S,15052.3948,E,111.8,172.7,010126,,*32
$GNGGA,000011.30,3347.9209,S,15052.3911,E,4,18,0.6,30.0,M,46.9,M,,*56
$GNRMC,000011.30,A,3347.9209,S,15052.3911,E,111.7,174.4,010126,,*3F
$GNGGA,000011.40,3347.9206,S,15052.3874,E,4,18,0.6,30.0,M,46.9,M,,*5C
$GNRMC,000011.40,A,3347.9206,S,15052.3874,E,111.6,174.4,010126,,*34
$GNGGA,000011.50,3347.9203,S,15052.3837,E,4,18,0.6,30.0,M,46.9,M,,*5F
$GNRMC,000011.50,A,3347.9203,S,15052.3837,E,111.6,174.4,010126,,*37
$GNGGA,000011.60,3347.9199,S,15052.3799,E,4,18,0.6,30.0,M,46.9,M,,*57
$GNRMC,000011.60,A,3347.9199,S,15052.3799,E,111.5,174.4,010126,,*3C
$GNGGA,000011.70,3347.9196,S,15052.3762,E,4,18,0.6,30.0,M,46.9,M,,*5D
$GNRMC,000011.70,A,3347.9196,S,15052.3762,E,111.5,174.4,010126,,*36
$GNGGA,000011.80,3347.9193,S,15052.3725,E,4,18,0.6,30.0,M,46.9,M,,*54
$GNRMC,000011.80,A,3347.9193,S,15052.3725,E,111.4,174.4,010126,,*3E
$GNGGA,000011.90,3347.9190,S,15052.3688,E,4,18,0.6,30.0,M,46.9,M,,*50
$GNRMC,000011.90,A,3347.9190,S,15052.3688,E,111.3,174.4,010126,,*3D
$GNGGA,000012.00,3347.9187,S,15052.3651,E,4,18,0.6,30.0,M,46.9,M,,*58
$GNRMC,000012.00,A,3347.9187,S,15052.3651,E,111.3,174.4,010126,,*35
$GNGGA,000012.10,3347.9184,S,15052.3614,E,4,18,0.6,30.0,M,46.9,M,,*5B
$GNRMC,000012.10,A,3347.9184,S,15052.3614,E,111.2,174.4,010126,,*37
$GNGGA,000012.20,3347.9182,S,15052.3577,E,4,18,0.6,30.0,M,46.9,M,,*58
$GNRMC,000012.20,A,3347.9182,S,15052.3577,E,111.2,176.0,010126,,*32
$GNGGA,000012.30,3347.9180,S,15052.3540,E,4,18,0.6,30.0,M,46.9,M,,*5F
$GNRMC,000012.30,A,3347.9180,S,15052.3540,E,111.1,176.0,010126,,*36
$GNGGA,000012.40,3347.9178,S,15052.3503,E,4,18,0.6,30.0,M,46.9,M,,*58
$GNRMC,000012.40,A,3347.9178,S,15052.3503,E,111.0,176.0,010126,,*30
$GNGGA,000012.50,3347.9176,S,15052.3466,E,4,18,0.6,30.0,M,46.9,M,,*55
$GNRMC,000012.50,A,3347.9176,S,15052.3466,E,111.0,176.0,010126,,*3D
$GNGGA,000012.60,3347.9173,S,15052.3429,E,4,18,0.6,30.0,M,46.9,M,,*58
$GNRMC,000012.60,A,3347.9173,S,15052.3429,E,110.9,176.0,010126,,*38
$GNGGA,000012.70,3347.9171,S,15052.3392,E,4,18,0.6,30.0,M,46.9,M,,*5C
$GNRMC,000012.70,A,3347.9171,S,15052.3392,E,110.8,176.0,010126,,*3D
$GNGGA,000012.80,3347.9169,S,15052.3355,E,4,18,0.6,30.0,M,46.9,M,,*51
$GNRMC,000012.80,A,3347.9169,S,15052.3355,E,110.8,176.0,010126,,*30
$GNGGA,000012.90,3347.9167,S,15052.3318,E,4,18,0.6,30.0,M,46.9,M,,*57
$GNRMC,000012.90,A,3347.9167,S,15052.3318,E,110.7,176.0,010126,,*39
$GNGGA,000013.00,3347.9165,S,15052.3281,E,4,18,0.6,30.0,M,46.9,M,,*5C
$GNRMC,000013.00,A,3347.9165,S,15052.3281,E,110.6,176.0,010126,,*33
$GNGGA,000013.10,3347.9163,S,15052.3245,E,4,18,0.6,30.0,M,46.9,M,,*53
$GNRMC,000013.10,A,3347.9163,S,15052.3245,E,110.6,177.6,010126,,*3B
$GNGGA,000013.20,3347.9162,S,15052.3208,E,4,18,0.6,30.0,M,46.9,M,,*58
$GNRMC,000013.20,A,3347.9162,S,15052.3208,E,110.5,177.6,010126,,*33
$GNGGA,000013.30,3347.9160,S,15052.3171,E,4,18,0.6,30.0,M,46.9,M,,*56
$GNRMC,000013.30,A,3347.9160,S,15052.3171,E,110.4,177.6,010126,,*3C
$GNGGA,000013.40,3347.9159,S,15052.3134,E,4,18,0.6,30.0,M,46.9,M,,*5A
$GNRMC,000013.40,A,3347.9159,S,15052.3134,E,110.4,177.6,010126,,*30
$GNGGA,000013.50,3347.9158,S,15052.3097,E,4,18,0.6,30.0,M,46.9,M,,*52
$GNRMC,000013.50,A,3347.9158,S,15052.3097,E,110.3,177.6,010126,,*3F
$GNGGA,000013.60,3347.9157,S,15052.3060,E,4,18,0.6,30.0,M,46.9,M,,*56
$GNRMC,000013.60,A,3347.9157,S,15052.3060,E,110.2,177.6,010126,,*3A
$GNGGA,000013.70,3347.9155,S,15052.3023,E,4,18,0.6,30.0,M,46.9,M,,*52
$GNRMC,000013.70,A,3347.9155,S,15052.3023,E,110.2,177.6,010126,,*3E
$GNGGA,000013.80,3347.9154,S,15052.2987,E,4,18,0.6,30.0,M,46.9,M,,*5A
$GNRMC,000013.80,A,3347.9154,S,15052.2987,E,110.1,177.6,010126,,*35
$GNGGA,000013.90,3347.9153,S,15052.2950,E,4,18,0.6,30.0,M,46.9,M,,*56
$GNRMC,000013.90,A,3347.9153,S,15052.2950,E,110.0,177.6,010126,,*38
$GNGGA,000014.00,3347.9151,S,15052.2913,E,4,18,0.6,30.0,M,46.9,M,,*5D
$GNRMC,000014.00,A,3347.9151,S,15052.2913,E,110.0,177.6,010126,,*33
$GNGGA,000014.10,3347.9151,S,15052.2877,E,4,18,0.6,30.0,M,46.9,M,,*5F
$GNRMC,000014.10,A,3347.9151,S,15052.2877,E,109.9,179.2,010126,,*3A
$GNGGA,000014.20,3347.9150,S,15052.2840,E,4,18,0.6,30.0,M,46.9,M,,*59
$GNRMC,000014.20,A,3347.9150,S,15052.2840,E,109.8,179.2,010126,,*3D
$GNGGA,000014.30,3347.9150,S,15052.2803,E,4,18,0.6,30.0,M,46.9,M,,*5F
$GNRMC,000014.30,A,3347.9150,S,15052.2803,E,109.8,179.2,010126,,*3B
$GNGGA,000014.40,3347.9149,S,15052.2766,E,4,18,0.6,30.0,M,46.9,M,,*5C
$GNRMC,000014.40,A,3347.9149,S,15052.2766,E,109.7,179.2,010126,,*37
$GNGGA,000014.50,3347.9149,S,15052.2730,E,4,18,0.6,30.0,M,46.9,M,,*5E
$GNRMC,000014.50,A,3347.9149,S,15052.2730,E,109.6,179.2,010126,,*34
$GNGGA,000014.60,3347.9149,S,15052.2693,E,4,18,0.6,30.0,M,46.9,M,,*55
$GNRMC,000014.60,A,3347.9149,S,15052.2693,E,109.5,179.2,010126,,*3C
$GNGGA,000014.70,3347.9148,S,15052.2657,E,4,18,0.6,30.0,M,46.9,M,,*5D
$GNRMC,000014.70,A,3347.9148,S,15052.2657,E,109.5,179.2,010126,,*34
$GNGGA,000014.80,3347.9148,S,15052.2620,E,4,18,0.6,30.0,M,46.9,M,,*52
$GNRMC,000014.80,A,3347.9148,S,15052.2620,E,109.4,179.2,010126,,*3A
$GNGGA,000014.90,3347.9147,S,15052.2584,E,4,18,0.6,30.0,M,46.9,M,,*51
$GNRMC,000014.90,A,3347.9147,S,15052.2584,E,109.3,179.2,010126,,*3E
$GNGGA,000015.00,3347.9147,S,15052.2547,E,4,18,0.6,30.0,M,46.9,M,,*56
$GNRMC,000015.00,A,3347.9147,S,15052.2547,E,109.3,179.2,010126,,*39
$GNGGA,000015.10,3347.9147,S,15052.2511,E,4,18,0.6,30.0,M,46.9,M,,*54
$GNRMC,000015.10,A,3347.9147,S,15052.2511,E,109.2,180.8,010126,,*36
$GNGGA,000015.20,3347.9148,S,15052.2474,E,4,18,0.6,30.0,M,46.9,M,,*5A
$GNRMC,000015.20,A,3347.9148,S,15052.2474,E,109.1,180.8,010126,,*3B
$GNGGA,000015.30,3347.9148,S,15052.2438,E,4,18,0.6,30.0,M,46.9,M,,*53
$GNRMC,000015.30,A,3347.9148,S,15052.2438,E,109.0,180.8,010126,,*33
$GNGGA,000015.40,3347.9148,S,15052.2401,E,4,18,0.6,30.0,M,46.9,M,,*5E
$GNRMC,000015.40,A,3347.9148,S,15052.2401,E,109.0,180.8,010126,,*3E
$GNGGA,000015.50,3347.9149,S,15052.2365,E,4,18,0.6,30.0,M,46.9,M,,*5B
$GNRMC,000015.50,A,3347.9149,S,15052.2365,E,108.9,180.8,010126,,*33
$GNGGA,000015.60,3347.9149,S,15052.2328,E,4,18,0.6,30.0,M,46.9,M,,*51
$GNRMC,000015.60,A,3347.9149,S,15052.2328,E,108.8,180.8,010126,,*38
$GNGGA,000015.70,3347.9150,S,15052.2292,E,4,18,0.6,30.0,M,46.9,M,,*58
$GNRMC,000015.70,A,3347.9150,S,15052.2292,E,108.8,180.8,010126,,*31
$GNGGA,000015.80,3347.9150,S,15052.2256,E,4,18,0.6,30.0,M,46.9,M,,*5F
$GNRMC,000015.80,A,3347.9150,S,15052.2256,E,108.7,180.8,010126,,*39
$GNGGA,000015.90,3347.9150,S,15052.2219,E,4,18,0.6,30.0,M,46.9,M,,*55
$GNRMC,000015.90,A,3347.9150,S,15052.2219,E,108.6,180.8,010126,,*32
$GNGGA,000016.00,3347.9151,S,15052.2183,E,4,18,0.6,30.0,M,46.9,M,,*5E
$GNRMC,000016.00,A,3347.9151,S,15052.2183,E,108.6,182.4,010126,,*37
$GNGGA,000016.10,3347.9152,S,15052.2147,E,4,18,0.6,30.0,M,46.9,M,,*54
$GNRMC,000016.10,A,3347.9152,S,15052.2147,E,108.5,182.4,010126,,*3E
$GNGGA,000016.20,3347.9153,S,15052.2111,E,4,18,0.6,30.0,M,46.9,M,,*55
$GNRMC,000016.20,A,3347.9153,S,15052.2111,E,108.4,182.4,010126,,*3E
$GNGGA,000016.30,3347.9155,S,15052.2075,E,4,18,0.6,30.0,M,46.9,M,,*51
$GNRMC,000016.30,A,3347.9155,S,15052.2075,E,108.4,182.4,010126,,*3A
$GNGGA,000016.40,3347.9156,S,15052.2038,E,4,18,0.6,30.0,M,46.9,M,,*5C
$GNRMC,000016.40,A,3347.9156,S,15052.2038,E,108.3,182.4,010126,,*30
$GNGGA,000016.50,3347.9157,S,15052.2002,E,4,18,0.6,30.0,M,46.9,M,,*55
$GNRMC,000016.50,A,3347.9157,S,15052.2002,E,108.2,182.4,010126,,*38
$GNGGA,000016.60,3347.9158,S,15052.1966,E,4,18,0.6,30.0,M,46.9,M,,*51
$GNRMC,000016.60,A,3347.9158,S,15052.1966,E,108.2,182.4,010126,,*3C
$GNGGA,000016.70,3347.9160,S,15052.1930,E,4,18,0.6,30.0,M,46.9,M,,*58
$GNRMC,000016.70,A,3347.9160,S,15052.1930,E,108.1,182.4,010126,,*36
$GNGGA,000016.80,3347.9161,S,15052.1894,E,4,18,0.6,30.0,M,46.9,M,,*59
$GNRMC,000016.80,A,3347.9161,S,15052.1894,E,108.0,182.4,010126,,*36
$GNGGA,000016.90,3347.9162,S,15052.1858,E,4,18,0.6,30.0,M,46.9,M,,*5B
$GNRMC,000016.90,A,3347.9162,S,15052.1858,E,108.0,182.4,010126,,*34
$GNGGA,000017.00,3347.9164,S,15052.1822,E,4,18,0.6,30.0,M,46.9,M,,*58
$GNRMC,000017.00,A,3347.9164,S,15052.1822,E,107.9,184.0,010126,,*33
$GNGGA,000017.10,3347.9166,S,15052.1786,E,4,18,0.6,30.0,M,46.9,M,,*5A
$GNRMC,000017.10,A,3347.9166,S,15052.1786,E,107.8,184.0,010126,,*30
$GNGGA,000017.20,3347.9168,S,15052.1750,E,4,18,0.6,30.0,M,46.9,M,,*5C
$GNRMC,000017.20,A,3347.9168,S,15052.1750,E,107.8,184.0,010126,,*36
$GNGGA,000017.30,3347.9170,S,15052.1714,E,4,18,0.6,30.0,M,46.9,M,,*54
$GNRMC,000017.30,A,3347.9170,S,15052.1714,E,107.7,184.0,010126,,*31
$GNGGA,000017.40,3347.9172,S,15052.1678,E,4,18,0.6,30.0,M,46.9,M,,*5A
$GNRMC,000017.40,A,3347.9172,S,15052.1678,E,107.6,184.0,010126,,*3E
$GNGGA,000017.50,3347.9174,S,15052.1642,E,4,18,0.6,30.0,M,46.9,M,,*54
$GNRMC,000017.50,A,3347.9174,S,15052.1642,E,107.6,184.0,010126,,*30
$GNGGA,000017.60,3347.9176,S,15052.1606,E,4,18,0.6,30.0,M,46.9,M,,*55
$GNRMC,000017.60,A,3347.9176,S,15052.1606,E,107.5,184.0,010126,,*32
$GNGGA,000017.70,3347.9178,S,15052.1571,E,4,18,0.6,30.0,M,46.9,M,,*59
$GNRMC,000017.70,A,3347.9178,S,15052.1571,E,107.4,184.0,010126,,*3F
$GNGGA,000017.80,3347.9180,S,15052.1535,E,4,18,0.6,30.0,M,46.9,M,,*51
$GNRMC,000017.80,A,3347.9180,S,15052.1535,E,107.4,184.0,010126,,*37
$GNGGA,000017.90,3347.9182,S,15052.1499,E,4,18,0.6,30.0,M,46.9,M,,*55
$GNRMC,000017.90,A,3347.9182,S,15052.1499,E,107.3,184.0,010126,,*34
$GNGGA,000018.00,3347.9185,S,15052.1463,E,4,18,0.6,30.0,M,46.9,M,,*51
$GNRMC,000018.00,A,3347.9185,S,15052.1463,E,107.3,185.6,010126,,*37
$GNGGA,000018.10,3347.9187,S,15052.1428,E,4,18,0.6,30.0,M,46.9,M,,*5D
$GNRMC,000018.10,A,3347.9187,S,15052.1428,E,107.2,185.6,010126,,*3A
$GNGGA,000018.20,3347.9190,S,15052.1392,E,4,18,0.6,30.0,M,46.9,M,,*5E
$GNRMC,000018.20,A,3347.9190,S,15052.1392,E,107.1,185.6,010126,,*3A
$GNGGA,000018.30,3347.9193,S,15052.1356,E,4,18,0.6,30.0,M,46.9,M,,*54
$GNRMC,000018.30,A,3347.9193,S,15052.1356,E,107.1,185.6,010126,,*30
$GNGGA,000018.40,3347.9196,S,15052.1321,E,4,18,0.6,30.0,M,46.9,M,,*56
$GNRMC,000018.40,A,3347.9196,S,15052.1321,E,107.0,185.6,010126,,*33
$GNGGA,000018.50,3347.9199,S,15052.1285,E,4,18,0.6,30.0,M,46.9,M,,*57
$GNRMC,000018.50,A,3347.9199,S,15052.1285,E,107.0,185.6,010126,,*32
$GNGGA,000018.60,3347.9202,S,15052.1250,E,4,18,0.6,30.0,M,46.9,M,,*5D
$GNRMC,000018.60,A,3347.9202,S,15052.1250,E,106.9,185.6,010126,,*30
$GNGGA,000018.70,3347.9205,S,15052.1214,E,4,18,0.6,30.0,M,46.9,M,,*5B
$GNRMC,000018.70,A,3347.9205,S,15052.1214,E,106.9,185.6,010126,,*36
$GNGGA,000018.80,3347.9208,S,15052.1179,E,4,18,0.6,30.0,M,46.9,M,,*51
$GNRMC,000018.80,A,3347.9208,S,15052.1179,E,106.8,185.6,010126,,*3D
$GNGGA,000018.90,3347.9211,S,15052.1143,E,4,18,0.6,30.0,M,46.9,M,,*51
$GNRMC,000018.90,A,3347.9211,S,15052.1143,E,106.8,185.6,010126,,*3D
$GNGGA,000019.00,3347.9214,S,15052.1108,E,4,18,0.6,30.0,M,46.9,M,,*53
$GNRMC,000019.00,A,3347.9214,S,15052.1108,E,106.7,187.3,010126,,*37
$GNGGA,000019.10,3347.9218,S,15052.1072,E,4,18,0.6,30.0,M,46.9,M,,*52
$GNRMC,000019.10,A,3347.9218,S,15052.1072,E,106.6,187.3,010126,,*37
$GNGGA,000019.20,3347.9222,S,15052.1037,E,4,18,0.6,30.0,M,46.9,M,,*59
$GNRMC,000019.20,A,3347.9222,S,15052.1037,E,106.6,187.3,010126,,*3C
$GNGGA,000019.30,3347.9225,S,15052.1002,E,4,18,0.6,30.0,M,46.9,M,,*59
$GNRMC,000019.30,A,3347.9225,S,15052.1002,E,106.5,187.3,010126,,*3F
$GNGGA,000019.40,3347.9229,S,15052.0966,E,4,18,0.6,30.0,M,46.9,M,,*58
$GNRMC,000019.40,A,3347.9229,S,15052.0966,E,106.5,187.3,010126,,*3E
$GNGGA,000019.50,3347.9233,S,15052.0931,E,4,18,0.6,30.0,M,46.9,M,,*50
$GNRMC,000019.50,A,3347.9233,S,15052.0931,E,106.5,187.3,010126,,*36
$GNGGA,000019.60,3347.9237,S,15052.0896,E,4,18,0.6,30.0,M,46.9,M,,*5B
$GNRMC,000019.60,A,3347.9237,S,15052.0896,E,106.4,187.3,010126,,*3C
$GNGGA,000019.70,3347.9240,S,15052.0861,E,4,18,0.6,30.0,M,46.9,M,,*52
$GNRMC,000019.70,A,3347.9240,S,15052.0861,E,106.4,187.3,010126,,*35
$GNGGA,000019.80,3347.9244,S,15052.0825,E,4,18,0.6,30.0,M,46.9,M,,*59
$GNRMC,000019.80,A,3347.9244,S,15052.0825,E,106.3,187.3,010126,,*39
$GNGGA,000019.90,3347.9248,S,15052.0790,E,4,18,0.6,30.0,M,46.9,M,,*55
$GNRMC,000019.90,A,3347.9248,S,15052.0790,E,106.3,189.0,010126,,*38
$GNGGA,000020.00,3347.9253,S,15052.0755,E,4,18,0.6,30.0,M,46.9,M,,*55
$GNRMC,000020.00,A,3347.9253,S,15052.0755,E,106.2,189.0,010126,,*39
$GNGGA,000020.10,3347.9257,S,15052.0720,E,4,18,0.6,30.0,M,46.9,M,,*52
$GNRMC,000020.10,A,3347.9257,S,15052.0720,E,106.2,189.0,010126,,*3E
$GNGGA,000020.20,3347.9262,S,15052.0685,E,4,18,0.6,30.0,M,46.9,M,,*59
$GNRMC,000020.20,A,3347.9262,S,15052.0685,E,106.1,189.0,010126,,*36
$GNGGA,000020.30,3347.9266,S,15052.0650,E,4,18,0.6,30.0,M,46.9,M,,*54
$GNRMC,000020.30,A,3347.9266,S,15052.0650,E,106.1,189.0,010126,,*3B
$GNGGA,000020.40,3347.9271,S,15052.0615,E,4,18,0.6,30.0,M,46.9,M,,*54
$GNRMC,000020.40,A,3347.9271,S,15052.0615,E,106.1,189.0,010126,,*3B
$GNGGA,000020.50,3347.9276,S,15052.0580,E,4,18,0.6,30.0,M,46.9,M,,*5D
$GNRMC,000020.50,A,3347.9276,S,15052.0580,E,106.0,189.0,010126,,*33
$GNGGA,000020.60,3347.9280,S,15052.0545,E,4,18,0.6,30.0,M,46.9,M,,*5E
$GNRMC,000020.60,A,3347.9280,S,15052.0545,E,106.0,189.0,010126,,*30
$GNGGA,000020.70,3347.9285,S,15052.0510,E,4,18,0.6,30.0,M,46.9,M,,*5A
$GNRMC,000020.70,A,3347.9285,S,15052.0510,E,105.9,189.0,010126,,*3E
$GNGGA,000020.80,3347.9289,S,15052.0475,E,4,18,0.6,30.0,M,46.9,M,,*5B
$GNRMC,000020.80,A,3347.9289,S,15052.0475,E,105.9,189.0,010126,,*3F
$GNGGA,000020.90,3347.9295,S,15052.0440,E,4,18,0.6,30.0,M,46.9,M,,*51
$GNRMC,000020.90,A,3347.9295,S,15052.0440,E,105.9,190.8,010126,,*35
$GNGGA,000021.00,3347.9300,S,15052.0405,E,4,18,0.6,30.0,M,46.9,M,,*55
$GNRMC,000021.00,A,3347.9300,S,15052.0405,E,105.8,190.8,010126,,*30
$GNGGA,000021.10,3347.9306,S,15052.0371,E,4,18,0.6,30.0,M,46.9,M,,*56
$GNRMC,000021.10,A,3347.9306,S,15052.0371,E,105.8,190.8,010126,,*33
$GNGGA,000021.20,3347.9311,S,15052.0336,E,4,18,0.6,30.0,M,46.9,M,,*50
$GNRMC,000021.20,A,3347.9311,S,15052.0336,E,105.8,190.8,010126,,*35
$GNGGA,000021.30,3347.9317,S,15052.0301,E,4,18,0.6,30.0,M,46.9,M,,*53
$GNRMC,000021.30,A,3347.9317,S,15052.0301,E,105.7,190.8,010126,,*39
$GNGGA,000021.40,3347.9322,S,15052.0267,E,4,18,0.6,30.0,M,46.9,M,,*53
$GNRMC,000021.40,A,3347.9322,S,15052.0267,E,105.7,190.8,010126,,*39
$GNGGA,000021.50,3347.9328,S,15052.0232,E,4,18,0.6,30.0,M,46.9,M,,*58
$GNRMC,000021.50,A,3347.9328,S,15052.0232,E,105.7,190.8,010126,,*32
$GNGGA,000021.60,3347.9333,S,15052.0197,E,4,18,0.6,30.0,M,46.9,M,,*5D
$GNRMC,000021.60,A,3347.9333,S,15052.0197,E,105.7,190.8,010126,,*37
$GNGGA,000021.70,3347.9339,S,15052.0162,E,4,18,0.6,30.0,M,46.9,M,,*5C
$GNRMC,000021.70,A,3347.9339,S,15052.0162,E,105.6,190.8,010126,,*37
$GNGGA,000021.80,3347.9344,S,15052.0128,E,4,18,0.6,30.0,M,46.9,M,,*57
$GNRMC,000021.80,A,3347.9344,S,15052.0128,E,105.6,192.7,010126,,*31
$GNGGA,000021.90,3347.9351,S,15052.0093,E,4,18,0.6,30.0,M,46.9,M,,*53
$GNRMC,000021.90,A,3347.9351,S,15052.0093,E,105.6,192.7,010126,,*35
$GNGGA,000022.00,3347.9357,S,15052.0059,E,4,18,0.6,30.0,M,46.9,M,,*59
$GNRMC,000022.00,A,3347.9357,S,15052.0059,E,105.6,192.7,010126,,*3F
$GNGGA,000022.10,3347.9364,S,15052.0025,E,4,18,0.6,30.0,M,46.9,M,,*53
$GNRMC,000022.10,A,3347.9364,S,15052.0025,E,105.5,192.7,010126,,*36
$GNGGA,000022.20,3347.9370,S,15051.9990,E,4,18,0.6,30.0,M,46.9,M,,*58
$GNRMC,000022.20,A,3347.9370,S,15051.9990,E,105.5,192.7,010126,,*3D
$GNGGA,000022.30,3347.9376,S,15051.9956,E,4,18,0.6,30.0,M,46.9,M,,*55
$GNRMC,000022.30,A,3347.9376,S,15051.9956,E,105.5,192.7,010126,,*30
$GNGGA,000022.40,3347.9383,S,15051.9921,E,4,18,0.6,30.0,M,46.9,M,,*58
$GNRMC,000022.40,A,3347.9383,S,15051.9921,E,105.5,192.7,010126,,*3D
$GNGGA,000022.50,3347.9389,S,15051.9887,E,4,18,0.6,30.0,M,46.9,M,,*5E
$GNRMC,000022.50,A,3347.9389,S,15051.9887,E,105.5,192.7,010126,,*3B
$GNGGA,000022.60,3347.9396,S,15051.9853,E,4,18,0.6,30.0,M,46.9,M,,*5A
$GNRMC,000022.60,A,3347.9396,S,15051.9853,E,105.5,192.7,010126,,*3F
$GNGGA,000022.70,3347.9402,S,15051.9818,E,4,18,0.6,30.0,M,46.9,M,,*5E
$GNRMC,000022.70,A,3347.9402,S,15051.9818,E,105.4,194.7,010126,,*3C
$GNGGA,000022.80,3347.9410,S,15051.9784,E,4,18,0.6,30.0,M,46.9,M,,*58
$GNRMC,000022.80,A,3347.9410,S,15051.9784,E,105.4,194.7,010126,,*3A
$GNGGA,000022.90,3347.9417,S,15051.9750,E,4,18,0.6,30.0,M,46.9,M,,*57
$GNRMC,000022.90,A,3347.9417,S,15051.9750,E,105.4,194.7,010126,,*35
$GNGGA,000023.00,3347.9424,S,15051.9716,E,4,18,0.6,30.0,M,46.9,M,,*5D
$GNRMC,000023.00,A,3347.9424,S,15051.9716,E,105.4,194.7,010126,,*3F
$GNGGA,000023.10,3347.9432,S,15051.9682,E,4,18,0.6,30.0,M,46.9,M,,*57
$GNRMC,000023.10,A,3347.9432,S,15051.9682,E,105.4,194.7,010126,,*35
$GNGGA,000023.20,3347.9439,S,15051.9648,E,4,18,0.6,30.0,M,46.9,M,,*59
$GNRMC,000023.20,A,3347.9439,S,15051.9648,E,105.4,194.7,010126,,*3B
$GNGGA,000023.30,3347.9447,S,15051.9614,E,4,18,0.6,30.0,M,46.9,M,,*58
$GNRMC,000023.30,A,3347.9447,S,15051.9614,E,105.4,194.7,010126,,*3A
$GNGGA,000023.40,3347.9454,S,15051.9580,E,4,18,0.6,30.0,M,46.9,M,,*53
$GNRMC,000023.40,A,3347.9454,S,15051.9580,E,105.4,194.7,010126,,*31
$GNGGA,000023.50,3347.9461,S,15051.9546,E,4,18,0.6,30.0,M,46.9,M,,*5E
$GNRMC,000023.50,A,3347.9461,S,15051.9546,E,105.4,194.7,010126,,*3C
$GNGGA,000023.60,3347.9469,S,15051.9512,E,4,18,0.6,30.0,M,46.9,M,,*54
$GNRMC,000023.60,A,3347.9469,S,15051.9512,E,105.4,196.8,010126,,*3B
$GNGGA,000023.70,3347.9477,S,15051.9478,E,4,18,0.6,30.0,M,46.9,M,,*57
$GNRMC,000023.70,A,3347.9477,S,15051.9478,E,105.4,196.8,010126,,*38
$GNGGA,000023.80,3347.9486,S,15051.9444,E,4,18,0.6,30.0,M,46.9,M,,*59
$GNRMC,000023.80,A,3347.9486,S,15051.9444,E,105.4,196.8,010126,,*36
$GNGGA,000023.90,3347.9494,S,15051.9411,E,4,18,0.6,30.0,M,46.9,M,,*5B
$GNRMC,000023.90,A,3347.9494,S,15051.9411,E,105.4,196.8,010126,,*34
$GNGGA,000024.00,3347.9503,S,15051.9377,E,4,18,0.6,30.0,M,46.9,M,,*5D
$GNRMC,000024.00,A,3347.9503,S,15051.9377,E,105.4,196.8,010126,,*32
$GNGGA,000024.10,3347.9511,S,15051.9343,E,4,18,0.6,30.0,M,46.9,M,,*58
$GNRMC,000024.10,A,3347.9511,S,15051.9343,E,105.4,196.8,010126,,*37
$GNGGA,000024.20,3347.9520,S,15051.9310,E,4,18,0.6,30.0,M,46.9,M,,*5F
$GNRMC,000024.20,A,3347.9520,S,15051.9310,E,105.4,196.8,010126,,*30
$GNGGA,000024.30,3347.9528,S,15051.9276,E,4,18,0.6,30.0,M,46.9,M,,*57
$GNRMC,000024.30,A,3347.9528,S,15051.9276,E,105.4,196.8,010126,,*38
$GNGGA,000024.40,3347.9537,S,15051.9242,E,4,18,0.6,30.0,M,46.9,M,,*59
$GNRMC,000024.40,A,3347.9537,S,15051.9242,E,105.4,196.8,010126,,*36
$GNGGA,000024.50,3347.9546,S,15051.9209,E,4,18,0.6,30.0,M,46.9,M,,*51
$GNRMC,000024.50,A,3347.9546,S,15051.9209,E,105.4,199.1,010126,,*38
$GNGGA,000024.60,3347.9555,S,15051.9176,E,4,18,0.6,30.0,M,46.9,M,,*5B
$GNRMC,000024.60,A,3347.9555,S,15051.9176,E,105.4,199.1,010126,,*32
$GNGGA,000024.70,3347.9565,S,15051.9142,E,4,18,0.6,30.0,M,46.9,M,,*5E
$GNRMC,000024.70,A,3347.9565,S,15051.9142,E,105.4,199.1,010126,,*37
$GNGGA,000024.80,3347.9574,S,15051.9109,E,4,18,0.6,30.0,M,46.9,M,,*5E
$GNRMC,000024.80,A,3347.9574,S,15051.9109,E,105.4,199.1,010126,,*37
$GNGGA,000024.90,3347.9584,S,15051.9076,E,4,18,0.6,30.0,M,46.9,M,,*59
$GNRMC,000024.90,A,3347.9584,S,15051.9076,E,105.4,199.1,010126,,*30
$GNGGA,000025.00,3347.9593,S,15051.9042,E,4,18,0.6,30.0,M,46.9,M,,*50
$GNRMC,000025.00,A,3347.9593,S,15051.9042,E,105.4,199.1,010126,,*39
$GNGGA,000025.10,3347.9603,S,15051.9009,E,4,18,0.6,30.0,M,46.9,M,,*54
$GNRMC,000025.10,A,3347.9603,S,15051.9009,E,105.4,199.1,010126,,*3D
$GNGGA,000025.20,3347.9613,S,15051.8976,E,4,18,0.6,30.0,M,46.9,M,,*56
$GNRMC,000025.20,A,3347.9613,S,15051.8976,E,105.5,199.1,010126,,*3E
$GNGGA,000025.30,3347.9623,S,15051.8943,E,4,18,0.6,30.0,M,46.9,M,,*52
$GNRMC,000025.30,A,3347.9623,S,15051.8943,E,105.5,201.5,010126,,*3C
$GNGGA,000025.40,3347.9633,S,15051.8910,E,4,18,0.6,30.0,M,46.9,M,,*52
$GNRMC,000025.40,A,3347.9633,S,15051.8910,E,105.5,201.5,010126,,*3C
$GNGGA,000025.50,3347.9644,S,15051.8877,E,4,18,0.6,30.0,M,46.9,M,,*53
$GNRMC,000025.50,A,3347.9644,S,15051.8877,E,105.5,201.5,010126,,*3D
$GNGGA,000025.60,3347.9655,S,15051.8844,E,4,18,0.6,30.0,M,46.9,M,,*50
$GNRMC,000025.60,A,3347.9655,S,15051.8844,E,105.5,201.5,010126,,*3E
$GNGGA,000025.70,3347.9666,S,15051.8812,E,4,18,0.6,30.0,M,46.9,M,,*52
$GNRMC,000025.70,A,3347.9666,S,15051.8812,E,105.6,201.5,010126,,*3F
$GNGGA,000025.80,3347.9676,S,15051.8779,E,4,18,0.6,30.0,M,46.9,M,,*5E
$GNRMC,000025.80,A,3347.9676,S,15051.8779,E,105.6,201.5,010126,,*33
$GNGGA,000025.90,3347.9687,S,15051.8746,E,4,18,0.6,30.0,M,46.9,M,,*5D
$GNRMC,000025.90,A,3347.9687,S,15051.8746,E,105.6,201.5,010126,,*30
$GNGGA,000026.00,3347.9698,S,15051.8713,E,4,18,0.6,30.0,M,46.9,M,,*59
$GNRMC,000026.00,A,3347.9698,S,15051.8713,E,105.6,201.5,010126,,*34
$GNGGA,000026.10,3347.9709,S,15051.8681,E,4,18,0.6,30.0,M,46.9,M,,*5B
$GNRMC,000026.10,A,3347.9709,S,15051.8681,E,105.6,204.2,010126,,*34
$GNGGA,000026.20,3347.9721,S,15051.8648,E,4,18,0.6,30.0,M,46.9,M,,*57
$GNRMC,000026.20,A,3347.9721,S,15051.8648,E,105.7,204.2,010126,,*39
$GNGGA,000026.30,3347.9733,S,15051.8616,E,4,18,0.6,30.0,M,46.9,M,,*5E
$GNRMC,000026.30,A,3347.9733,S,15051.8616,E,105.7,204.2,010126,,*30
$GNGGA,000026.40,3347.9745,S,15051.8584,E,4,18,0.6,30.0,M,46.9,M,,*50
$GNRMC,000026.40,A,3347.9745,S,15051.8584,E,105.7,204.2,010126,,*3E
$GNGGA,000026.50,3347.9757,S,15051.8552,E,4,18,0.6,30.0,M,46.9,M,,*59
$GNRMC,000026.50,A,3347.9757,S,15051.8552,E,105.8,204.2,010126,,*38
$GNGGA,000026.60,3347.9769,S,15051.8520,E,4,18,0.6,30.0,M,46.9,M,,*52
$GNRMC,000026.60,A,3347.9769,S,15051.8520,E,105.8,204.2,010126,,*33
$GNGGA,000026.70,3347.9781,S,15051.8487,E,4,18,0.6,30.0,M,46.9,M,,*59
$GNRMC,000026.70,A,3347.9781,S,15051.8487,E,105.8,204.2,010126,,*38
$GNGGA,000026.80,3347.9793,S,15051.8455,E,4,18,0.6,30.0,M,46.9,M,,*5A
$GNRMC,000026.80,A,3347.9793,S,15051.8455,E,105.9,204.2,010126,,*3A
$GNGGA,000026.90,3347.9806,S,15051.8424,E,4,18,0.6,30.0,M,46.9,M,,*5E
$GNRMC,000026.90,A,3347.9806,S,15051.8424,E,105.9,207.2,010126,,*3D
$GNGGA,000027.00,3347.9820,S,15051.8392,E,4,18,0.6,30.0,M,46.9,M,,*58
$GNRMC,000027.00,A,3347.9820,S,15051.8392,E,105.9,207.2,010126,,*3B
$GNGGA,000027.10,3347.9833,S,15051.8361,E,4,18,0.6,30.0,M,46.9,M,,*57
$GNRMC,000027.10,A,3347.9833,S,15051.8361,E,106.0,207.2,010126,,*3E
$GNGGA,000027.20,3347.9847,S,15051.8329,E,4,18,0.6,30.0,M,46.9,M,,*5B
$GNRMC,000027.20,A,3347.9847,S,15051.8329,E,106.0,207.2,010126,,*32
$GNGGA,000027.30,3347.9860,S,15051.8298,E,4,18,0.6,30.0,M,46.9,M,,*54
$GNRMC,000027.30,A,3347.9860,S,15051.8298,E,106.0,207.2,010126,,*3D
$GNGGA,000027.40,3347.9874,S,15051.8266,E,4,18,0.6,30.0,M,46.9,M,,*57
$GNRMC,000027.40,A,3347.9874,S,15051.8266,E,106.1,207.2,010126,,*3F
$GNGGA,000027.50,3347.9887,S,15051.8235,E,4,18,0.6,30.0,M,46.9,M,,*5C
$GNRMC,000027.50,A,3347.9887,S,15051.8235,E,106.1,207.2,010126,,*34
$GNGGA,000027.60,3347.9902,S,15051.8204,E,4,18,0.6,30.0,M,46.9,M,,*51
$GNRMC,000027.60,A,3347.9902,S,15051.8204,E,106.2,210.4,010126,,*3A
$GNGGA,000027.70,3347.9916,S,15051.8173,E,4,18,0.6,30.0,M,46.9,M,,*56
$GNRMC,000027.70,A,3347.9916,S,15051.8173,E,106.2,210.4,010126,,*3D
$GNGGA,000027.80,3347.9931,S,15051.8143,E,4,18,0.6,30.0,M,46.9,M,,*5F
$GNRMC,000027.80,A,3347.9931,S,15051.8143,E,106.2,210.4,010126,,*34
$GNGGA,000027.90,3347.9946,S,15051.8112,E,4,18,0.6,30.0,M,46.9,M,,*5A
$GNRMC,000027.90,A,3347.9946,S,15051.8112,E,106.3,210.4,010126,,*30
$GNGGA,000028.00,3347.9961,S,15051.8081,E,4,18,0.6,30.0,M,46.9,M,,*52
$GNRMC,000028.00,A,3347.9961,S,15051.8081,E,106.3,210.4,010126,,*38
$GNGGA,000028.10,3347.9976,S,15051.8051,E,4,18,0.6,30.0,M,46.9,M,,*58
$GNRMC,000028.10,A,3347.9976,S,15051.8051,E,106.4,210.4,010126,,*35
$GNGGA,000028.20,3347.9991,S,15051.8020,E,4,18,0.6,30.0,M,46.9,M,,*54
$GNRMC,000028.20,A,3347.9991,S,15051.8020,E,106.4,210.4,010126,,*39
$GNGGA,000028.30,3348.0008,S,15051.7991,E,4,18,0.6,30.0,M,46.9,M,,*56
$GNRMC,000028.30,A,3348.0008,S,15051.7991,E,106.5,214.1,010126,,*3B
$GNGGA,000028.40,3348.0024,S,15051.7961,E,4,18,0.6,30.0,M,46.9,M,,*50
$GNRMC,000028.40,A,3348.0024,S,15051.7961,E,106.5,214.1,010126,,*3D
$GNGGA,000028.50,3348.0041,S,15051.7932,E,4,18,0.6,30.0,M,46.9,M,,*54
$GNRMC,000028.50,A,3348.0041,S,15051.7932,E,106.6,214.1,010126,,*3A
$GNGGA,000028.60,3348.0057,S,15051.7902,E,4,18,0.6,30.0,M,46.9,M,,*53
$GNRMC,000028.60,A,3348.0057,S,15051.7902,E,106.6,214.1,010126,,*3D
$GNGGA,000028.70,3348.0074,S,15051.7873,E,4,18,0.6,30.0,M,46.9,M,,*54
$GNRMC,000028.70,A,3348.0074,S,15051.7873,E,106.7,214.1,010126,,*3B
$GNGGA,000028.80,3348.0091,S,15051.7843,E,4,18,0.6,30.0,M,46.9,M,,*53
$GNRMC,000028.80,A,3348.0091,S,15051.7843,E,106.7,214.1,010126,,*3C
$GNGGA,000028.90,3348.0108,S,15051.7814,E,4,18,0.6,30.0,M,46.9,M,,*51
$GNRMC,000028.90,A,3348.0108,S,15051.7814,E,106.8,218.2,010126,,*3E
$GNGGA,000029.00,3348.0126,S,15051.7786,E,4,18,0.6,30.0,M,46.9,M,,*51
$GNRMC,000029.00,A,3348.0126,S,15051.7786,E,106.8,218.2,010126,,*3E
$GNGGA,000029.10,3348.0145,S,15051.7758,E,4,18,0.6,30.0,M,46.9,M,,*56
$GNRMC,000029.10,A,3348.0145,S,15051.7758,E,106.9,218.2,010126,,*38
$GNGGA,000029.20,3348.0163,S,15051.7730,E,4,18,0.6,30.0,M,46.9,M,,*5F
$GNRMC,000029.20,A,3348.0163,S,15051.7730,E,106.9,218.2,010126,,*31
$GNGGA,000029.30,3348.0181,S,15051.7702,E,4,18,0.6,30.0,M,46.9,M,,*53
$GNRMC,000029.30,A,3348.0181,S,15051.7702,E,107.0,218.2,010126,,*35
$GNGGA,000029.40,3348.0200,S,15051.7674,E,4,18,0.6,30.0,M,46.9,M,,*5E
$GNRMC,000029.40,A,3348.0200,S,15051.7674,E,107.0,218.2,010126,,*38
$GNGGA,000029.50,3348.0219,S,15051.7647,E,4,18,0.6,30.0,M,46.9,M,,*57
$GNRMC,000029.50,A,3348.0219,S,15051.7647,E,107.1,222.9,010126,,*32
$GNGGA,000029.60,3348.0239,S,15051.7621,E,4,18,0.6,30.0,M,46.9,M,,*56
$GNRMC,000029.60,A,3348.0239,S,15051.7621,E,107.2,222.9,010126,,*30
$GNGGA,000029.70,3348.0260,S,15051.7595,E,4,18,0.6,30.0,M,46.9,M,,*57
$GNRMC,000029.70,A,3348.0260,S,15051.7595,E,107.2,222.9,010126,,*31
$GNGGA,000029.80,3348.0280,S,15051.7568,E,4,18,0.6,30.0,M,46.9,M,,*54
$GNRMC,000029.80,A,3348.0280,S,15051.7568,E,107.3,222.9,010126,,*33
$GNGGA,000029.90,3348.0300,S,15051.7542,E,4,18,0.6,30.0,M,46.9,M,,*54
$GNRMC,000029.90,A,3348.0300,S,15051.7542,E,107.3,222.9,010126,,*33
$GNGGA,000030.00,3348.0321,S,15051.7516,E,4,18,0.6,30.0,M,46.9,M,,*57
$GNRMC,000030.00,A,3348.0321,S,15051.7516,E,107.4,222.9,010126,,*37
$GNGGA,000030.10,3348.0343,S,15051.7492,E,4,18,0.6,30.0,M,46.9,M,,*5F
$GNRMC,000030.10,A,3348.0343,S,15051.7492,E,107.5,228.2,010126,,*3F
$GNGGA,000030.20,3348.0365,S,15051.7468,E,4,18,0.6,30.0,M,46.9,M,,*5D
$GNRMC,000030.20,A,3348.0365,S,15051.7468,E,107.5,228.2,010126,,*3D
$GNGGA,000030.30,3348.0387,S,15051.7444,E,4,18,0.6,30.0,M,46.9,M,,*5E
$GNRMC,000030.30,A,3348.0387,S,15051.7444,E,107.6,228.2,010126,,*3D
$GNGGA,000030.40,3348.0409,S,15051.7420,E,4,18,0.6,30.0,M,46.9,M,,*5A
$GNRMC,000030.40,A,3348.0409,S,15051.7420,E,107.6,228.2,010126,,*39
$GNGGA,000030.50,3348.0432,S,15051.7396,E,4,18,0.6,30.0,M,46.9,M,,*59
$GNRMC,000030.50,A,3348.0432,S,15051.7396,E,107.7,228.2,010126,,*3B
$GNGGA,000030.60,3348.0455,S,15051.7374,E,4,18,0.6,30.0,M,46.9,M,,*57
$GNRMC,000030.60,A,3348.0455,S,15051.7374,E,107.8,234.2,010126,,*37
$GNGGA,000030.70,3348.0480,S,15051.7353,E,4,18,0.6,30.0,M,46.9,M,,*5B
$GNRMC,000030.70,A,3348.0480,S,15051.7353,E,107.8,234.2,010126,,*3B
$GNGGA,000030.80,3348.0504,S,15051.7332,E,4,18,0.6,30.0,M,46.9,M,,*5E
$GNRMC,000030.80,A,3348.0504,S,15051.7332,E,107.9,234.2,010126,,*3F
$GNGGA,000030.90,3348.0528,S,15051.7311,E,4,18,0.6,30.0,M,46.9,M,,*50
$GNRMC,000030.90,A,3348.0528,S,15051.7311,E,108.0,234.2,010126,,*37
$GNGGA,000031.00,3348.0553,S,15051.7290,E,4,18,0.6,30.0,M,46.9,M,,*5C
$GNRMC,000031.00,A,3348.0553,S,15051.7290,E,108.0,234.2,010126,,*3B
$GNGGA,000031.10,3348.0578,S,15051.7272,E,4,18,0.6,30.0,M,46.9,M,,*58
$GNRMC,000031.10,A,3348.0578,S,15051.7272,E,108.1,241.0,010126,,*3E
$GNGGA,000031.20,3348.0605,S,15051.7254,E,4,18,0.6,30.0,M,46.9,M,,*56
$GNRMC,000031.20,A,3348.0605,S,15051.7254,E,108.2,241.0,010126,,*33
$GNGGA,000031.30,3348.0631,S,15051.7237,E,4,18,0.6,30.0,M,46.9,M,,*55
$GNRMC,000031.30,A,3348.0631,S,15051.7237,E,108.2,241.0,010126,,*30
$GNGGA,000031.40,3348.0657,S,15051.7219,E,4,18,0.6,30.0,M,46.9,M,,*5E
$GNRMC,000031.40,A,3348.0657,S,15051.7219,E,108.3,241.0,010126,,*3A
$GNGGA,000031.50,3348.0684,S,15051.7202,E,4,18,0.6,30.0,M,46.9,M,,*5B
$GNRMC,000031.50,A,3348.0684,S,15051.7202,E,108.4,248.6,010126,,*37
$GNGGA,000031.60,3348.0712,S,15051.7189,E,4,18,0.6,30.0,M,46.9,M,,*56
$GNRMC,000031.60,A,3348.0712,S,15051.7189,E,108.4,248.6,010126,,*3A
$GNGGA,000031.70,3348.0740,S,15051.7176,E,4,18,0.6,30.0,M,46.9,M,,*50
$GNRMC,000031.70,A,3348.0740,S,15051.7176,E,108.5,248.6,010126,,*3D
$GNGGA,000031.80,3348.0768,S,15051.7163,E,4,18,0.6,30.0,M,46.9,M,,*51
$GNRMC,000031.80,A,3348.0768,S,15051.7163,E,108.6,248.6,010126,,*3F
$GNGGA,000031.90,3348.0796,S,15051.7150,E,4,18,0.6,30.0,M,46.9,M,,*51
$GNRMC,000031.90,A,3348.0796,S,15051.7150,E,108.6,248.6,010126,,*3F
$GNGGA,000032.00,3348.0825,S,15051.7140,E,4,18,0.6,30.0,M,46.9,M,,*5D
$GNRMC,000032.00,A,3348.0825,S,15051.7140,E,108.7,256.8,010126,,*33
$GNGGA,000032.10,3348.0854,S,15051.7132,E,4,18,0.6,30.0,M,46.9,M,,*5F
$GNRMC,000032.10,A,3348.0854,S,15051.7132,E,108.8,256.8,010126,,*3E
$GNGGA,000032.20,3348.0884,S,15051.7124,E,4,18,0.6,30.0,M,46.9,M,,*56
$GNRMC,000032.20,A,3348.0884,S,15051.7124,E,108.9,256.8,010126,,*36
$GNGGA,000032.30,3348.0913,S,15051.7115,E,4,18,0.6,30.0,M,46.9,M,,*5A
$GNRMC,000032.30,A,3348.0913,S,15051.7115,E,108.9,256.8,010126,,*3A
$GNGGA,000032.40,3348.0943,S,15051.7110,E,4,18,0.6,30.0,M,46.9,M,,*5D
$GNRMC,000032.40,A,3348.0943,S,15051.7110,E,109.0,265.6,010126,,*3B
$GNGGA,000032.50,3348.0973,S,15051.7107,E,4,18,0.6,30.0,M,46.9,M,,*59
$GNRMC,000032.50,A,3348.0973,S,15051.7107,E,109.1,265.6,010126,,*3E
$GNGGA,000032.60,3348.1003,S,15051.7105,E,4,18,0.6,30.0,M,46.9,M,,*57
$GNRMC,000032.60,A,3348.1003,S,15051.7105,E,109.1,265.6,010126,,*30
$GNGGA,000032.70,3348.1034,S,15051.7102,E,4,18,0.6,30.0,M,46.9,M,,*55
$GNRMC,000032.70,A,3348.1034,S,15051.7102,E,109.2,265.6,010126,,*31
$GNGGA,000032.80,3348.1064,S,15051.7102,E,4,18,0.6,30.0,M,46.9,M,,*5F
$GNRMC,000032.80,A,3348.1064,S,15051.7102,E,109.3,274.4,010126,,*38
$GNGGA,000032.90,3348.1094,S,15051.7104,E,4,18,0.6,30.0,M,46.9,M,,*57
$GNRMC,000032.90,A,3348.1094,S,15051.7104,E,109.3,274.4,010126,,*30
$GNGGA,000033.00,3348.1124,S,15051.7107,E,4,18,0.6,30.0,M,46.9,M,,*56
$GNRMC,000033.00,A,3348.1124,S,15051.7107,E,109.4,274.4,010126,,*36
$GNGGA,000033.10,3348.1155,S,15051.7110,E,4,18,0.6,30.0,M,46.9,M,,*57
$GNRMC,000033.10,A,3348.1155,S,15051.7110,E,109.5,274.4,010126,,*36
$GNGGA,000033.20,3348.1185,S,15051.7115,E,4,18,0.6,30.0,M,46.9,M,,*5C
$GNRMC,000033.20,A,3348.1185,S,15051.7115,E,109.6,283.2,010126,,*30
$GNGGA,000033.30,3348.1214,S,15051.7123,E,4,18,0.6,30.0,M,46.9,M,,*53
$GNRMC,000033.30,A,3348.1214,S,15051.7123,E,109.6,283.2,010126,,*3F
$GNGGA,000033.40,3348.1244,S,15051.7132,E,4,18,0.6,30.0,M,46.9,M,,*51
$GNRMC,000033.40,A,3348.1244,S,15051.7132,E,109.7,283.2,010126,,*3C
$GNGGA,000033.50,3348.1274,S,15051.7140,E,4,18,0.6,30.0,M,46.9,M,,*56
$GNRMC,000033.50,A,3348.1274,S,15051.7140,E,109.8,283.2,010126,,*34
$GNGGA,000033.60,3348.1303,S,15051.7149,E,4,18,0.6,30.0,M,46.9,M,,*5D
$GNRMC,000033.60,A,3348.1303,S,15051.7149,E,109.8,291.4,010126,,*3A
$GNGGA,000033.70,3348.1331,S,15051.7162,E,4,18,0.6,30.0,M,46.9,M,,*54
$GNRMC,000033.70,A,3348.1331,S,15051.7162,E,109.9,291.4,010126,,*32
$GNGGA,000033.80,3348.1360,S,15051.7176,E,4,18,0.6,30.0,M,46.9,M,,*5A
$GNRMC,000033.80,A,3348.1360,S,15051.7176,E,110.0,291.4,010126,,*3D
$GNGGA,000033.90,3348.1388,S,15051.7189,E,4,18,0.6,30.0,M,46.9,M,,*5D
$GNRMC,000033.90,A,3348.1388,S,15051.7189,E,110.0,291.4,010126,,*3A
$GNGGA,000034.00,3348.1417,S,15051.7203,E,4,18,0.6,30.0,M,46.9,M,,*53
$GNRMC,000034.00,A,3348.1417,S,15051.7203,E,110.1,291.4,010126,,*35
$GNGGA,000034.10,3348.1444,S,15051.7220,E,4,18,0.6,30.0,M,46.9,M,,*55
$GNRMC,000034.10,A,3348.1444,S,15051.7220,E,110.2,299.0,010126,,*3C
$GNGGA,000034.20,3348.1470,S,15051.7238,E,4,18,0.6,30.0,M,46.9,M,,*58
$GNRMC,000034.20,A,3348.1470,S,15051.7238,E,110.3,299.0,010126,,*30
$GNGGA,000034.30,3348.1497,S,15051.7255,E,4,18,0.6,30.0,M,46.9,M,,*5B
$GNRMC,000034.30,A,3348.1497,S,15051.7255,E,110.3,299.0,010126,,*33
$GNGGA,000034.40,3348.1524,S,15051.7273,E,4,18,0.6,30.0,M,46.9,M,,*51
$GNRMC,000034.40,A,3348.1524,S,15051.7273,E,110.4,299.0,010126,,*3E
$GNGGA,000034.50,3348.1550,S,15051.7292,E,4,18,0.6,30.0,M,46.9,M,,*5C
$GNRMC,000034.50,A,3348.1550,S,15051.7292,E,110.5,305.8,010126,,*3E
$GNGGA,000034.60,3348.1575,S,15051.7314,E,4,18,0.6,30.0,M,46.9,M,,*57
$GNRMC,000034.60,A,3348.1575,S,15051.7314,E,110.5,305.8,010126,,*35
$GNGGA,000034.70,3348.1600,S,15051.7335,E,4,18,0.6,30.0,M,46.9,M,,*54
$GNRMC,000034.70,A,3348.1600,S,15051.7335,E,110.6,305.8,010126,,*35
$GNGGA,000034.80,3348.1625,S,15051.7357,E,4,18,0.6,30.0,M,46.9,M,,*58
$GNRMC,000034.80,A,3348.1625,S,15051.7357,E,110.7,305.8,010126,,*38
$GNGGA,000034.90,3348.1650,S,15051.7379,E,4,18,0.6,30.0,M,46.9,M,,*57
$GNRMC,000034.90,A,3348.1650,S,15051.7379,E,110.7,305.8,010126,,*37
$GNGGA,000035.00,3348.1674,S,15051.7402,E,4,18,0.6,30.0,M,46.9,M,,*52
$GNRMC,000035.00,A,3348.1674,S,15051.7402,E,110.8,311.8,010126,,*38
$GNGGA,000035.10,3348.1697,S,15051.7427,E,4,18,0.6,30.0,M,46.9,M,,*59
$GNRMC,000035.10,A,3348.1697,S,15051.7427,E,110.9,311.8,010126,,*32
$GNGGA,000035.20,3348.1720,S,15051.7451,E,4,18,0.6,30.0,M,46.9,M,,*56
$GNRMC,000035.20,A,3348.1720,S,15051.7451,E,110.9,311.8,010126,,*3D
$GNGGA,000035.30,3348.1743,S,15051.7476,E,4,18,0.6,30.0,M,46.9,M,,*57
$GNRMC,000035.30,A,3348.1743,S,15051.7476,E,111.0,311.8,010126,,*34
$GNGGA,000035.40,3348.1766,S,15051.7501,E,4,18,0.6,30.0,M,46.9,M,,*56
$GNRMC,000035.40,A,3348.1766,S,15051.7501,E,111.1,311.8,010126,,*34
$GNGGA,000035.50,3348.1788,S,15051.7526,E,4,18,0.6,30.0,M,46.9,M,,*52
$GNRMC,000035.50,A,3348.1788,S,15051.7526,E,111.1,317.1,010126,,*3F
$GNGGA,000035.60,3348.1809,S,15051.7554,E,4,18,0.6,30.0,M,46.9,M,,*52
$GNRMC,000035.60,A,3348.1809,S,15051.7554,E,111.2,317.1,010126,,*3C
$GNGGA,000035.70,3348.1830,S,15051.7581,E,4,18,0.6,30.0,M,46.9,M,,*51
$GNRMC,000035.70,A,3348.1830,S,15051.7581,E,111.2,317.1,010126,,*3F
$GNGGA,000035.80,3348.1851,S,15051.7608,E,4,18,0.6,30.0,M,46.9,M,,*5B
$GNRMC,000035.80,A,3348.1851,S,15051.7608,E,111.3,317.1,010126,,*34
$GNGGA,000035.90,3348.1872,S,15051.7635,E,4,18,0.6,30.0,M,46.9,M,,*55
$GNRMC,000035.90,A,3348.1872,S,15051.7635,E,111.4,317.1,010126,,*3D
$GNGGA,000036.00,3348.1893,S,15051.7663,E,4,18,0.6,30.0,M,46.9,M,,*53
$GNRMC,000036.00,A,3348.1893,S,15051.7663,E,111.4,321.8,010126,,*37
$GNGGA,000036.10,3348.1912,S,15051.7692,E,4,18,0.6,30.0,M,46.9,M,,*54
$GNRMC,000036.10,A,3348.1912,S,15051.7692,E,111.5,321.8,010126,,*31
$GNGGA,000036.20,3348.1931,S,15051.7721,E,4,18,0.6,30.0,M,46.9,M,,*5F
$GNRMC,000036.20,A,3348.1931,S,15051.7721,E,111.5,321.8,010126,,*3A
$GNGGA,000036.30,3348.1950,S,15051.7750,E,4,18,0.6,30.0,M,46.9,M,,*5F
$GNRMC,000036.30,A,3348.1950,S,15051.7750,E,111.6,321.8,010126,,*39
$GNGGA,000036.40,3348.1969,S,15051.7780,E,4,18,0.6,30.0,M,46.9,M,,*5F
$GNRMC,000036.40,A,3348.1969,S,15051.7780,E,111.7,321.8,010126,,*38
$GNGGA,000036.50,3348.1988,S,15051.7809,E,4,18,0.6,30.0,M,46.9,M,,*5F
$GNRMC,000036.50,A,3348.1988,S,15051.7809,E,111.7,321.8,010126,,*38
$GNGGA,000036.60,3348.2007,S,15051.7839,E,4,18,0.6,30.0,M,46.9,M,,*52
$GNRMC,000036.60,A,3348.2007,S,15051.7839,E,111.8,325.9,010126,,*3F
$GNGGA,000036.70,3348.2024,S,15051.7870,E,4,18,0.6,30.0,M,46.9,M,,*5F
$GNRMC,000036.70,A,3348.2024,S,15051.7870,E,111.8,325.9,010126,,*32
$GNGGA,000036.80,3348.2042,S,15051.7901,E,4,18,0.6,30.0,M,46.9,M,,*57
$GNRMC,000036.80,A,3348.2042,S,15051.7901,E,111.9,325.9,010126,,*3B
$GNGGA,000036.90,3348.2059,S,15051.7932,E,4,18,0.6,30.0,M,46.9,M,,*5C
$GNRMC,000036.90,A,3348.2059,S,15051.7932,E,111.9,325.9,010126,,*30
$GNGGA,000037.00,3348.2077,S,15051.7962,E,4,18,0.6,30.0,M,46.9,M,,*5D
$GNRMC,000037.00,A,3348.2077,S,15051.7962,E,112.0,325.9,010126,,*3B
$GNGGA,000037.10,3348.2094,S,15051.7993,E,4,18,0.6,30.0,M,46.9,M,,*5F
$GNRMC,000037.10,A,3348.2094,S,15051.7993,E,112.0,325.9,010126,,*39
$GNGGA,000037.20,3348.2111,S,15051.8025,E,4,18,0.6,30.0,M,46.9,M,,*5B
$GNRMC,000037.20,A,3348.2111,S,15051.8025,E,112.1,329.6,010126,,*3F
$GNGGA,000037.30,3348.2127,S,15051.8057,E,4,18,0.6,30.0,M,46.9,M,,*5A
$GNRMC,000037.30,A,3348.2127,S,15051.8057,E,112.1,329.6,010126,,*3E
$GNGGA,000037.40,3348.2143,S,15051.8089,E,4,18,0.6,30.0,M,46.9,M,,*5C
$GNRMC,000037.40,A,3348.2143,S,15051.8089,E,112.2,329.6,010126,,*3B
$GNGGA,000037.50,3348.2158,S,15051.8122,E,4,18,0.6,30.0,M,46.9,M,,*57
$GNRMC,000037.50,A,3348.2158,S,15051.8122,E,112.2,329.6,010126,,*30
$GNGGA,000037.60,3348.2174,S,15051.8154,E,4,18,0.6,30.0,M,46.9,M,,*5B
$GNRMC,000037.60,A,3348.2174,S,15051.8154,E,112.3,329.6,010126,,*3D
$GNGGA,000037.70,3348.2190,S,15051.8186,E,4,18,0.6,30.0,M,46.9,M,,*5F
$GNRMC,000037.70,A,3348.2190,S,15051.8186,E,112.3,329.6,010126,,*39
$GNGGA,000037.80,3348.2206,S,15051.8219,E,4,18,0.6,30.0,M,46.9,M,,*59
$GNRMC,000037.80,A,3348.2206,S,15051.8219,E,112.4,329.6,010126,,*38
$GNGGA,000037.90,3348.2220,S,15051.8252,E,4,18,0.6,30.0,M,46.9,M,,*53
$GNRMC,000037.90,A,3348.2220,S,15051.8252,E,112.4,332.8,010126,,*36
$GNGGA,000038.00,3348.2235,S,15051.8285,E,4,18,0.6,30.0,M,46.9,M,,*5B
$GNRMC,000038.00,A,3348.2235,S,15051.8285,E,112.4,332.8,010126,,*3E
$GNGGA,000038.10,3348.2249,S,15051.8319,E,4,18,0.6,30.0,M,46.9,M,,*55
$GNRMC,000038.10,A,3348.2249,S,15051.8319,E,112.5,332.8,010126,,*31
$GNGGA,000038.20,3348.2263,S,15051.8352,E,4,18,0.6,30.0,M,46.9,M,,*51
$GNRMC,000038.20,A,3348.2263,S,15051.8352,E,112.5,332.8,010126,,*35
$GNGGA,000038.30,3348.2277,S,15051.8386,E,4,18,0.6,30.0,M,46.9,M,,*5C
$GNRMC,000038.30,A,3348.2277,S,15051.8386,E,112.6,332.8,010126,,*3B
$GNGGA,000038.40,3348.2292,S,15051.8419,E,4,18,0.6,30.0,M,46.9,M,,*51
$GNRMC,000038.40,A,3348.2292,S,15051.8419,E,112.6,332.8,010126,,*36
$GNGGA,000038.50,3348.2306,S,15051.8453,E,4,18,0.6,30.0,M,46.9,M,,*52
$GNRMC,000038.50,A,3348.2306,S,15051.8453,E,112.6,335.8,010126,,*32
$GNGGA,000038.60,3348.2319,S,15051.8487,E,4,18,0.6,30.0,M,46.9,M,,*56
$GNRMC,000038.60,A,3348.2319,S,15051.8487,E,112.7,335.8,010126,,*37
$GNGGA,000038.70,3348.2331,S,15051.8521,E,4,18,0.6,30.0,M,46.9,M,,*50
$GNRMC,000038.70,A,3348.2331,S,15051.8521,E,112.7,335.8,010126,,*31
$GNGGA,000038.80,3348.2344,S,15051.8556,E,4,18,0.6,30.0,M,46.9,M,,*5D
$GNRMC,000038.80,A,3348.2344,S,15051.8556,E,112.7,335.8,010126,,*3C
$GNGGA,000038.90,3348.2357,S,15051.8590,E,4,18,0.6,30.0,M,46.9,M,,*54
$GNRMC,000038.90,A,3348.2357,S,15051.8590,E,112.8,335.8,010126,,*3A
$GNGGA,000039.00,3348.2370,S,15051.8624,E,4,18,0.6,30.0,M,46.9,M,,*55
$GNRMC,000039.00,A,3348.2370,S,15051.8624,E,112.8,335.8,010126,,*3B
$GNGGA,000039.10,3348.2383,S,15051.8659,E,4,18,0.6,30.0,M,46.9,M,,*52
$GNRMC,000039.10,A,3348.2383,S,15051.8659,E,112.8,335.8,010126,,*3C
$GNGGA,000039.20,3348.2396,S,15051.8693,E,4,18,0.6,30.0,M,46.9,M,,*53
$GNRMC,000039.20,A,3348.2396,S,15051.8693,E,112.9,335.8,010126,,*3C
$GNGGA,000039.30,3348.2407,S,15051.8728,E,4,18,0.6,30.0,M,46.9,M,,*5C
$GNRMC,000039.30,A,3348.2407,S,15051.8728,E,112.9,338.5,010126,,*33
$GNGGA,000039.40,3348.2419,S,15051.8763,E,4,18,0.6,30.0,M,46.9,M,,*5B
$GNRMC,000039.40,A,3348.2419,S,15051.8763,E,112.9,338.5,010126,,*34
$GNGGA,000039.50,3348.2430,S,15051.8798,E,4,18,0.6,30.0,M,46.9,M,,*55
$GNRMC,000039.50,A,3348.2430,S,15051.8798,E,112.9,338.5,010126,,*3A
$GNGGA,000039.60,3348.2442,S,15051.8833,E,4,18,0.6,30.0,M,46.9,M,,*5D
$GNRMC,000039.60,A,3348.2442,S,15051.8833,E,113.0,338.5,010126,,*3A
$GNGGA,000039.70,3348.2453,S,15051.8868,E,4,18,0.6,30.0,M,46.9,M,,*52
$GNRMC,000039.70,A,3348.2453,S,15051.8868,E,113.0,338.5,010126,,*35
$GNGGA,000039.80,3348.2465,S,15051.8904,E,4,18,0.6,30.0,M,46.9,M,,*53
$GNRMC,000039.80,A,3348.2465,S,15051.8904,E,113.0,338.5,010126,,*34
$GNGGA,000039.90,3348.2476,S,15051.8939,E,4,18,0.6,30.0,M,46.9,M,,*5E
$GNRMC,000039.90,A,3348.2476,S,15051.8939,E,113.0,338.5,010126,,*39
$GNGGA,000040.00,3348.2487,S,15051.8974,E,4,18,0.6,30.0,M,46.9,M,,*5E
$GNRMC,000040.00,A,3348.2487,S,15051.8974,E,113.0,340.9,010126,,*3A
$GNGGA,000040.10,3348.2497,S,15051.9010,E,4,18,0.6,30.0,M,46.9,M,,*54
$GNRMC,000040.10,A,3348.2497,S,15051.9010,E,113.0,340.9,010126,,*30
$GNGGA,000040.20,3348.2507,S,15051.9045,E,4,18,0.6,30.0,M,46.9,M,,*5F
$GNRMC,000040.20,A,3348.2507,S,15051.9045,E,113.1,340.9,010126,,*3A
$GNGGA,000040.30,3348.2518,S,15051.9081,E,4,18,0.6,30.0,M,46.9,M,,*58
$GNRMC,000040.30,A,3348.2518,S,15051.9081,E,113.1,340.9,010126,,*3D
$GNGGA,000040.40,3348.2528,S,15051.9117,E,4,18,0.6,30.0,M,46.9,M,,*52
$GNRMC,000040.40,A,3348.2528,S,15051.9117,E,113.1,340.9,010126,,*37
$GNGGA,000040.50,3348.2538,S,15051.9153,E,4,18,0.6,30.0,M,46.9,M,,*52
$GNRMC,000040.50,A,3348.2538,S,15051.9153,E,113.1,340.9,010126,,*37
$GNGGA,000040.60,3348.2548,S,15051.9188,E,4,18,0.6,30.0,M,46.9,M,,*50
$GNRMC,000040.60,A,3348.2548,S,15051.9188,E,113.1,340.9,010126,,*35
$GNGGA,000040.70,3348.2559,S,15051.9224,E,4,18,0.6,30.0,M,46.9,M,,*54
$GNRMC,000040.70,A,3348.2559,S,15051.9224,E,113.1,340.9,010126,,*31
$GNGGA,000040.80,3348.2568,S,15051.9260,E,4,18,0.6,30.0,M,46.9,M,,*59
$GNRMC,000040.80,A,3348.2568,S,15051.9260,E,113.1,343.2,010126,,*34
$GNGGA,000040.90,3348.2577,S,15051.9296,E,4,18,0.6,30.0,M,46.9,M,,*5F
$GNRMC,000040.90,A,3348.2577,S,15051.9296,E,113.1,343.2,010126,,*32
$GNGGA,000041.00,3348.2586,S,15051.9332,E,4,18,0.6,30.0,M,46.9,M,,*56
$GNRMC,000041.00,A,3348.2586,S,15051.9332,E,113.1,343.2,010126,,*3B
$GNGGA,000041.10,3348.2595,S,15051.9369,E,4,18,0.6,30.0,M,46.9,M,,*5B
$GNRMC,000041.10,A,3348.2595,S,15051.9369,E,113.1,343.2,010126,,*36
$GNGGA,000041.20,3348.2604,S,15051.9405,E,4,18,0.6,30.0,M,46.9,M,,*5E
$GNRMC,000041.20,A,3348.2604,S,15051.9405,E,113.1,343.2,010126,,*33
$GNGGA,000041.30,3348.2613,S,15051.9441,E,4,18,0.6,30.0,M,46.9,M,,*59
$GNRMC,000041.30,A,3348.2613,S,15051.9441,E,113.1,343.2,010126,,*34
$GNGGA,000041.40,3348.2622,S,15051.9477,E,4,18,0.6,30.0,M,46.9,M,,*59
$GNRMC,000041.40,A,3348.2622,S,15051.9477,E,113.1,343.2,010126,,*34
$GNGGA,000041.50,3348.2631,S,15051.9513,E,4,18,0.6,30.0,M,46.9,M,,*59
$GNRMC,000041.50,A,3348.2631,S,15051.9513,E,113.1,343.2,010126,,*34
$GNGGA,000041.60,3348.2639,S,15051.9550,E,4,18,0.6,30.0,M,46.9,M,,*55
$GNRMC,000041.60,A,3348.2639,S,15051.9550,E,113.1,345.3,010126,,*3F
$GNGGA,000041.70,3348.2647,S,15051.9586,E,4,18,0.6,30.0,M,46.9,M,,*56
$GNRMC,000041.70,A,3348.2647,S,15051.9586,E,113.1,345.3,010126,,*3C
$GNGGA,000041.80,3348.2655,S,15051.9623,E,4,18,0.6,30.0,M,46.9,M,,*56
$GNRMC,000041.80,A,3348.2655,S,15051.9623,E,113.1,345.3,010126,,*3C
$GNGGA,000041.90,3348.2663,S,15051.9660,E,4,18,0.6,30.0,M,46.9,M,,*55
$GNRMC,000041.90,A,3348.2663,S,15051.9660,E,113.1,345.3,010126,,*3F
$GNGGA,000042.00,3348.2671,S,15051.9696,E,4,18,0.6,30.0,M,46.9,M,,*55
$GNRMC,000042.00,A,3348.2671,S,15051.9696,E,113.1,345.3,010126,,*3F
$GNGGA,000042.10,3348.2679,S,15051.9733,E,4,18,0.6,30.0,M,46.9,M,,*52
$GNRMC,000042.10,A,3348.2679,S,15051.9733,E,113.1,345.3,010126,,*38
$GNGGA,000042.20,3348.2687,S,15051.9769,E,4,18,0.6,30.0,M,46.9,M,,*5F
$GNRMC,000042.20,A,3348.2687,S,15051.9769,E,113.1,345.3,010126,,*35
$GNGGA,000042.30,3348.2695,S,15051.9806,E,4,18,0.6,30.0,M,46.9,M,,*5B
$GNRMC,000042.30,A,3348.2695,S,15051.9806,E,113.1,345.3,010126,,*31
$GNGGA,000042.40,3348.2702,S,15051.9842,E,4,18,0.6,30.0,M,46.9,M,,*53
$GNRMC,000042.40,A,3348.2702,S,15051.9842,E,113.0,347.3,010126,,*3A
$GNGGA,000042.50,3348.2709,S,15051.9879,E,4,18,0.6,30.0,M,46.9,M,,*51
$GNRMC,000042.50,A,3348.2709,S,15051.9879,E,113.0,347.3,010126,,*38
$GNGGA,000042.60,3348.2716,S,15051.9916,E,4,18,0.6,30.0,M,46.9,M,,*54
$GNRMC,000042.60,A,3348.2716,S,15051.9916,E,113.0,347.3,010126,,*3D
$GNGGA,000042.70,3348.2723,S,15051.9953,E,4,18,0.6,30.0,M,46.9,M,,*52
$GNRMC,000042.70,A,3348.2723,S,15051.9953,E,113.0,347.3,010126,,*3B
$GNGGA,000042.80,3348.2730,S,15051.9990,E,4,18,0.6,30.0,M,46.9,M,,*50
$GNRMC,000042.80,A,3348.2730,S,15051.9990,E,113.0,347.3,010126,,*39
$GNGGA,000042.90,3348.2737,S,15052.0027,E,4,18,0.6,30.0,M,46.9,M,,*59
$GNRMC,000042.90,A,3348.2737,S,15052.0027,E,112.9,347.3,010126,,*38
$GNGGA,000043.00,3348.2744,S,15052.0063,E,4,18,0.6,30.0,M,46.9,M,,*55
$GNRMC,000043.00,A,3348.2744,S,15052.0063,E,112.9,347.3,010126,,*34
$GNGGA,000043.10,3348.2751,S,15052.0100,E,4,18,0.6,30.0,M,46.9,M,,*54
$GNRMC,000043.10,A,3348.2751,S,15052.0100,E,112.9,347.3,010126,,*35
$GNGGA,000043.20,3348.2757,S,15052.0137,E,4,18,0.6,30.0,M,46.9,M,,*55
$GNRMC,000043.20,A,3348.2757,S,15052.0137,E,112.9,349.2,010126,,*3B
$GNGGA,000043.30,3348.2763,S,15052.0174,E,4,18,0.6,30.0,M,46.9,M,,*54
$GNRMC,000043.30,A,3348.2763,S,15052.0174,E,112.8,349.2,010126,,*3B
$GNGGA,000043.40,3348.2769,S,15052.0211,E,4,18,0.6,30.0,M,46.9,M,,*59
$GNRMC,000043.40,A,3348.2769,S,15052.0211,E,112.8,349.2,010126,,*36
$GNGGA,000043.50,3348.2775,S,15052.0248,E,4,18,0.6,30.0,M,46.9,M,,*59
$GNRMC,000043.50,A,3348.2775,S,15052.0248,E,112.8,349.2,010126,,*36
$GNGGA,000043.60,3348.2781,S,15052.0285,E,4,18,0.6,30.0,M,46.9,M,,*50
$GNRMC,000043.60,A,3348.2781,S,15052.0285,E,112.8,349.2,010126,,*3F
$GNGGA,000043.70,3348.2787,S,15052.0322,E,4,18,0.6,30.0,M,46.9,M,,*5B
$GNRMC,000043.70,A,3348.2787,S,15052.0322,E,112.7,349.2,010126,,*3B
$GNGGA,000043.80,3348.2793,S,15052.0359,E,4,18,0.6,30.0,M,46.9,M,,*5D
$GNRMC,000043.80,A,3348.2793,S,15052.0359,E,112.7,349.2,010126,,*3D
$GNGGA,000043.90,3348.2799,S,15052.0396,E,4,18,0.6,30.0,M,46.9,M,,*55
$GNRMC,000043.90,A,3348.2799,S,15052.0396,E,112.7,349.2,010126,,*35
$GNGGA,000044.00,3348.2804,S,15052.0433,E,4,18,0.6,30.0,M,46.9,M,,*58
$GNRMC,000044.00,A,3348.2804,S,15052.0433,E,112.6,349.2,010126,,*39
$GNGGA,000044.10,3348.2810,S,15052.0470,E,4,18,0.6,30.0,M,46.9,M,,*5B
$GNRMC,000044.10,A,3348.2810,S,15052.0470,E,112.6,351.0,010126,,*31
$GNGGA,000044.20,3348.2815,S,15052.0507,E,4,18,0.6,30.0,M,46.9,M,,*5C
$GNRMC,000044.20,A,3348.2815,S,15052.0507,E,112.5,351.0,010126,,*35
$GNGGA,000044.30,3348.2820,S,15052.0544,E,4,18,0.6,30.0,M,46.9,M,,*5C
$GNRMC,000044.30,A,3348.2820,S,15052.0544,E,112.5,351.0,010126,,*35
$GNGGA,000044.40,3348.2825,S,15052.0581,E,4,18,0.6,30.0,M,46.9,M,,*57
$GNRMC,000044.40,A,3348.2825,S,15052.0581,E,112.5,351.0,010126,,*3E
$GNGGA,000044.50,3348.2829,S,15052.0619,E,4,18,0.6,30.0,M,46.9,M,,*58
$GNRMC,000044.50,A,3348.2829,S,15052.0619,E,112.4,351.0,010126,,*30
$GNGGA,000044.60,3348.2834,S,15052.0656,E,4,18,0.6,30.0,M,46.9,M,,*5C
$GNRMC,000044.60,A,3348.2834,S,15052.0656,E,112.4,351.0,010126,,*34
$GNGGA,000044.70,3348.2839,S,15052.0693,E,4,18,0.6,30.0,M,46.9,M,,*59
$GNRMC,000044.70,A,3348.2839,S,15052.0693,E,112.3,351.0,010126,,*36
$GNGGA,000044.80,3348.2844,S,15052.0730,E,4,18,0.6,30.0,M,46.9,M,,*54
$GNRMC,000044.80,A,3348.2844,S,15052.0730,E,112.3,351.0,010126,,*3B
$GNGGA,000044.90,3348.2849,S,15052.0767,E,4,18,0.6,30.0,M,46.9,M,,*5A
$GNRMC,000044.90,A,3348.2849,S,15052.0767,E,112.2,351.0,010126,,*34
$GNGGA,000045.00,3348.2854,S,15052.0804,E,4,18,0.6,30.0,M,46.9,M,,*54
$GNRMC,000045.00,A,3348.2854,S,15052.0804,E,112.2,352.7,010126,,*3E
$GNGGA,000045.10,3348.2858,S,15052.0841,E,4,18,0.6,30.0,M,46.9,M,,*58
$GNRMC,000045.10,A,3348.2858,S,15052.0841,E,112.2,352.7,010126,,*32
$GNGGA,000045.20,3348.2861,S,15052.0878,E,4,18,0.6,30.0,M,46.9,M,,*5B
$GNRMC,000045.20,A,3348.2861,S,15052.0878,E,112.1,352.7,010126,,*32
$GNGGA,000045.30,3348.2865,S,15052.0915,E,4,18,0.6,30.0,M,46.9,M,,*54
$GNRMC,000045.30,A,3348.2865,S,15052.0915,E,112.1,352.7,010126,,*3D
$GNGGA,000045.40,3348.2869,S,15052.0953,E,4,18,0.6,30.0,M,46.9,M,,*5D
$GNRMC,000045.40,A,3348.2869,S,15052.0953,E,112.0,352.7,010126,,*35
$GNGGA,000045.50,3348.2873,S,15052.0990,E,4,18,0.6,30.0,M,46.9,M,,*58
$GNRMC,000045.50,A,3348.2873,S,15052.0990,E,112.0,352.7,010126,,*30
$GNGGA,000045.60,3348.2877,S,15052.1027,E,4,18,0.6,30.0,M,46.9,M,,*5B
$GNRMC,000045.60,A,3348.2877,S,15052.1027,E,111.9,352.7,010126,,*39
$GNGGA,000045.70,3348.2881,S,15052.1064,E,4,18,0.6,30.0,M,46.9,M,,*54
$GNRMC,000045.70,A,3348.2881,S,15052.1064,E,111.9,352.7,010126,,*36
$GNGGA,000045.80,3348.2885,S,15052.1101,E,4,18,0.6,30.0,M,46.9,M,,*5D
$GNRMC,000045.80,A,3348.2885,S,15052.1101,E,111.8,352.7,010126,,*3E
$GNGGA,000045.90,3348.2889,S,15052.1138,E,4,18,0.6,30.0,M,46.9,M,,*5A
$GNRMC,000045.90,A,3348.2889,S,15052.1138,E,111.7,354.4,010126,,*33
$GNGGA,000046.00,3348.2892,S,15052.1175,E,4,18,0.6,30.0,M,46.9,M,,*53
$GNRMC,000046.00,A,3348.2892,S,15052.1175,E,111.7,354.4,010126,,*3A
$GNGGA,000046.10,3348.2895,S,15052.1212,E,4,18,0.6,30.0,M,46.9,M,,*57
$GNRMC,000046.10,A,3348.2895,S,15052.1212,E,111.6,354.4,010126,,*3F
$GNGGA,000046.20,3348.2898,S,15052.1249,E,4,18,0.6,30.0,M,46.9,M,,*57
$GNRMC,000046.20,A,3348.2898,S,15052.1249,E,111.6,354.4,010126,,*3F
$GNGGA,000046.30,3348.2901,S,15052.1286,E,4,18,0.6,30.0,M,46.9,M,,*54
$GNRMC,000046.30,A,3348.2901,S,15052.1286,E,111.5,354.4,010126,,*3F
$GNGGA,000046.40,3348.2904,S,15052.1324,E,4,18,0.6,30.0,M,46.9,M,,*5F
$GNRMC,000046.40,A,3348.2904,S,15052.1324,E,111.5,354.4,010126,,*34
$GNGGA,000046.50,3348.2907,S,15052.1361,E,4,18,0.6,30.0,M,46.9,M,,*5C
$GNRMC,000046.50,A,3348.2907,S,15052.1361,E,111.4,354.4,010126,,*36
$GNGGA,000046.60,3348.2910,S,15052.1398,E,4,18,0.6,30.0,M,46.9,M,,*5F
$GNRMC,000046.60,A,3348.2910,S,15052.1398,E,111.3,354.4,010126,,*32
$GNGGA,000046.70,3348.2913,S,15052.1435,E,4,18,0.6,30.0,M,46.9,M,,*5D
$GNRMC,000046.70,A,3348.2913,S,15052.1435,E,111.3,354.4,010126,,*30
$GNGGA,000046.80,3348.2916,S,15052.1472,E,4,18,0.6,30.0,M,46.9,M,,*54
$GNRMC,000046.80,A,3348.2916,S,15052.1472,E,111.2,354.4,010126,,*38
$GNGGA,000046.90,3348.2918,S,15052.1509,E,4,18,0.6,30.0,M,46.9,M,,*56
$GNRMC,000046.90,A,3348.2918,S,15052.1509,E,111.2,356.0,010126,,*3C
$GNGGA,000047.00,3348.2921,S,15052.1546,E,4,18,0.6,30.0,M,46.9,M,,*5F
$GNRMC,000047.00,A,3348.2921,S,15052.1546,E,111.1,356.0,010126,,*36
$GNGGA,000047.10,3348.2923,S,15052.1583,E,4,18,0.6,30.0,M,46.9,M,,*55
$GNRMC,000047.10,A,3348.2923,S,15052.1583,E,111.0,356.0,010126,,*3D
$GNGGA,000047.20,3348.2925,S,15052.1620,E,4,18,0.6,30.0,M,46.9,M,,*5A
$GNRMC,000047.20,A,3348.2925,S,15052.1620,E,111.0,356.0,010126,,*32
$GNGGA,000047.30,3348.2927,S,15052.1657,E,4,18,0.6,30.0,M,46.9,M,,*59
$GNRMC,000047.30,A,3348.2927,S,15052.1657,E,110.9,356.0,010126,,*39
$GNGGA,000047.40,3348.2929,S,15052.1694,E,4,18,0.6,30.0,M,46.9,M,,*5F
$GNRMC,000047.40,A,3348.2929,S,15052.1694,E,110.8,356.0,010126,,*3E
$GNGGA,000047.50,3348.2931,S,15052.1731,E,4,18,0.6,30.0,M,46.9,M,,*59
$GNRMC,000047.50,A,3348.2931,S,15052.1731,E,110.8,356.0,010126,,*38
$GNGGA,000047.60,3348.2933,S,15052.1768,E,4,18,0.6,30.0,M,46.9,M,,*54
$GNRMC,000047.60,A,3348.2933,S,15052.1768,E,110.7,356.0,010126,,*3A
$GNGGA,000047.70,3348.2935,S,15052.1804,E,4,18,0.6,30.0,M,46.9,M,,*56
$GNRMC,000047.70,A,3348.2935,S,15052.1804,E,110.6,356.0,010126,,*39
$GNGGA,000047.80,3348.2937,S,15052.1841,E,4,18,0.6,30.0,M,46.9,M,,*5A
$GNRMC,000047.80,A,3348.2937,S,15052.1841,E,110.6,357.6,010126,,*32
$GNGGA,000047.90,3348.2939,S,15052.1878,E,4,18,0.6,30.0,M,46.9,M,,*5F
$GNRMC,000047.90,A,3348.2939,S,15052.1878,E,110.5,357.6,010126,,*34
$GNGGA,000048.00,3348.2940,S,15052.1915,E,4,18,0.6,30.0,M,46.9,M,,*5D
$GNRMC,000048.00,A,3348.2940,S,15052.1915,E,110.4,357.6,010126,,*37
$GNGGA,000048.10,3348.2941,S,15052.1952,E,4,18,0.6,30.0,M,46.9,M,,*5E
$GNRMC,000048.10,A,3348.2941,S,15052.1952,E,110.4,357.6,010126,,*34
$GNGGA,000048.20,3348.2942,S,15052.1989,E,4,18,0.6,30.0,M,46.9,M,,*58
$GNRMC,000048.20,A,3348.2942,S,15052.1989,E,110.3,357.6,010126,,*35
$GNGGA,000048.30,3348.2944,S,15052.2026,E,4,18,0.6,30.0,M,46.9,M,,*50
$GNRMC,000048.30,A,3348.2944,S,15052.2026,E,110.2,357.6,010126,,*3C
$GNGGA,000048.40,3348.2945,S,15052.2062,E,4,18,0.6,30.0,M,46.9,M,,*56
$GNRMC,000048.40,A,3348.2945,S,15052.2062,E,110.2,357.6,010126,,*3A
$GNGGA,000048.50,3348.2946,S,15052.2099,E,4,18,0.6,30.0,M,46.9,M,,*50
$GNRMC,000048.50,A,3348.2946,S,15052.2099,E,110.1,357.6,010126,,*3F
$GNGGA,000048.60,3348.2948,S,15052.2136,E,4,18,0.6,30.0,M,46.9,M,,*59
$GNRMC,000048.60,A,3348.2948,S,15052.2136,E,110.0,357.6,010126,,*37
$GNGGA,000048.70,3348.2949,S,15052.2173,E,4,18,0.6,30.0,M,46.9,M,,*58
$GNRMC,000048.70,A,3348.2949,S,15052.2173,E,109.9,357.6,010126,,*37
$GNGGA,000048.80,3348.2949,S,15052.2209,E,4,18,0.6,30.0,M,46.9,M,,*59
$GNRMC,000048.80,A,3348.2949,S,15052.2209,E,109.9,359.2,010126,,*3C
$GNGGA,000048.90,3348.2950,S,15052.2246,E,4,18,0.6,30.0,M,46.9,M,,*5B
$GNRMC,000048.90,A,3348.2950,S,15052.2246,E,109.8,359.2,010126,,*3F
$GNGGA,000049.00,3348.2950,S,15052.2283,E,4,18,0.6,30.0,M,46.9,M,,*5A
$GNRMC,000049.00,A,3348.2950,S,15052.2283,E,109.7,359.2,010126,,*31
$GNGGA,000049.10,3348.2951,S,15052.2319,E,4,18,0.6,30.0,M,46.9,M,,*58
$GNRMC,000049.10,A,3348.2951,S,15052.2319,E,109.7,359.2,010126,,*33
$GNGGA,000049.20,3348.2951,S,15052.2356,E,4,18,0.6,30.0,M,46.9,M,,*50
$GNRMC,000049.20,A,3348.2951,S,15052.2356,E,109.6,359.2,010126,,*3A
$GNGGA,000049.30,3348.2952,S,15052.2393,E,4,18,0.6,30.0,M,46.9,M,,*5B
$GNRMC,000049.30,A,3348.2952,S,15052.2393,E,109.5,359.2,010126,,*32
$GNGGA,000049.40,3348.2952,S,15052.2429,E,4,18,0.6,30.0,M,46.9,M,,*5A
$GNRMC,000049.40,A,3348.2952,S,15052.2429,E,109.5,359.2,010126,,*33
$GNGGA,000049.50,3348.2952,S,15052.2466,E,4,18,0.6,30.0,M,46.9,M,,*50
$GNRMC,000049.50,A,3348.2952,S,15052.2466,E,109.4,359.2,010126,,*38
$GNGGA,000049.60,3348.2953,S,15052.2502,E,4,18,0.6,30.0,M,46.9,M,,*51
$GNRMC,000049.60,A,3348.2953,S,15052.2502,E,109.3,359.2,010126,,*3E
$GNGGA,000049.70,3348.2953,S,15052.2539,E,4,18,0.6,30.0,M,46.9,M,,*58
$GNRMC,000049.70,A,3348.2953,S,15052.2539,E,109.2,359.2,010126,,*36
$GNGGA,000049.80,3348.2953,S,15052.2575,E,4,18,0.6,30.0,M,46.9,M,,*5F
$GNRMC,000049.80,A,3348.2953,S,15052.2575,E,109.2,000.8,010126,,*34
$GNGGA,000049.90,3348.2952,S,15052.2612,E,4,18,0.6,30.0,M,46.9,M,,*5D
$GNRMC,000049.90,A,3348.2952,S,15052.2612,E,109.1,000.8,010126,,*35
$GNGGA,000050.00,3348.2952,S,15052.2648,E,4,18,0.6,30.0,M,46.9,M,,*53
$GNRMC,000050.00,A,3348.2952,S,15052.2648,E,109.0,000.8,010126,,*3A
$GNGGA,000050.10,3348.2952,S,15052.2685,E,4,18,0.6,30.0,M,46.9,M,,*53
$GNRMC,000050.10,A,3348.2952,S,15052.2685,E,109.0,000.8,010126,,*3A
$GNGGA,000050.20,3348.2951,S,15052.2721,E,4,18,0.6,30.0,M,46.9,M,,*5C
$GNRMC,000050.20,A,3348.2951,S,15052.2721,E,108.9,000.8,010126,,*3D
$GNGGA,000050.30,3348.2951,S,15052.2757,E,4,18,0.6,30.0,M,46.9,M,,*5C
$GNRMC,000050.30,A,3348.2951,S,15052.2757,E,108.8,000.8,010126,,*3C
$GNGGA,000050.40,3348.2950,S,15052.2794,E,4,18,0.6,30.0,M,46.9,M,,*55
$GNRMC,000050.40,A,3348.2950,S,15052.2794,E,108.8,000.8,010126,,*35
$GNGGA,000050.50,3348.2950,S,15052.2830,E,4,18,0.6,30.0,M,46.9,M,,*55
$GNRMC,000050.50,A,3348.2950,S,15052.2830,E,108.7,000.8,010126,,*3A
$GNGGA,000050.60,3348.2950,S,15052.2866,E,4,18,0.6,30.0,M,46.9,M,,*55
$GNRMC,000050.60,A,3348.2950,S,15052.2866,E,108.6,000.8,010126,,*3B
$GNGGA,000050.70,3348.2949,S,15052.2903,E,4,18,0.6,30.0,M,46.9,M,,*5E
$GNRMC,000050.70,A,3348.2949,S,15052.2903,E,108.5,002.4,010126,,*3D
$GNGGA,000050.80,3348.2948,S,15052.2939,E,4,18,0.6,30.0,M,46.9,M,,*59
$GNRMC,000050.80,A,3348.2948,S,15052.2939,E,108.5,002.4,010126,,*3A
$GNGGA,000050.90,3348.2946,S,15052.2975,E,4,18,0.6,30.0,M,46.9,M,,*5E
$GNRMC,000050.90,A,3348.2946,S,15052.2975,E,108.4,002.4,010126,,*3C
$GNGGA,000051.00,3348.2945,S,15052.3011,E,4,18,0.6,30.0,M,46.9,M,,*5F
$GNRMC,000051.00,A,3348.2945,S,15052.3011,E,108.3,002.4,010126,,*3A
$GNGGA,000051.10,3348.2944,S,15052.3048,E,4,18,0.6,30.0,M,46.9,M,,*53
$GNRMC,000051.10,A,3348.2944,S,15052.3048,E,108.3,002.4,010126,,*36
$GNGGA,000051.20,3348.2943,S,15052.3084,E,4,18,0.6,30.0,M,46.9,M,,*57
$GNRMC,000051.20,A,3348.2943,S,15052.3084,E,108.2,002.4,010126,,*33
$GNGGA,000051.30,3348.2941,S,15052.3120,E,4,18,0.6,30.0,M,46.9,M,,*5B
$GNRMC,000051.30,A,3348.2941,S,15052.3120,E,108.1,002.4,010126,,*3C
$GNGGA,000051.40,3348.2940,S,15052.3156,E,4,18,0.6,30.0,M,46.9,M,,*5C
$GNRMC,000051.40,A,3348.2940,S,15052.3156,E,108.1,002.4,010126,,*3B
$GNGGA,000051.50,3348.2939,S,15052.3192,E,4,18,0.6,30.0,M,46.9,M,,*5B
$GNRMC,000051.50,A,3348.2939,S,15052.3192,E,108.0,002.4,010126,,*3D
$GNGGA,000051.60,3348.2938,S,15052.3228,E,4,18,0.6,30.0,M,46.9,M,,*5B
$GNRMC,000051.60,A,3348.2938,S,15052.3228,E,107.9,002.4,010126,,*3B
$GNGGA,000051.70,3348.2936,S,15052.3264,E,4,18,0.6,30.0,M,46.9,M,,*5C
$GNRMC,000051.70,A,3348.2936,S,15052.3264,E,107.9,004.0,010126,,*3E
$GNGGA,000051.80,3348.2934,S,15052.3300,E,4,18,0.6,30.0,M,46.9,M,,*52
$GNRMC,000051.80,A,3348.2934,S,15052.3300,E,107.8,004.0,010126,,*31
$GNGGA,000051.90,3348.2932,S,15052.3336,E,4,18,0.6,30.0,M,46.9,M,,*50
$GNRMC,000051.90,A,3348.2932,S,15052.3336,E,107.7,004.0,010126,,*3C
$GNGGA,000052.00,3348.2930,S,15052.3372,E,4,18,0.6,30.0,M,46.9,M,,*58
$GNRMC,000052.00,A,3348.2930,S,15052.3372,E,107.7,004.0,010126,,*34
$GNGGA,000052.10,3348.2928,S,15052.3408,E,4,18,0.6,30.0,M,46.9,M,,*5A
$GNRMC,000052.10,A,3348.2928,S,15052.3408,E,107.6,004.0,010126,,*37
$GNGGA,000052.20,3348.2926,S,15052.3444,E,4,18,0.6,30.0,M,46.9,M,,*5F
$GNRMC,000052.20,A,3348.2926,S,15052.3444,E,107.6,004.0,010126,,*32
$GNGGA,000052.30,3348.2924,S,15052.3479,E,4,18,0.6,30.0,M,46.9,M,,*52
$GNRMC,000052.30,A,3348.2924,S,15052.3479,E,107.5,004.0,010126,,*3C
$GNGGA,000052.40,3348.2922,S,15052.3515,E,4,18,0.6,30.0,M,46.9,M,,*58
$GNRMC,000052.40,A,3348.2922,S,15052.3515,E,107.4,004.0,010126,,*37
$GNGGA,000052.50,3348.2920,S,15052.3551,E,4,18,0.6,30.0,M,46.9,M,,*5B
$GNRMC,000052.50,A,3348.2920,S,15052.3551,E,107.4,004.0,010126,,*34
$GNGGA,000052.60,3348.2918,S,15052.3587,E,4,18,0.6,30.0,M,46.9,M,,*58
$GNRMC,000052.60,A,3348.2918,S,15052.3587,E,107.3,004.0,010126,,*30
$GNGGA,000052.70,3348.2915,S,15052.3622,E,4,18,0.6,30.0,M,46.9,M,,*58
$GNRMC,000052.70,A,3348.2915,S,15052.3622,E,107.3,005.6,010126,,*37
$GNGGA,000052.80,3348.2912,S,15052.3658,E,4,18,0.6,30.0,M,46.9,M,,*5D
$GNRMC,000052.80,A,3348.2912,S,15052.3658,E,107.2,005.6,010126,,*33
$GNGGA,000052.90,3348.2909,S,15052.3694,E,4,18,0.6,30.0,M,46.9,M,,*56
$GNRMC,000052.90,A,3348.2909,S,15052.3694,E,107.1,005.6,010126,,*3B
$GNGGA,000053.00,3348.2906,S,15052.3729,E,4,18,0.6,30.0,M,46.9,M,,*56
$GNRMC,000053.00,A,3348.2906,S,15052.3729,E,107.1,005.6,010126,,*3B
$GNGGA,000053.10,3348.2903,S,15052.3765,E,4,18,0.6,30.0,M,46.9,M,,*5A
$GNRMC,000053.10,A,3348.2903,S,15052.3765,E,107.0,005.6,010126,,*36
$GNGGA,000053.20,3348.2900,S,15052.3801,E,4,18,0.6,30.0,M,46.9,M,,*57
$GNRMC,000053.20,A,3348.2900,S,15052.3801,E,107.0,005.6,010126,,*3B
$GNGGA,000053.30,3348.2898,S,15052.3836,E,4,18,0.6,30.0,M,46.9,M,,*52
$GNRMC,000053.30,A,3348.2898,S,15052.3836,E,106.9,005.6,010126,,*36
$GNGGA,000053.40,3348.2895,S,15052.3872,E,4,18,0.6,30.0,M,46.9,M,,*58
$GNRMC,000053.40,A,3348.2895,S,15052.3872,E,106.9,005.6,010126,,*3C
$GNGGA,000053.50,3348.2892,S,15052.3907,E,4,18,0.6,30.0,M,46.9,M,,*5D
$GNRMC,000053.50,A,3348.2892,S,15052.3907,E,106.8,005.6,010126,,*38
$GNGGA,000053.60,3348.2889,S,15052.3943,E,4,18,0.6,30.0,M,46.9,M,,*54
$GNRMC,000053.60,A,3348.2889,S,15052.3943,E,106.7,005.6,010126,,*3E
$GNGGA,000053.70,3348.2885,S,15052.3978,E,4,18,0.6,30.0,M,46.9,M,,*51
$GNRMC,000053.70,A,3348.2885,S,15052.3978,E,106.7,007.3,010126,,*3C
$GNGGA,000053.80,3348.2881,S,15052.4013,E,4,18,0.6,30.0,M,46.9,M,,*59
$GNRMC,000053.80,A,3348.2881,S,15052.4013,E,106.6,007.3,010126,,*35
$GNGGA,000053.90,3348.2878,S,15052.4049,E,4,18,0.6,30.0,M,46.9,M,,*51
$GNRMC,000053.90,A,3348.2878,S,15052.4049,E,106.6,007.3,010126,,*3D
$GNGGA,000054.00,3348.2874,S,15052.4084,E,4,18,0.6,30.0,M,46.9,M,,*52
$GNRMC,000054.00,A,3348.2874,S,15052.4084,E,106.5,007.3,010126,,*3D
$GNGGA,000054.10,3348.2870,S,15052.4119,E,4,18,0.6,30.0,M,46.9,M,,*52
$GNRMC,000054.10,A,3348.2870,S,15052.4119,E,106.5,007.3,010126,,*3D
$GNGGA,000054.20,3348.2866,S,15052.4155,E,4,18,0.6,30.0,M,46.9,M,,*5E
$GNRMC,000054.20,A,3348.2866,S,15052.4155,E,106.4,007.3,010126,,*30
$GNGGA,000054.30,3348.2863,S,15052.4190,E,4,18,0.6,30.0,M,46.9,M,,*53
$GNRMC,000054.30,A,3348.2863,S,15052.4190,E,106.4,007.3,010126,,*3D
$GNGGA,000054.40,3348.2859,S,15052.4225,E,4,18,0.6,30.0,M,46.9,M,,*50
$GNRMC,000054.40,A,3348.2859,S,15052.4225,E,106.4,007.3,010126,,*3E
$GNGGA,000054.50,3348.2855,S,15052.4260,E,4,18,0.6,30.0,M,46.9,M,,*5C
$GNRMC,000054.50,A,3348.2855,S,15052.4260,E,106.3,007.3,010126,,*35
$GNGGA,000054.60,3348.2851,S,15052.4296,E,4,18,0.6,30.0,M,46.9,M,,*52
$GNRMC,000054.60,A,3348.2851,S,15052.4296,E,106.3,009.0,010126,,*36
$GNGGA,000054.70,3348.2847,S,15052.4331,E,4,18,0.6,30.0,M,46.9,M,,*58
$GNRMC,000054.70,A,3348.2847,S,15052.4331,E,106.2,009.0,010126,,*3D
$GNGGA,000054.80,3348.2842,S,15052.4366,E,4,18,0.6,30.0,M,46.9,M,,*50
$GNRMC,000054.80,A,3348.2842,S,15052.4366,E,106.2,009.0,010126,,*35
$GNGGA,000054.90,3348.2837,S,15052.4401,E,4,18,0.6,30.0,M,46.9,M,,*55
$GNRMC,000054.90,A,3348.2837,S,15052.4401,E,106.1,009.0,010126,,*33
$GNGGA,000055.00,3348.2833,S,15052.4436,E,4,18,0.6,30.0,M,46.9,M,,*5D
$GNRMC,000055.00,A,3348.2833,S,15052.4436,E,106.1,009.0,010126,,*3B
$GNGGA,000055.10,3348.2828,S,15052.4471,E,4,18,0.6,30.0,M,46.9,M,,*55
$GNRMC,000055.10,A,3348.2828,S,15052.4471,E,106.1,009.0,010126,,*33
$GNGGA,000055.20,3348.2824,S,15052.4506,E,4,18,0.6,30.0,M,46.9,M,,*5B
$GNRMC,000055.20,A,3348.2824,S,15052.4506,E,106.0,009.0,010126,,*3C
$GNGGA,000055.30,3348.2819,S,15052.4541,E,4,18,0.6,30.0,M,46.9,M,,*57
$GNRMC,000055.30,A,3348.2819,S,15052.4541,E,106.0,009.0,010126,,*30
$GNGGA,000055.40,3348.2814,S,15052.4576,E,4,18,0.6,30.0,M,46.9,M,,*59
$GNRMC,000055.40,A,3348.2814,S,15052.4576,E,105.9,009.0,010126,,*34
$GNGGA,000055.50,3348.2810,S,15052.4611,E,4,18,0.6,30.0,M,46.9,M,,*5E
$GNRMC,000055.50,A,3348.2810,S,15052.4611,E,105.9,009.0,010126,,*33
$GNGGA,000055.60,3348.2805,S,15052.4646,E,4,18,0.6,30.0,M,46.9,M,,*5B
$GNRMC,000055.60,A,3348.2805,S,15052.4646,E,105.9,010.8,010126,,*36
$GNGGA,000055.70,3348.2799,S,15052.4680,E,4,18,0.6,30.0,M,46.9,M,,*5A
$GNRMC,000055.70,A,3348.2799,S,15052.4680,E,105.8,010.8,010126,,*36
$GNGGA,000055.80,3348.2794,S,15052.4715,E,4,18,0.6,30.0,M,46.9,M,,*55
$GNRMC,000055.80,A,3348.2794,S,15052.4715,E,105.8,010.8,010126,,*39
$GNGGA,000055.90,3348.2788,S,15052.4750,E,4,18,0.6,30.0,M,46.9,M,,*58
$GNRMC,000055.90,A,3348.2788,S,15052.4750,E,105.8,010.8,010126,,*34
$GNGGA,000056.00,3348.2783,S,15052.4784,E,4,18,0.6,30.0,M,46.9,M,,*50
$GNRMC,000056.00,A,3348.2783,S,15052.4784,E,105.7,010.8,010126,,*33
$GNGGA,000056.10,3348.2777,S,15052.4819,E,4,18,0.6,30.0,M,46.9,M,,*51
$GNRMC,000056.10,A,3348.2777,S,15052.4819,E,105.7,010.8,010126,,*32
$GNGGA,000056.20,3348.2772,S,15052.4854,E,4,18,0.6,30.0,M,46.9,M,,*5E
$GNRMC,000056.20,A,3348.2772,S,15052.4854,E,105.7,010.8,010126,,*3D
$GNGGA,000056.30,3348.2766,S,15052.4888,E,4,18,0.6,30.0,M,46.9,M,,*5B
$GNRMC,000056.30,A,3348.2766,S,15052.4888,E,105.7,010.8,010126,,*38
$GNGGA,000056.40,3348.2761,S,15052.4923,E,4,18,0.6,30.0,M,46.9,M,,*5B
$GNRMC,000056.40,A,3348.2761,S,15052.4923,E,105.6,010.8,010126,,*39
$GNGGA,000056.50,3348.2755,S,15052.4958,E,4,18,0.6,30.0,M,46.9,M,,*51
$GNRMC,000056.50,A,3348.2755,S,15052.4958,E,105.6,012.7,010126,,*3E
$GNGGA,000056.60,3348.2748,S,15052.4992,E,4,18,0.6,30.0,M,46.9,M,,*58
$GNRMC,000056.60,A,3348.2748,S,15052.4992,E,105.6,012.7,010126,,*37
$GNGGA,000056.70,3348.2742,S,15052.5027,E,4,18,0.6,30.0,M,46.9,M,,*55
$GNRMC,000056.70,A,3348.2742,S,15052.5027,E,105.6,012.7,010126,,*3A
$GNGGA,000056.80,3348.2735,S,15052.5061,E,4,18,0.6,30.0,M,46.9,M,,*58
$GNRMC,000056.80,A,3348.2735,S,15052.5061,E,105.5,012.7,010126,,*34
$GNGGA,000056.90,3348.2729,S,15052.5095,E,4,18,0.6,30.0,M,46.9,M,,*5F
$GNRMC,000056.90,A,3348.2729,S,15052.5095,E,105.5,012.7,010126,,*33
$GNGGA,000057.00,3348.2723,S,15052.5130,E,4,18,0.6,30.0,M,46.9,M,,*53
$GNRMC,000057.00,A,3348.2723,S,15052.5130,E,105.5,012.7,010126,,*3F
$GNGGA,000057.10,3348.2716,S,15052.5164,E,4,18,0.6,30.0,M,46.9,M,,*55
$GNRMC,000057.10,A,3348.2716,S,15052.5164,E,105.5,012.7,010126,,*39
$GNGGA,000057.20,3348.2710,S,15052.5199,E,4,18,0.6,30.0,M,46.9,M,,*52
$GNRMC,000057.20,A,3348.2710,S,15052.5199,E,105.5,012.7,010126,,*3E
$GNGGA,000057.30,3348.2703,S,15052.5233,E,4,18,0.6,30.0,M,46.9,M,,*52
$GNRMC,000057.30,A,3348.2703,S,15052.5233,E,105.5,012.7,010126,,*3E
$GNGGA,000057.40,3348.2697,S,15052.5267,E,4,18,0.6,30.0,M,46.9,M,,*58
$GNRMC,000057.40,A,3348.2697,S,15052.5267,E,105.4,014.7,010126,,*33
$GNGGA,000057.50,3348.2689,S,15052.5301,E,4,18,0.6,30.0,M,46.9,M,,*57
$GNRMC,000057.50,A,3348.2689,S,15052.5301,E,105.4,014.7,010126,,*3C
$GNGGA,000057.60,3348.2682,S,15052.5335,E,4,18,0.6,30.0,M,46.9,M,,*58
$GNRMC,000057.60,A,3348.2682,S,15052.5335,E,105.4,014.7,010126,,*33
$GNGGA,000057.70,3348.2674,S,15052.5369,E,4,18,0.6,30.0,M,46.9,M,,*59
$GNRMC,000057.70,A,3348.2674,S,15052.5369,E,105.4,014.7,010126,,*32
$GNGGA,000057.80,3348.2667,S,15052.5403,E,4,18,0.6,30.0,M,46.9,M,,*5F
$GNRMC,000057.80,A,3348.2667,S,15052.5403,E,105.4,014.7,010126,,*34
$GNGGA,000057.90,3348.2660,S,15052.5438,E,4,18,0.6,30.0,M,46.9,M,,*51
$GNRMC,000057.90,A,3348.2660,S,15052.5438,E,105.4,014.7,010126,,*3A
$GNGGA,000058.00,3348.2652,S,15052.5472,E,4,18,0.6,30.0,M,46.9,M,,*58
$GNRMC,000058.00,A,3348.2652,S,15052.5472,E,105.4,014.7,010126,,*33
$GNGGA,000058.10,3348.2645,S,15052.5506,E,4,18,0.6,30.0,M,46.9,M,,*5D
$GNRMC,000058.10,A,3348.2645,S,15052.5506,E,105.4,014.7,010126,,*36
$GNGGA,000058.20,3348.2637,S,15052.5540,E,4,18,0.6,30.0,M,46.9,M,,*59
$GNRMC,000058.20,A,3348.2637,S,15052.5540,E,105.4,014.7,010126,,*32
$GNGGA,000058.30,3348.2630,S,15052.5574,E,4,18,0.6,30.0,M,46.9,M,,*58
$GNRMC,000058.30,A,3348.2630,S,15052.5574,E,105.4,016.8,010126,,*3E
$GNGGA,000058.40,3348.2621,S,15052.5607,E,4,18,0.6,30.0,M,46.9,M,,*58
$GNRMC,000058.40,A,3348.2621,S,15052.5607,E,105.4,016.8,010126,,*3E
$GNGGA,000058.50,3348.2613,S,15052.5641,E,4,18,0.6,30.0,M,46.9,M,,*5A
$GNRMC,000058.50,A,3348.2613,S,15052.5641,E,105.4,016.8,010126,,*3C
$GNGGA,000058.60,3348.2604,S,15052.5675,E,4,18,0.6,30.0,M,46.9,M,,*58
$GNRMC,000058.60,A,3348.2604,S,15052.5675,E,105.4,016.8,010126,,*3E
$GNGGA,000058.70,3348.2596,S,15052.5708,E,4,18,0.6,30.0,M,46.9,M,,*5A
$GNRMC,000058.70,A,3348.2596,S,15052.5708,E,105.4,016.8,010126,,*3C
$GNGGA,000058.80,3348.2587,S,15052.5742,E,4,18,0.6,30.0,M,46.9,M,,*5B
$GNRMC,000058.80,A,3348.2587,S,15052.5742,E,105.4,016.8,010126,,*3D
$GNGGA,000058.90,3348.2579,S,15052.5776,E,4,18,0.6,30.0,M,46.9,M,,*5C
$GNRMC,000058.90,A,3348.2579,S,15052.5776,E,105.4,016.8,010126,,*3A
$GNGGA,000059.00,3348.2570,S,15052.5810,E,4,18,0.6,30.0,M,46.9,M,,*52
$GNRMC,000059.00,A,3348.2570,S,15052.5810,E,105.4,016.8,010126,,*34
$GNGGA,000059.10,3348.2562,S,15052.5843,E,4,18,0.6,30.0,M,46.9,M,,*56
$GNRMC,000059.10,A,3348.2562,S,15052.5843,E,105.4,016.8,010126,,*30
$GNGGA,000059.20,3348.2553,S,15052.5877,E,4,18,0.6,30.0,M,46.9,M,,*50
$GNRMC,000059.20,A,3348.2553,S,15052.5877,E,105.4,019.1,010126,,*30
$GNGGA,000059.30,3348.2543,S,15052.5910,E,4,18,0.6,30.0,M,46.9,M,,*50
$GNRMC,000059.30,A,3348.2543,S,15052.5910,E,105.4,019.1,010126,,*30
$GNGGA,000059.40,3348.2534,S,15052.5943,E,4,18,0.6,30.0,M,46.9,M,,*51
$GNRMC,000059.40,A,3348.2534,S,15052.5943,E,105.4,019.1,010126,,*31
$GNGGA,000059.50,3348.2524,S,15052.5976,E,4,18,0.6,30.0,M,46.9,M,,*57
$GNRMC,000059.50,A,3348.2524,S,15052.5976,E,105.4,019.1,010126,,*37
$GNGGA,000059.60,3348.2515,S,15052.6010,E,4,18,0.6,30.0,M,46.9,M,,*5C
$GNRMC,000059.60,A,3348.2515,S,15052.6010,E,105.4,019.1,010126,,*3C
$GNGGA,000059.70,3348.2505,S,15052.6043,E,4,18,0.6,30.0,M,46.9,M,,*5A
$GNRMC,000059.70,A,3348.2505,S,15052.6043,E,105.4,019.1,010126,,*3A
$GNGGA,000059.80,3348.2495,S,15052.6076,E,4,18,0.6,30.0,M,46.9,M,,*5B
$GNRMC,000059.80,A,3348.2495,S,15052.6076,E,105.4,019.1,010126,,*3B
$GNGGA,000059.90,3348.2486,S,15052.6110,E,4,18,0.6,30.0,M,46.9,M,,*59
$GNRMC,000059.90,A,3348.2486,S,15052.6110,E,105.5,019.1,010126,,*38
