$GNGGA,000000.00,3348.0723,S,15052.7896,E,4,18,0.6,30.0,M,46.9,M,,*54
$GNRMC,000000.00,A,3348.0723,S,15052.7896,E,100.7,111.4,010126,,*3E
$GNGGA,000000.10,3348.0697,S,15052.7884,E,4,18,0.6,30.0,M,46.9,M,,*58
$GNRMC,000000.10,A,3348.0697,S,15052.7884,E,100.8,111.4,010126,,*3D
$GNGGA,000000.20,3348.0672,S,15052.7870,E,4,18,0.6,30.0,M,46.9,M,,*5B
$GNRMC,000000.20,A,3348.0672,S,15052.7870,E,100.8,119.0,010126,,*32
$GNGGA,000000.30,3348.0647,S,15052.7854,E,4,18,0.6,30.0,M,46.9,M,,*5A
$GNRMC,000000.30,A,3348.0647,S,15052.7854,E,100.9,119.0,010126,,*32
$GNGGA,000000.40,3348.0623,S,15052.7838,E,4,18,0.6,30.0,M,46.9,M,,*55
$GNRMC,000000.40,A,3348.0623,S,15052.7838,E,100.9,119.0,010126,,*3D
$GNGGA,000000.50,3348.0598,S,15052.7821,E,4,18,0.6,30.0,M,46.9,M,,*5F
$GNRMC,000000.50,A,3348.0598,S,15052.7821,E,101.0,119.0,010126,,*3F
$GNGGA,000000.60,3348.0574,S,15052.7805,E,4,18,0.6,30.0,M,46.9,M,,*58
$GNRMC,000000.60,A,3348.0574,S,15052.7805,E,101.1,119.0,010126,,*39
$GNGGA,000000.70,3348.0550,S,15052.7788,E,4,18,0.6,30.0,M,46.9,M,,*55
$GNRMC,000000.70,A,3348.0550,S,15052.7788,E,101.1,125.8,010126,,*33
$GNGGA,000000.80,3348.0527,S,15052.7768,E,4,18,0.6,30.0,M,46.9,M,,*54
$GNRMC,000000.80,A,3348.0527,S,15052.7768,E,101.2,125.8,010126,,*31
$GNGGA,000000.90,3348.0504,S,15052.7748,E,4,18,0.6,30.0,M,46.9,M,,*56
$GNRMC,000000.90,A,3348.0504,S,15052.7748,E,101.3,125.8,010126,,*32
$GNGGA,000001.00,3348.0481,S,15052.7728,E,4,18,0.6,30.0,M,46.9,M,,*54
$GNRMC,000001.00,A,3348.0481,S,15052.7728,E,101.3,125.8,010126,,*30
$GNGGA,000001.10,3348.0458,S,15052.7708,E,4,18,0.6,30.0,M,46.9,M,,*53
$GNRMC,000001.10,A,3348.0458,S,15052.7708,E,101.4,125.8,010126,,*30
$GNGGA,000001.20,3348.0436,S,15052.7688,E,4,18,0.6,30.0,M,46.9,M,,*51
$GNRMC,000001.20,A,3348.0436,S,15052.7688,E,101.4,131.8,010126,,*37
$GNGGA,000001.30,3348.0415,S,15052.7666,E,4,18,0.6,30.0,M,46.9,M,,*51
$GNRMC,000001.30,A,3348.0415,S,15052.7666,E,101.5,131.8,010126,,*36
$GNGGA,000001.40,3348.0394,S,15052.7643,E,4,18,0.6,30.0,M,46.9,M,,*5F
$GNRMC,000001.40,A,3348.0394,S,15052.7643,E,101.6,131.8,010126,,*3B
$GNGGA,000001.50,3348.0373,S,15052.7621,E,4,18,0.6,30.0,M,46.9,M,,*53
$GNRMC,000001.50,A,3348.0373,S,15052.7621,E,101.6,131.8,010126,,*37
$GNGGA,000001.60,3348.0352,S,15052.7598,E,4,18,0.6,30.0,M,46.9,M,,*52
$GNRMC,000001.60,A,3348.0352,S,15052.7598,E,101.7,131.8,010126,,*37
$GNGGA,000001.70,3348.0331,S,15052.7575,E,4,18,0.6,30.0,M,46.9,M,,*55
$GNRMC,000001.70,A,3348.0331,S,15052.7575,E,101.7,131.8,010126,,*30
$GNGGA,000001.80,3348.0311,S,15052.7551,E,4,18,0.6,30.0,M,46.9,M,,*5E
$GNRMC,000001.80,A,3348.0311,S,15052.7551,E,101.8,137.1,010126,,*3B
$GNGGA,000001.90,3348.0291,S,15052.7526,E,4,18,0.6,30.0,M,46.9,M,,*56
$GNRMC,000001.90,A,3348.0291,S,15052.7526,E,101.8,137.1,010126,,*33
$GNGGA,000002.00,3348.0272,S,15052.7502,E,4,18,0.6,30.0,M,46.9,M,,*57
$GNRMC,000002.00,A,3348.0272,S,15052.7502,E,101.9,137.1,010126,,*33
$GNGGA,000002.10,3348.0253,S,15052.7477,E,4,18,0.6,30.0,M,46.9,M,,*56
$GNRMC,000002.10,A,3348.0253,S,15052.7477,E,102.0,137.1,010126,,*38
$GNGGA,000002.20,3348.0234,S,15052.7452,E,4,18,0.6,30.0,M,46.9,M,,*53
$GNRMC,000002.20,A,3348.0234,S,15052.7452,E,102.0,137.1,010126,,*3D
$GNGGA,000002.30,3348.0214,S,15052.7427,E,4,18,0.6,30.0,M,46.9,M,,*52
$GNRMC,000002.30,A,3348.0214,S,15052.7427,E,102.1,137.1,010126,,*3D
$GNGGA,000002.40,3348.0196,S,15052.7401,E,4,18,0.6,30.0,M,46.9,M,,*58
$GNRMC,000002.40,A,3348.0196,S,15052.7401,E,102.1,141.8,010126,,*3F
$GNGGA,000002.50,3348.0179,S,15052.7374,E,4,18,0.6,30.0,M,46.9,M,,*5D
$GNRMC,000002.50,A,3348.0179,S,15052.7374,E,102.2,141.8,010126,,*39
$GNGGA,000002.60,3348.0161,S,15052.7347,E,4,18,0.6,30.0,M,46.9,M,,*57
$GNRMC,000002.60,A,3348.0161,S,15052.7347,E,102.2,141.8,010126,,*33
$GNGGA,000002.70,3348.0144,S,15052.7320,E,4,18,0.6,30.0,M,46.9,M,,*50
$GNRMC,000002.70,A,3348.0144,S,15052.7320,E,102.3,141.8,010126,,*35
$GNGGA,000002.80,3348.0126,S,15052.7293,E,4,18,0.6,30.0,M,46.9,M,,*52
$GNRMC,000002.80,A,3348.0126,S,15052.7293,E,102.3,141.8,010126,,*37
$GNGGA,000002.90,3348.0109,S,15052.7266,E,4,18,0.6,30.0,M,46.9,M,,*54
$GNRMC,000002.90,A,3348.0109,S,15052.7266,E,102.4,141.8,010126,,*36
$GNGGA,000003.00,3348.0092,S,15052.7239,E,4,18,0.6,30.0,M,46.9,M,,*55
$GNRMC,000003.00,A,3348.0092,S,15052.7239,E,102.4,145.9,010126,,*32
$GNGGA,000003.10,3348.0076,S,15052.7211,E,4,18,0.6,30.0,M,46.9,M,,*54
$GNRMC,000003.10,A,3348.0076,S,15052.7211,E,102.5,145.9,010126,,*32
$GNGGA,000003.20,3348.0060,S,15052.7182,E,4,18,0.6,30.0,M,46.9,M,,*59
$GNRMC,000003.20,A,3348.0060,S,15052.7182,E,102.5,145.9,010126,,*3F
$GNGGA,000003.30,3348.0044,S,15052.7154,E,4,18,0.6,30.0,M,46.9,M,,*55
$GNRMC,000003.30,A,3348.0044,S,15052.7154,E,102.6,145.9,010126,,*30
$GNGGA,000003.40,3348.0028,S,15052.7125,E,4,18,0.6,30.0,M,46.9,M,,*5E
$GNRMC,000003.40,A,3348.0028,S,15052.7125,E,102.6,145.9,010126,,*3B
$GNGGA,000003.50,3348.0012,S,15052.7097,E,4,18,0.6,30.0,M,46.9,M,,*5E
$GNRMC,000003.50,A,3348.0012,S,15052.7097,E,102.7,145.9,010126,,*3A
$GNGGA,000003.60,3347.9996,S,15052.7069,E,4,18,0.6,30.0,M,46.9,M,,*5F
$GNRMC,000003.60,A,3347.9996,S,15052.7069,E,102.7,145.9,010126,,*3B
$GNGGA,000003.70,3347.9981,S,15052.7039,E,4,18,0.6,30.0,M,46.9,M,,*5D
$GNRMC,000003.70,A,3347.9981,S,15052.7039,E,102.8,149.6,010126,,*35
$GNGGA,000003.80,3347.9967,S,15052.7010,E,4,18,0.6,30.0,M,46.9,M,,*51
$GNRMC,000003.80,A,3347.9967,S,15052.7010,E,102.8,149.6,010126,,*39
$GNGGA,000003.90,3347.9952,S,15052.6980,E,4,18,0.6,30.0,M,46.9,M,,*57
$GNRMC,000003.90,A,3347.9952,S,15052.6980,E,102.9,149.6,010126,,*3E
$GNGGA,000004.00,3347.9938,S,15052.6950,E,4,18,0.6,30.0,M,46.9,M,,*58
$GNRMC,000004.00,A,3347.9938,S,15052.6950,E,102.9,149.6,010126,,*31
$GNGGA,000004.10,3347.9923,S,15052.6921,E,4,18,0.6,30.0,M,46.9,M,,*55
$GNRMC,000004.10,A,3347.9923,S,15052.6921,E,102.9,149.6,010126,,*3C
$GNGGA,000004.20,3347.9909,S,15052.6891,E,4,18,0.6,30.0,M,46.9,M,,*54
$GNRMC,000004.20,A,3347.9909,S,15052.6891,E,103.0,149.6,010126,,*35
$GNGGA,000004.30,3347.9894,S,15052.6862,E,4,18,0.6,30.0,M,46.9,M,,*5C
$GNRMC,000004.30,A,3347.9894,S,15052.6862,E,103.0,149.6,010126,,*3D
$GNGGA,000004.40,3347.9881,S,15052.6831,E,4,18,0.6,30.0,M,46.9,M,,*59
$GNRMC,000004.40,A,3347.9881,S,15052.6831,E,103.1,152.8,010126,,*3D
$GNGGA,000004.50,3347.9868,S,15052.6800,E,4,18,0.6,30.0,M,46.9,M,,*5D
$GNRMC,000004.50,A,3347.9868,S,15052.6800,E,103.1,152.8,010126,,*39
$GNGGA,000004.60,3347.9855,S,15052.6770,E,4,18,0.6,30.0,M,46.9,M,,*58
$GNRMC,000004.60,A,3347.9855,S,15052.6770,E,103.1,152.8,010126,,*3C
$GNGGA,000004.70,3347.9842,S,15052.6739,E,4,18,0.6,30.0,M,46.9,M,,*52
$GNRMC,000004.70,A,3347.9842,S,15052.6739,E,103.2,152.8,010126,,*35
$GNGGA,000004.80,3347.9829,S,15052.6708,E,4,18,0.6,30.0,M,46.9,M,,*52
$GNRMC,000004.80,A,3347.9829,S,15052.6708,E,103.2,152.8,010126,,*35
$GNGGA,000004.90,3347.9816,S,15052.6678,E,4,18,0.6,30.0,M,46.9,M,,*59
$GNRMC,000004.90,A,3347.9816,S,15052.6678,E,103.2,152.8,010126,,*3E
$GNGGA,000005.00,3347.9803,S,15052.6647,E,4,18,0.6,30.0,M,46.9,M,,*59
$GNRMC,000005.00,A,3347.9803,S,15052.6647,E,103.3,152.8,010126,,*3F
$GNGGA,000005.10,3347.9790,S,15052.6616,E,4,18,0.6,30.0,M,46.9,M,,*59
$GNRMC,000005.10,A,3347.9790,S,15052.6616,E,103.3,155.8,010126,,*38
$GNGGA,000005.20,3347.9778,S,15052.6585,E,4,18,0.6,30.0,M,46.9,M,,*55
$GNRMC,000005.20,A,3347.9778,S,15052.6585,E,103.3,155.8,010126,,*34
$GNGGA,000005.30,3347.9766,S,15052.6553,E,4,18,0.6,30.0,M,46.9,M,,*50
$GNRMC,000005.30,A,3347.9766,S,15052.6553,E,103.4,155.8,010126,,*36
$GNGGA,000005.40,3347.9755,S,15052.6522,E,4,18,0.6,30.0,M,46.9,M,,*51
$GNRMC,000005.40,A,3347.9755,S,15052.6522,E,103.4,155.8,010126,,*37
$GNGGA,000005.50,3347.9743,S,15052.6490,E,4,18,0.6,30.0,M,46.9,M,,*5F
$GNRMC,000005.50,A,3347.9743,S,15052.6490,E,103.4,155.8,010126,,*39
$GNGGA,000005.60,3347.9731,S,15052.6459,E,4,18,0.6,30.0,M,46.9,M,,*5C
$GNRMC,000005.60,A,3347.9731,S,15052.6459,E,103.5,155.8,010126,,*3B
$GNGGA,000005.70,3347.9719,S,15052.6427,E,4,18,0.6,30.0,M,46.9,M,,*5E
$GNRMC,000005.70,A,3347.9719,S,15052.6427,E,103.5,155.8,010126,,*39
$GNGGA,000005.80,3347.9708,S,15052.6396,E,4,18,0.6,30.0,M,46.9,M,,*5C
$GNRMC,000005.80,A,3347.9708,S,15052.6396,E,103.5,155.8,010126,,*3B
$GNGGA,000005.90,3347.9697,S,15052.6364,E,4,18,0.6,30.0,M,46.9,M,,*57
$GNRMC,000005.90,A,3347.9697,S,15052.6364,E,103.5,158.5,010126,,*30
$GNGGA,000006.00,3347.9686,S,15052.6331,E,4,18,0.6,30.0,M,46.9,M,,*5D
$GNRMC,000006.00,A,3347.9686,S,15052.6331,E,103.6,158.5,010126,,*39
$GNGGA,000006.10,3347.9676,S,15052.6299,E,4,18,0.6,30.0,M,46.9,M,,*50
$GNRMC,000006.10,A,3347.9676,S,15052.6299,E,103.6,158.5,010126,,*34
$GNGGA,000006.20,3347.9665,S,15052.6267,E,4,18,0.6,30.0,M,46.9,M,,*50
$GNRMC,000006.20,A,3347.9665,S,15052.6267,E,103.6,158.5,010126,,*34
$GNGGA,000006.30,3347.9655,S,15052.6235,E,4,18,0.6,30.0,M,46.9,M,,*55
$GNRMC,000006.30,A,3347.9655,S,15052.6235,E,103.6,158.5,010126,,*31
$GNGGA,000006.40,3347.9644,S,15052.6203,E,4,18,0.6,30.0,M,46.9,M,,*57
$GNRMC,000006.40,A,3347.9644,S,15052.6203,E,103.6,158.5,010126,,*33
$GNGGA,000006.50,3347.9633,S,15052.6170,E,4,18,0.6,30.0,M,46.9,M,,*51
$GNRMC,000006.50,A,3347.9633,S,15052.6170,E,103.7,158.5,010126,,*34
$GNGGA,000006.60,3347.9623,S,15052.6138,E,4,18,0.6,30.0,M,46.9,M,,*5F
$GNRMC,000006.60,A,3347.9623,S,15052.6138,E,103.7,158.5,010126,,*3A
$GNGGA,000006.70,3347.9613,S,15052.6106,E,4,18,0.6,30.0,M,46.9,M,,*50
$GNRMC,000006.70,A,3347.9613,S,15052.6106,E,103.7,160.9,010126,,*32
$GNGGA,000006.80,3347.9604,S,15052.6073,E,4,18,0.6,30.0,M,46.9,M,,*5A
$GNRMC,000006.80,A,3347.9604,S,15052.6073,E,103.7,160.9,010126,,*38
$GNGGA,000006.90,3347.9594,S,15052.6040,E,4,18,0.6,30.0,M,46.9,M,,*51
$GNRMC,000006.90,A,3347.9594,S,15052.6040,E,103.7,160.9,010126,,*33
$GNGGA,000007.00,3347.9585,S,15052.6007,E,4,18,0.6,30.0,M,46.9,M,,*5A
$GNRMC,000007.00,A,3347.9585,S,15052.6007,E,103.7,160.9,010126,,*38
$GNGGA,000007.10,3347.9575,S,15052.5975,E,4,18,0.6,30.0,M,46.9,M,,*5B
$GNRMC,000007.10,A,3347.9575,S,15052.5975,E,103.8,160.9,010126,,*36
$GNGGA,000007.20,3347.9566,S,15052.5942,E,4,18,0.6,30.0,M,46.9,M,,*5E
$GNRMC,000007.20,A,3347.9566,S,15052.5942,E,103.8,160.9,010126,,*33
$GNGGA,000007.30,3347.9557,S,15052.5909,E,4,18,0.6,30.0,M,46.9,M,,*52
$GNRMC,000007.30,A,3347.9557,S,15052.5909,E,103.8,160.9,010126,,*3F
$GNGGA,000007.40,3347.9547,S,15052.5876,E,4,18,0.6,30.0,M,46.9,M,,*5D
$GNRMC,000007.40,A,3347.9547,S,15052.5876,E,103.8,160.9,010126,,*30
$GNGGA,000007.50,3347.9538,S,15052.5843,E,4,18,0.6,30.0,M,46.9,M,,*52
$GNRMC,000007.50,A,3347.9538,S,15052.5843,E,103.8,163.2,010126,,*37
$GNGGA,000007.60,3347.9530,S,15052.5810,E,4,18,0.6,30.0,M,46.9,M,,*5F
$GNRMC,000007.60,A,3347.9530,S,15052.5810,E,103.8,163.2,010126,,*3A
$GNGGA,000007.70,3347.9521,S,15052.5777,E,4,18,0.6,30.0,M,46.9,M,,*50
$GNRMC,000007.70,A,3347.9521,S,15052.5777,E,103.8,163.2,010126,,*35
$GNGGA,000007.80,3347.9513,S,15052.5744,E,4,18,0.6,30.0,M,46.9,M,,*5E
$GNRMC,000007.80,A,3347.9513,S,15052.5744,E,103.8,163.2,010126,,*3B
$GNGGA,000007.90,3347.9505,S,15052.5711,E,4,18,0.6,30.0,M,46.9,M,,*58
$GNRMC,000007.90,A,3347.9505,S,15052.5711,E,103.8,163.2,010126,,*3D
$GNGGA,000008.00,3347.9496,S,15052.5678,E,4,18,0.6,30.0,M,46.9,M,,*5B
$GNRMC,000008.00,A,3347.9496,S,15052.5678,E,103.8,163.2,010126,,*3E
$GNGGA,000008.10,3347.9488,S,15052.5644,E,4,18,0.6,30.0,M,46.9,M,,*5A
$GNRMC,000008.10,A,3347.9488,S,15052.5644,E,103.8,163.2,010126,,*3F
$GNGGA,000008.20,3347.9480,S,15052.5611,E,4,18,0.6,30.0,M,46.9,M,,*51
$GNRMC,000008.20,A,3347.9480,S,15052.5611,E,103.8,163.2,010126,,*34
$GNGGA,000008.30,3347.9471,S,15052.5578,E,4,18,0.6,30.0,M,46.9,M,,*52
$GNRMC,000008.30,A,3347.9471,S,15052.5578,E,103.8,163.2,010126,,*37
$GNGGA,000008.40,3347.9464,S,15052.5545,E,4,18,0.6,30.0,M,46.9,M,,*5F
$GNRMC,000008.40,A,3347.9464,S,15052.5545,E,103.8,165.3,010126,,*3D
$GNGGA,000008.50,3347.9456,S,15052.5511,E,4,18,0.6,30.0,M,46.9,M,,*5E
$GNRMC,000008.50,A,3347.9456,S,15052.5511,E,103.8,165.3,010126,,*3C
$GNGGA,000008.60,3347.9449,S,15052.5477,E,4,18,0.6,30.0,M,46.9,M,,*52
$GNRMC,000008.60,A,3347.9449,S,15052.5477,E,103.8,165.3,010126,,*30
$GNGGA,000008.70,3347.9442,S,15052.5444,E,4,18,0.6,30.0,M,46.9,M,,*58
$GNRMC,000008.70,A,3347.9442,S,15052.5444,E,103.8,165.3,010126,,*3A
$GNGGA,000008.80,3347.9435,S,15052.5410,E,4,18,0.6,30.0,M,46.9,M,,*56
$GNRMC,000008.80,A,3347.9435,S,15052.5410,E,103.8,165.3,010126,,*34
$GNGGA,000008.90,3347.9427,S,15052.5377,E,4,18,0.6,30.0,M,46.9,M,,*52
$GNRMC,000008.90,A,3347.9427,S,15052.5377,E,103.8,165.3,010126,,*30
$GNGGA,000009.00,3347.9420,S,15052.5343,E,4,18,0.6,30.0,M,46.9,M,,*5A
$GNRMC,000009.00,A,3347.9420,S,15052.5343,E,103.7,165.3,010126,,*37
$GNGGA,000009.10,3347.9413,S,15052.5310,E,4,18,0.6,30.0,M,46.9,M,,*5D
$GNRMC,000009.10,A,3347.9413,S,15052.5310,E,103.7,165.3,010126,,*30
$GNGGA,000009.20,3347.9405,S,15052.5276,E,4,18,0.6,30.0,M,46.9,M,,*58
$GNRMC,000009.20,A,3347.9405,S,15052.5276,E,103.7,165.3,010126,,*35
$GNGGA,000009.30,3347.9399,S,15052.5243,E,4,18,0.6,30.0,M,46.9,M,,*5D
$GNRMC,000009.30,A,3347.9399,S,15052.5243,E,103.7,167.3,010126,,*32
$GNGGA,000009.40,3347.9392,S,15052.5209,E,4,18,0.6,30.0,M,46.9,M,,*5F
$GNRMC,000009.40,A,3347.9392,S,15052.5209,E,103.7,167.3,010126,,*30
$GNGGA,000009.50,3347.9386,S,15052.5175,E,4,18,0.6,30.0,M,46.9,M,,*53
$GNRMC,000009.50,A,3347.9386,S,15052.5175,E,103.7,167.3,010126,,*3C
$GNGGA,000009.60,3347.9380,S,15052.5141,E,4,18,0.6,30.0,M,46.9,M,,*51
$GNRMC,000009.60,A,3347.9380,S,15052.5141,E,103.7,167.3,010126,,*3E
$GNGGA,000009.70,3347.9373,S,15052.5107,E,4,18,0.6,30.0,M,46.9,M,,*5E
$GNRMC,000009.70,A,3347.9373,S,15052.5107,E,103.6,167.3,010126,,*30
$GNGGA,000009.80,3347.9367,S,15052.5074,E,4,18,0.6,30.0,M,46.9,M,,*51
$GNRMC,000009.80,A,3347.9367,S,15052.5074,E,103.6,167.3,010126,,*3F
$GNGGA,000009.90,3347.9361,S,15052.5040,E,4,18,0.6,30.0,M,46.9,M,,*51
$GNRMC,000009.90,A,3347.9361,S,15052.5040,E,103.6,167.3,010126,,*3F
$GNGGA,000010.00,3347.9354,S,15052.5006,E,4,18,0.6,30.0,M,46.9,M,,*54
$GNRMC,000010.00,A,3347.9354,S,15052.5006,E,103.6,167.3,010126,,*3A
$GNGGA,000010.10,3347.9348,S,15052.4972,E,4,18,0.6,30.0,M,46.9,M,,*53
$GNRMC,000010.10,A,3347.9348,S,15052.4972,E,103.6,167.3,010126,,*3D
$GNGGA,000010.20,3347.9342,S,15052.4939,E,4,18,0.6,30.0,M,46.9,M,,*55
$GNRMC,000010.20,A,3347.9342,S,15052.4939,E,103.5,169.2,010126,,*37
$GNGGA,000010.30,3347.9336,S,15052.4905,E,4,18,0.6,30.0,M,46.9,M,,*58
$GNRMC,000010.30,A,3347.9336,S,15052.4905,E,103.5,169.2,010126,,*3A
$GNGGA,000010.40,3347.9331,S,15052.4871,E,4,18,0.6,30.0,M,46.9,M,,*5A
$GNRMC,000010.40,A,3347.9331,S,15052.4871,E,103.5,169.2,010126,,*38
$GNGGA,000010.50,3347.9326,S,15052.4837,E,4,18,0.6,30.0,M,46.9,M,,*5F
$GNRMC,000010.50,A,3347.9326,S,15052.4837,E,103.5,169.2,010126,,*3D
$GNGGA,000010.60,3347.9320,S,15052.4803,E,4,18,0.6,30.0,M,46.9,M,,*5D
$GNRMC,000010.60,A,3347.9320,S,15052.4803,E,103.4,169.2,010126,,*3E
$GNGGA,000010.70,3347.9315,S,15052.4769,E,4,18,0.6,30.0,M,46.9,M,,*59
$GNRMC,000010.70,A,3347.9315,S,15052.4769,E,103.4,169.2,010126,,*3A
$GNGGA,000010.80,3347.9310,S,15052.4735,E,4,18,0.6,30.0,M,46.9,M,,*5A
$GNRMC,000010.80,A,3347.9310,S,15052.4735,E,103.4,169.2,010126,,*39
$GNGGA,000010.90,3347.9304,S,15052.4701,E,4,18,0.6,30.0,M,46.9,M,,*59
$GNRMC,000010.90,A,3347.9304,S,15052.4701,E,103.3,169.2,010126,,*3D
$GNGGA,000011.00,3347.9299,S,15052.4667,E,4,18,0.6,30.0,M,46.9,M,,*55
$GNRMC,000011.00,A,3347.9299,S,15052.4667,E,103.3,169.2,010126,,*31
$GNGGA,000011.10,3347.9293,S,15052.4633,E,4,18,0.6,30.0,M,46.9,M,,*5F
$GNRMC,000011.10,A,3347.9293,S,15052.4633,E,103.3,169.2,010126,,*3B
$GNGGA,000011.20,3347.9289,S,15052.4599,E,4,18,0.6,30.0,M,46.9,M,,*54
$GNRMC,000011.20,A,3347.9289,S,15052.4599,E,103.2,171.0,010126,,*3A
$GNGGA,000011.30,3347.9284,S,15052.4565,E,4,18,0.6,30.0,M,46.9,M,,*5B
$GNRMC,000011.30,A,3347.9284,S,15052.4565,E,103.2,171.0,010126,,*35
$GNGGA,000011.40,3347.9280,S,15052.4531,E,4,18,0.6,30.0,M,46.9,M,,*59
$GNRMC,000011.40,A,3347.9280,S,15052.4531,E,103.2,171.0,010126,,*37
$GNGGA,000011.50,3347.9275,S,15052.4497,E,4,18,0.6,30.0,M,46.9,M,,*5F
$GNRMC,000011.50,A,3347.9275,S,15052.4497,E,103.1,171.0,010126,,*32
$GNGGA,000011.60,3347.9271,S,15052.4463,E,4,18,0.6,30.0,M,46.9,M,,*53
$GNRMC,000011.60,A,3347.9271,S,15052.4463,E,103.1,171.0,010126,,*3E
$GNGGA,000011.70,3347.9266,S,15052.4429,E,4,18,0.6,30.0,M,46.9,M,,*5A
$GNRMC,000011.70,A,3347.9266,S,15052.4429,E,103.1,171.0,010126,,*37
$GNGGA,000011.80,3347.9262,S,15052.4395,E,4,18,0.6,30.0,M,46.9,M,,*51
$GNRMC,000011.80,A,3347.9262,S,15052.4395,E,103.0,171.0,010126,,*3D
$GNGGA,000011.90,3347.9257,S,15052.4361,E,4,18,0.6,30.0,M,46.9,M,,*5D
$GNRMC,000011.90,A,3347.9257,S,15052.4361,E,103.0,171.0,010126,,*31
$GNGGA,000012.00,3347.9253,S,15052.4327,E,4,18,0.6,30.0,M,46.9,M,,*51
$GNRMC,000012.00,A,3347.9253,S,15052.4327,E,102.9,171.0,010126,,*35
$GNGGA,000012.10,3347.9248,S,15052.4293,E,4,18,0.6,30.0,M,46.9,M,,*54
$GNRMC,000012.10,A,3347.9248,S,15052.4293,E,102.9,171.0,010126,,*30
$GNGGA,000012.20,3347.9245,S,15052.4259,E,4,18,0.6,30.0,M,46.9,M,,*5C
$GNRMC,000012.20,A,3347.9245,S,15052.4259,E,102.9,172.7,010126,,*3C
$GNGGA,000012.30,3347.9241,S,15052.4225,E,4,18,0.6,30.0,M,46.9,M,,*52
$GNRMC,000012.30,A,3347.9241,S,15052.4225,E,102.8,172.7,010126,,*33
$GNGGA,000012.40,3347.9237,S,15052.4191,E,4,18,0.6,30.0,M,46.9,M,,*58
$GNRMC,000012.40,A,3347.9237,S,15052.4191,E,102.8,172.7,010126,,*39
$GNGGA,000012.50,3347.9234,S,15052.4157,E,4,18,0.6,30.0,M,46.9,M,,*50
$GNRMC,000012.50,A,3347.9234,S,15052.4157,E,102.7,172.7,010126,,*3E
$GNGGA,000012.60,3347.9230,S,15052.4123,E,4,18,0.6,30.0,M,46.9,M,,*54
$GNRMC,000012.60,A,3347.9230,S,15052.4123,E,102.7,172.7,010126,,*3A
$GNGGA,000012.70,3347.9227,S,15052.4089,E,4,18,0.6,30.0,M,46.9,M,,*52
$GNRMC,000012.70,A,3347.9227,S,15052.4089,E,102.6,172.7,010126,,*3D
$GNGGA,000012.80,3347.9223,S,15052.4055,E,4,18,0.6,30.0,M,46.9,M,,*58
$GNRMC,000012.80,A,3347.9223,S,15052.4055,E,102.6,172.7,010126,,*37
$GNGGA,000012.90,3347.9219,S,15052.4021,E,4,18,0.6,30.0,M,46.9,M,,*53
$GNRMC,000012.90,A,3347.9219,S,15052.4021,E,102.5,172.7,010126,,*3F
$GNGGA,000013.00,3347.9216,S,15052.3987,E,4,18,0.6,30.0,M,46.9,M,,*56
$GNRMC,000013.00,A,3347.9216,S,15052.3987,E,102.5,172.7,010126,,*3A
$GNGGA,000013.10,3347.9212,S,15052.3953,E,4,18,0.6,30.0,M,46.9,M,,*5A
$GNRMC,000013.10,A,3347.9212,S,15052.3953,E,102.4,172.7,010126,,*37
$GNGGA,000013.20,3347.9209,S,15052.3919,E,4,18,0.6,30.0,M,46.9,M,,*5D
$GNRMC,000013.20,A,3347.9209,S,15052.3919,E,102.4,174.4,010126,,*35
$GNGGA,000013.30,3347.9206,S,15052.3885,E,4,18,0.6,30.0,M,46.9,M,,*57
$GNRMC,000013.30,A,3347.9206,S,15052.3885,E,102.3,174.4,010126,,*38
$GNGGA,000013.40,3347.9204,S,15052.3851,E,4,18,0.6,30.0,M,46.9,M,,*5B
$GNRMC,000013.40,A,3347.9204,S,15052.3851,E,102.3,174.4,010126,,*34
$GNGGA,000013.50,3347.9201,S,15052.3817,E,4,18,0.6,30.0,M,46.9,M,,*5D
$GNRMC,000013.50,A,3347.9201,S,15052.3817,E,102.2,174.4,010126,,*33
$GNGGA,000013.60,3347.9198,S,15052.3783,E,4,18,0.6,30.0,M,46.9,M,,*5F
$GNRMC,000013.60,A,3347.9198,S,15052.3783,E,102.2,174.4,010126,,*31
$GNGGA,000013.70,3347.9195,S,15052.3749,E,4,18,0.6,30.0,M,46.9,M,,*55
$GNRMC,000013.70,A,3347.9195,S,15052.3749,E,102.1,174.4,010126,,*38
$GNGGA,000013.80,3347.9193,S,15052.3715,E,4,18,0.6,30.0,M,46.9,M,,*55
$GNRMC,000013.80,A,3347.9193,S,15052.3715,E,102.1,174.4,010126,,*38
$GNGGA,000013.90,3347.9190,S,15052.3681,E,4,18,0.6,30.0,M,46.9,M,,*5B
$GNRMC,000013.90,A,3347.9190,S,15052.3681,E,102.0,174.4,010126,,*37
$GNGGA,000014.00,3347.9187,S,15052.3647,E,4,18,0.6,30.0,M,46.9,M,,*59
$GNRMC,000014.00,A,3347.9187,S,15052.3647,E,101.9,174.4,010126,,*3F
$GNGGA,000014.10,3347.9184,S,15052.3613,E,4,18,0.6,30.0,M,46.9,M,,*5A
$GNRMC,000014.10,A,3347.9184,S,15052.3613,E,101.9,174.4,010126,,*3C
$GNGGA,000014.20,3347.9182,S,15052.3579,E,4,18,0.6,30.0,M,46.9,M,,*50
$GNRMC,000014.20,A,3347.9182,S,15052.3579,E,101.8,176.0,010126,,*31
$GNGGA,000014.30,3347.9180,S,15052.3545,E,4,18,0.6,30.0,M,46.9,M,,*5C
$GNRMC,000014.30,A,3347.9180,S,15052.3545,E,101.8,176.0,010126,,*3D
$GNGGA,000014.40,3347.9178,S,15052.3511,E,4,18,0.6,30.0,M,46.9,M,,*5D
$GNRMC,000014.40,A,3347.9178,S,15052.3511,E,101.7,176.0,010126,,*33
$GNGGA,000014.50,3347.9176,S,15052.3477,E,4,18,0.6,30.0,M,46.9,M,,*53
$GNRMC,000014.50,A,3347.9176,S,15052.3477,E,101.7,176.0,010126,,*3D
$GNGGA,000014.60,3347.9174,S,15052.3443,E,4,18,0.6,30.0,M,46.9,M,,*55
$GNRMC,000014.60,A,3347.9174,S,15052.3443,E,101.6,176.0,010126,,*3A
$GNGGA,000014.70,3347.9172,S,15052.3410,E,4,18,0.6,30.0,M,46.9,M,,*54
$GNRMC,000014.70,A,3347.9172,S,15052.3410,E,101.5,176.0,010126,,*38
$GNGGA,000014.80,3347.9170,S,15052.3376,E,4,18,0.6,30.0,M,46.9,M,,*5E
$GNRMC,000014.80,A,3347.9170,S,15052.3376,E,101.5,176.0,010126,,*32
$GNGGA,000014.90,3347.9168,S,15052.3342,E,4,18,0.6,30.0,M,46.9,M,,*51
$GNRMC,000014.90,A,3347.9168,S,15052.3342,E,101.4,176.0,010126,,*3C
$GNGGA,000015.00,3347.9166,S,15052.3308,E,4,18,0.6,30.0,M,46.9,M,,*59
$GNRMC,000015.00,A,3347.9166,S,15052.3308,E,101.4,176.0,010126,,*34
$GNGGA,000015.10,3347.9164,S,15052.3274,E,4,18,0.6,30.0,M,46.9,M,,*50
$GNRMC,000015.10,A,3347.9164,S,15052.3274,E,101.3,176.0,010126,,*3A
$GNGGA,000015.20,3347.9163,S,15052.3241,E,4,18,0.6,30.0,M,46.9,M,,*52
$GNRMC,000015.20,A,3347.9163,S,15052.3241,E,101.2,177.6,010126,,*3E
$GNGGA,000015.30,3347.9162,S,15052.3207,E,4,18,0.6,30.0,M,46.9,M,,*50
$GNRMC,000015.30,A,3347.9162,S,15052.3207,E,101.2,177.6,010126,,*3C
$GNGGA,000015.40,3347.9160,S,15052.3173,E,4,18,0.6,30.0,M,46.9,M,,*55
$GNRMC,000015.40,A,3347.9160,S,15052.3173,E,101.1,177.6,010126,,*3A
$GNGGA,000015.50,3347.9159,S,15052.3139,E,4,18,0.6,30.0,M,46.9,M,,*50
$GNRMC,000015.50,A,3347.9159,S,15052.3139,E,101.1,177.6,010126,,*3F
$GNGGA,000015.60,3347.9158,S,15052.3106,E,4,18,0.6,30.0,M,46.9,M,,*5E
$GNRMC,000015.60,A,3347.9158,S,15052.3106,E,101.0,177.6,010126,,*30
$GNGGA,000015.70,3347.9157,S,15052.3072,E,4,18,0.6,30.0,M,46.9,M,,*52
$GNRMC,000015.70,A,3347.9157,S,15052.3072,E,100.9,177.6,010126,,*34
$GNGGA,000015.80,3347.9156,S,15052.3038,E,4,18,0.6,30.0,M,46.9,M,,*52
$GNRMC,000015.80,A,3347.9156,S,15052.3038,E,100.9,177.6,010126,,*34
$GNGGA,000015.90,3347.9155,S,15052.3005,E,4,18,0.6,30.0,M,46.9,M,,*5E
$GNRMC,000015.90,A,3347.9155,S,15052.3005,E,100.8,177.6,010126,,*39
$GNGGA,000016.00,3347.9153,S,15052.2971,E,4,18,0.6,30.0,M,46.9,M,,*59
$GNRMC,000016.00,A,3347.9153,S,15052.2971,E,100.7,177.6,010126,,*31
$GNGGA,000016.10,3347.9152,S,15052.2937,E,4,18,0.6,30.0,M,46.9,M,,*5B
$GNRMC,000016.10,A,3347.9152,S,15052.2937,E,100.7,177.6,010126,,*33
$GNGGA,000016.20,3347.9151,S,15052.2904,E,4,18,0.6,30.0,M,46.9,M,,*5B
$GNRMC,000016.20,A,3347.9151,S,15052.2904,E,100.6,177.6,010126,,*32
$GNGGA,000016.30,3347.9151,S,15052.2870,E,4,18,0.6,30.0,M,46.9,M,,*58
$GNRMC,000016.30,A,3347.9151,S,15052.2870,E,100.5,179.2,010126,,*38
$GNGGA,000016.40,3347.9150,S,15052.2836,E,4,18,0.6,30.0,M,46.9,M,,*5C
$GNRMC,000016.40,A,3347.9150,S,15052.2836,E,100.5,179.2,010126,,*3C
$GNGGA,000016.50,3347.9150,S,15052.2803,E,4,18,0.6,30.0,M,46.9,M,,*5B
$GNRMC,000016.50,A,3347.9150,S,15052.2803,E,100.4,179.2,010126,,*3A
$GNGGA,000016.60,3347.9149,S,15052.2769,E,4,18,0.6,30.0,M,46.9,M,,*53
$GNRMC,000016.60,A,3347.9149,S,15052.2769,E,100.4,179.2,010126,,*32
$GNGGA,000016.70,3347.9149,S,15052.2736,E,4,18,0.6,30.0,M,46.9,M,,*58
$GNRMC,000016.70,A,3347.9149,S,15052.2736,E,100.3,179.2,010126,,*3E
$GNGGA,000016.80,3347.9149,S,15052.2702,E,4,18,0.6,30.0,M,46.9,M,,*50
$GNRMC,000016.80,A,3347.9149,S,15052.2702,E,100.2,179.2,010126,,*37
$GNGGA,000016.90,3347.9148,S,15052.2669,E,4,18,0.6,30.0,M,46.9,M,,*5C
$GNRMC,000016.90,A,3347.9148,S,15052.2669,E,100.2,179.2,010126,,*3B
$GNGGA,000017.00,3347.9148,S,15052.2635,E,4,18,0.6,30.0,M,46.9,M,,*5D
$GNRMC,000017.00,A,3347.9148,S,15052.2635,E,100.1,179.2,010126,,*39
$GNGGA,000017.10,3347.9147,S,15052.2602,E,4,18,0.6,30.0,M,46.9,M,,*57
$GNRMC,000017.10,A,3347.9147,S,15052.2602,E,100.0,179.2,010126,,*32
$GNGGA,000017.20,3347.9147,S,15052.2569,E,4,18,0.6,30.0,M,46.9,M,,*5A
$GNRMC,000017.20,A,3347.9147,S,15052.2569,E,100.0,179.2,010126,,*3F
$GNGGA,000017.30,3347.9147,S,15052.2535,E,4,18,0.6,30.0,M,46.9,M,,*52
$GNRMC,000017.30,A,3347.9147,S,15052.2535,E,099.9,180.8,010126,,*33
$GNGGA,000017.40,3347.9147,S,15052.2502,E,4,18,0.6,30.0,M,46.9,M,,*51
$GNRMC,000017.40,A,3347.9147,S,15052.2502,E,099.8,180.8,010126,,*31
$GNGGA,000017.50,3347.9148,S,15052.2468,E,4,18,0.6,30.0,M,46.9,M,,*52
$GNRMC,000017.50,A,3347.9148,S,15052.2468,E,099.8,180.8,010126,,*32
$GNGGA,000017.60,3347.9148,S,15052.2435,E,4,18,0.6,30.0,M,46.9,M,,*59
$GNRMC,000017.60,A,3347.9148,S,15052.2435,E,099.7,180.8,010126,,*36
$GNGGA,000017.70,3347.9148,S,15052.2402,E,4,18,0.6,30.0,M,46.9,M,,*5C
$GNRMC,000017.70,A,3347.9148,S,15052.2402,E,099.6,180.8,010126,,*32
$GNGGA,000017.80,3347.9149,S,15052.2369,E,4,18,0.6,30.0,M,46.9,M,,*58
$GNRMC,000017.80,A,3347.9149,S,15052.2369,E,099.6,180.8,010126,,*36
$GNGGA,000017.90,3347.9149,S,15052.2335,E,4,18,0.6,30.0,M,46.9,M,,*50
$GNRMC,000017.90,A,3347.9149,S,15052.2335,E,099.5,180.8,010126,,*3D
$GNGGA,000018.00,3347.9149,S,15052.2302,E,4,18,0.6,30.0,M,46.9,M,,*52
$GNRMC,000018.00,A,3347.9149,S,15052.2302,E,099.5,180.8,010126,,*3F
$GNGGA,000018.10,3347.9150,S,15052.2269,E,4,18,0.6,30.0,M,46.9,M,,*57
$GNRMC,000018.10,A,3347.9150,S,15052.2269,E,099.4,180.8,010126,,*3B
$GNGGA,000018.20,3347.9150,S,15052.2236,E,4,18,0.6,30.0,M,46.9,M,,*5E
$GNRMC,000018.20,A,3347.9150,S,15052.2236,E,099.3,180.8,010126,,*35
$GNGGA,000018.30,3347.9151,S,15052.2202,E,4,18,0.6,30.0,M,46.9,M,,*59
$GNRMC,000018.30,A,3347.9151,S,15052.2202,E,099.3,180.8,010126,,*32
$GNGGA,000018.40,3347.9151,S,15052.2169,E,4,18,0.6,30.0,M,46.9,M,,*50
$GNRMC,000018.40,A,3347.9151,S,15052.2169,E,099.2,182.4,010126,,*34
$GNGGA,000018.50,3347.9152,S,15052.2136,E,4,18,0.6,30.0,M,46.9,M,,*58
$GNRMC,000018.50,A,3347.9152,S,15052.2136,E,099.1,182.4,010126,,*3F
$GNGGA,000018.60,3347.9154,S,15052.2103,E,4,18,0.6,30.0,M,46.9,M,,*5B
$GNRMC,000018.60,A,3347.9154,S,15052.2103,E,099.1,182.4,010126,,*3C
$GNGGA,000018.70,3347.9155,S,15052.2070,E,4,18,0.6,30.0,M,46.9,M,,*5E
$GNRMC,000018.70,A,3347.9155,S,15052.2070,E,099.0,182.4,010126,,*38
$GNGGA,000018.80,3347.9156,S,15052.2037,E,4,18,0.6,30.0,M,46.9,M,,*51
$GNRMC,000018.80,A,3347.9156,S,15052.2037,E,099.0,182.4,010126,,*37
$GNGGA,000018.90,3347.9157,S,15052.2004,E,4,18,0.6,30.0,M,46.9,M,,*51
$GNRMC,000018.90,A,3347.9157,S,15052.2004,E,098.9,182.4,010126,,*3F
$GNGGA,000019.00,3347.9158,S,15052.1971,E,4,18,0.6,30.0,M,46.9,M,,*5E
$GNRMC,000019.00,A,3347.9158,S,15052.1971,E,098.8,182.4,010126,,*31
$GNGGA,000019.10,3347.9159,S,15052.1938,E,4,18,0.6,30.0,M,46.9,M,,*53
$GNRMC,000019.10,A,3347.9159,S,15052.1938,E,098.8,182.4,010126,,*3C
$GNGGA,000019.20,3347.9160,S,15052.1905,E,4,18,0.6,30.0,M,46.9,M,,*54
$GNRMC,000019.20,A,3347.9160,S,15052.1905,E,098.7,182.4,010126,,*34
$GNGGA,000019.30,3347.9162,S,15052.1872,E,4,18,0.6,30.0,M,46.9,M,,*56
$GNRMC,000019.30,A,3347.9162,S,15052.1872,E,098.6,182.4,010126,,*37
$GNGGA,000019.40,3347.9163,S,15052.1839,E,4,18,0.6,30.0,M,46.9,M,,*5F
$GNRMC,000019.40,A,3347.9163,S,15052.1839,E,098.6,182.4,010126,,*3E
$GNGGA,000019.50,3347.9164,S,15052.1806,E,4,18,0.6,30.0,M,46.9,M,,*55
$GNRMC,000019.50,A,3347.9164,S,15052.1806,E,098.5,184.0,010126,,*35
$GNGGA,000019.60,3347.9166,S,15052.1773,E,4,18,0.6,30.0,M,46.9,M,,*59
$GNRMC,000019.60,A,3347.9166,S,15052.1773,E,098.5,184.0,010126,,*39
$GNGGA,000019.70,3347.9168,S,15052.1741,E,4,18,0.6,30.0,M,46.9,M,,*57
$GNRMC,000019.70,A,3347.9168,S,15052.1741,E,098.4,184.0,010126,,*36
$GNGGA,000019.80,3347.9170,S,15052.1708,E,4,18,0.6,30.0,M,46.9,M,,*5C
$GNRMC,000019.80,A,3347.9170,S,15052.1708,E,098.4,184.0,010126,,*3D
$GNGGA,000019.90,3347.9172,S,15052.1675,E,4,18,0.6,30.0,M,46.9,M,,*54
$GNRMC,000019.90,A,3347.9172,S,15052.1675,E,098.3,184.0,010126,,*32
$GNGGA,000020.00,3347.9174,S,15052.1642,E,4,18,0.6,30.0,M,46.9,M,,*55
$GNRMC,000020.00,A,3347.9174,S,15052.1642,E,098.2,184.0,010126,,*32
$GNGGA,000020.10,3347.9176,S,15052.1610,E,4,18,0.6,30.0,M,46.9,M,,*51
$GNRMC,000020.10,A,3347.9176,S,15052.1610,E,098.2,184.0,010126,,*36
$GNGGA,000020.20,3347.9178,S,15052.1577,E,4,18,0.6,30.0,M,46.9,M,,*5E
$GNRMC,000020.20,A,3347.9178,S,15052.1577,E,098.1,184.0,010126,,*3A
$GNGGA,000020.30,3347.9180,S,15052.1544,E,4,18,0.6,30.0,M,46.9,M,,*58
$GNRMC,000020.30,A,3347.9180,S,15052.1544,E,098.1,184.0,010126,,*3C
$GNGGA,000020.40,3347.9181,S,15052.1511,E,4,18,0.6,30.0,M,46.9,M,,*5E
$GNRMC,000020.40,A,3347.9181,S,15052.1511,E,098.0,184.0,010126,,*3B
$GNGGA,000020.50,3347.9183,S,15052.1479,E,4,18,0.6,30.0,M,46.9,M,,*52
$GNRMC,000020.50,A,3347.9183,S,15052.1479,E,098.0,185.6,010126,,*30
$GNGGA,000020.60,3347.9186,S,15052.1446,E,4,18,0.6,30.0,M,46.9,M,,*58
$GNRMC,000020.60,A,3347.9186,S,15052.1446,E,097.9,185.6,010126,,*3C
$GNGGA,000020.70,3347.9189,S,15052.1414,E,4,18,0.6,30.0,M,46.9,M,,*51
$GNRMC,000020.70,A,3347.9189,S,15052.1414,E,097.8,185.6,010126,,*34
$GNGGA,000020.80,3347.9191,S,15052.1381,E,4,18,0.6,30.0,M,46.9,M,,*5C
$GNRMC,000020.80,A,3347.9191,S,15052.1381,E,097.8,185.6,010126,,*39
$GNGGA,000020.90,3347.9194,S,15052.1349,E,4,18,0.6,30.0,M,46.9,M,,*5C
$GNRMC,000020.90,A,3347.9194,S,15052.1349,E,097.7,185.6,010126,,*36
$GNGGA,000021.00,3347.9197,S,15052.1316,E,4,18,0.6,30.0,M,46.9,M,,*5D
$GNRMC,000021.00,A,3347.9197,S,15052.1316,E,097.7,185.6,010126,,*37
$GNGGA,000021.10,3347.9199,S,15052.1284,E,4,18,0.6,30.0,M,46.9,M,,*58
$GNRMC,000021.10,A,3347.9199,S,15052.1284,E,097.6,185.6,010126,,*33
$GNGGA,000021.20,3347.9202,S,15052.1251,E,4,18,0.6,30.0,M,46.9,M,,*52
$GNRMC,000021.20,A,3347.9202,S,15052.1251,E,097.6,185.6,010126,,*39
$GNGGA,000021.30,3347.9205,S,15052.1219,E,4,18,0.6,30.0,M,46.9,M,,*58
$GNRMC,000021.30,A,3347.9205,S,15052.1219,E,097.5,185.6,010126,,*30
$GNGGA,000021.40,3347.9207,S,15052.1186,E,4,18,0.6,30.0,M,46.9,M,,*58
$GNRMC,000021.40,A,3347.9207,S,15052.1186,E,097.5,185.6,010126,,*30
$GNGGA,000021.50,3347.9210,S,15052.1154,E,4,18,0.6,30.0,M,46.9,M,,*50
$GNRMC,000021.50,A,3347.9210,S,15052.1154,E,097.4,185.6,010126,,*39
$GNGGA,000021.60,3347.9213,S,15052.1122,E,4,18,0.6,30.0,M,46.9,M,,*51
$GNRMC,000021.60,A,3347.9213,S,15052.1122,E,097.4,187.3,010126,,*3F
$GNGGA,000021.70,3347.9216,S,15052.1089,E,4,18,0.6,30.0,M,46.9,M,,*55
$GNRMC,000021.70,A,3347.9216,S,15052.1089,E,097.3,187.3,010126,,*3C
$GNGGA,000021.80,3347.9220,S,15052.1057,E,4,18,0.6,30.0,M,46.9,M,,*5C
$GNRMC,000021.80,A,3347.9220,S,15052.1057,E,097.3,187.3,010126,,*35
$GNGGA,000021.90,3347.9223,S,15052.1025,E,4,18,0.6,30.0,M,46.9,M,,*5B
$GNRMC,000021.90,A,3347.9223,S,15052.1025,E,097.3,187.3,010126,,*32
$GNGGA,000022.00,3347.9226,S,15052.0993,E,4,18,0.6,30.0,M,46.9,M,,*51
$GNRMC,000022.00,A,3347.9226,S,15052.0993,E,097.2,187.3,010126,,*39
$GNGGA,000022.10,3347.9230,S,15052.0960,E,4,18,0.6,30.0,M,46.9,M,,*5B
$GNRMC,000022.10,A,3347.9230,S,15052.0960,E,097.2,187.3,010126,,*33
$GNGGA,000022.20,3347.9233,S,15052.0928,E,4,18,0.6,30.0,M,46.9,M,,*57
$GNRMC,000022.20,A,3347.9233,S,15052.0928,E,097.1,187.3,010126,,*3C
$GNGGA,000022.30,3347.9237,S,15052.0896,E,4,18,0.6,30.0,M,46.9,M,,*56
$GNRMC,000022.30,A,3347.9237,S,15052.0896,E,097.1,187.3,010126,,*3D
$GNGGA,000022.40,3347.9240,S,15052.0864,E,4,18,0.6,30.0,M,46.9,M,,*5C
$GNRMC,000022.40,A,3347.9240,S,15052.0864,E,097.0,187.3,010126,,*36
$GNGGA,000022.50,3347.9244,S,15052.0832,E,4,18,0.6,30.0,M,46.9,M,,*5A
$GNRMC,000022.50,A,3347.9244,S,15052.0832,E,097.0,187.3,010126,,*30
$GNGGA,000022.60,3347.9247,S,15052.0800,E,4,18,0.6,30.0,M,46.9,M,,*5B
$GNRMC,000022.60,A,3347.9247,S,15052.0800,E,096.9,187.3,010126,,*39
$GNGGA,000022.70,3347.9251,S,15052.0767,E,4,18,0.6,30.0,M,46.9,M,,*53
$GNRMC,000022.70,A,3347.9251,S,15052.0767,E,096.9,189.0,010126,,*3C
$GNGGA,000022.80,3347.9255,S,15052.0736,E,4,18,0.6,30.0,M,46.9,M,,*5C
$GNRMC,000022.80,A,3347.9255,S,15052.0736,E,096.9,189.0,010126,,*33
$GNGGA,000022.90,3347.9259,S,15052.0704,E,4,18,0.6,30.0,M,46.9,M,,*50
$GNRMC,000022.90,A,3347.9259,S,15052.0704,E,096.8,189.0,010126,,*3E
$GNGGA,000023.00,3347.9264,S,15052.0672,E,4,18,0.6,30.0,M,46.9,M,,*56
$GNRMC,000023.00,A,3347.9264,S,15052.0672,E,096.8,189.0,010126,,*38
$GNGGA,000023.10,3347.9268,S,15052.0640,E,4,18,0.6,30.0,M,46.9,M,,*5A
$GNRMC,000023.10,A,3347.9268,S,15052.0640,E,096.8,189.0,010126,,*34
$GNGGA,000023.20,3347.9272,S,15052.0608,E,4,18,0.6,30.0,M,46.9,M,,*5E
$GNRMC,000023.20,A,3347.9272,S,15052.0608,E,096.7,189.0,010126,,*3F
$GNGGA,000023.30,3347.9276,S,15052.0576,E,4,18,0.6,30.0,M,46.9,M,,*51
$GNRMC,000023.30,A,3347.9276,S,15052.0576,E,096.7,189.0,010126,,*30
$GNGGA,000023.40,3347.9280,S,15052.0544,E,4,18,0.6,30.0,M,46.9,M,,*5E
$GNRMC,000023.40,A,3347.9280,S,15052.0544,E,096.7,189.0,010126,,*3F
$GNGGA,000023.50,3347.9285,S,15052.0512,E,4,18,0.6,30.0,M,46.9,M,,*59
$GNRMC,000023.50,A,3347.9285,S,15052.0512,E,096.6,189.0,010126,,*39
$GNGGA,000023.60,3347.9289,S,15052.0480,E,4,18,0.6,30.0,M,46.9,M,,*5C
$GNRMC,000023.60,A,3347.9289,S,15052.0480,E,096.6,189.0,010126,,*3C
$GNGGA,000023.70,3347.9293,S,15052.0448,E,4,18,0.6,30.0,M,46.9,M,,*52
$GNRMC,000023.70,A,3347.9293,S,15052.0448,E,096.6,190.8,010126,,*32
$GNGGA,000023.80,3347.9298,S,15052.0417,E,4,18,0.6,30.0,M,46.9,M,,*5C
$GNRMC,000023.80,A,3347.9298,S,15052.0417,E,096.5,190.8,010126,,*3F
$GNGGA,000023.90,3347.9303,S,15052.0385,E,4,18,0.6,30.0,M,46.9,M,,*52
$GNRMC,000023.90,A,3347.9303,S,15052.0385,E,096.5,190.8,010126,,*31
$GNGGA,000024.00,3347.9308,S,15052.0353,E,4,18,0.6,30.0,M,46.9,M,,*5C
$GNRMC,000024.00,A,3347.9308,S,15052.0353,E,096.5,190.8,010126,,*3F
$GNGGA,000024.10,3347.9313,S,15052.0322,E,4,18,0.6,30.0,M,46.9,M,,*51
$GNRMC,000024.10,A,3347.9313,S,15052.0322,E,096.4,190.8,010126,,*33
$GNGGA,000024.20,3347.9318,S,15052.0290,E,4,18,0.6,30.0,M,46.9,M,,*51
$GNRMC,000024.20,A,3347.9318,S,15052.0290,E,096.4,190.8,010126,,*33
$GNGGA,000024.30,3347.9323,S,15052.0258,E,4,18,0.6,30.0,M,46.9,M,,*5C
$GNRMC,000024.30,A,3347.9323,S,15052.0258,E,096.4,190.8,010126,,*3E
$GNGGA,000024.40,3347.9328,S,15052.0227,E,4,18,0.6,30.0,M,46.9,M,,*58
$GNRMC,000024.40,A,3347.9328,S,15052.0227,E,096.4,190.8,010126,,*3A
$GNGGA,000024.50,3347.9333,S,15052.0195,E,4,18,0.6,30.0,M,46.9,M,,*59
$GNRMC,000024.50,A,3347.9333,S,15052.0195,E,096.3,190.8,010126,,*3C
$GNGGA,000024.60,3347.9338,S,15052.0164,E,4,18,0.6,30.0,M,46.9,M,,*5F
$GNRMC,000024.60,A,3347.9338,S,15052.0164,E,096.3,190.8,010126,,*3A
$GNGGA,000024.70,3347.9343,S,15052.0132,E,4,18,0.6,30.0,M,46.9,M,,*51
$GNRMC,000024.70,A,3347.9343,S,15052.0132,E,096.3,192.7,010126,,*39
$GNGGA,000024.80,3347.9349,S,15052.0101,E,4,18,0.6,30.0,M,46.9,M,,*54
$GNRMC,000024.80,A,3347.9349,S,15052.0101,E,096.3,192.7,010126,,*3C
$GNGGA,000024.90,3347.9355,S,15052.0069,E,4,18,0.6,30.0,M,46.9,M,,*57
$GNRMC,000024.90,A,3347.9355,S,15052.0069,E,096.2,192.7,010126,,*3E
$GNGGA,000025.00,3347.9361,S,15052.0038,E,4,18,0.6,30.0,M,46.9,M,,*5C
$GNRMC,000025.00,A,3347.9361,S,15052.0038,E,096.2,192.7,010126,,*35
$GNGGA,000025.10,3347.9367,S,15052.0006,E,4,18,0.6,30.0,M,46.9,M,,*56
$GNRMC,000025.10,A,3347.9367,S,15052.0006,E,096.2,192.7,010126,,*3F
$GNGGA,000025.20,3347.9373,S,15051.9975,E,4,18,0.6,30.0,M,46.9,M,,*57
$GNRMC,000025.20,A,3347.9373,S,15051.9975,E,096.2,192.7,010126,,*3E
$GNGGA,000025.30,3347.9379,S,15051.9944,E,4,18,0.6,30.0,M,46.9,M,,*5E
$GNRMC,000025.30,A,3347.9379,S,15051.9944,E,096.2,192.7,010126,,*37
$GNGGA,000025.40,3347.9384,S,15051.9912,E,4,18,0.6,30.0,M,46.9,M,,*58
$GNRMC,000025.40,A,3347.9384,S,15051.9912,E,096.2,192.7,010126,,*31
$GNGGA,000025.50,3347.9390,S,15051.9881,E,4,18,0.6,30.0,M,46.9,M,,*57
$GNRMC,000025.50,A,3347.9390,S,15051.9881,E,096.1,192.7,010126,,*3D
$GNGGA,000025.60,3347.9396,S,15051.9850,E,4,18,0.6,30.0,M,46.9,M,,*5E
$GNRMC,000025.60,A,3347.9396,S,15051.9850,E,096.1,192.7,010126,,*34
$GNGGA,000025.70,3347.9402,S,15051.9818,E,4,18,0.6,30.0,M,46.9,M,,*59
$GNRMC,000025.70,A,3347.9402,S,15051.9818,E,096.1,194.7,010126,,*35
$GNGGA,000025.80,3347.9409,S,15051.9787,E,4,18,0.6,30.0,M,46.9,M,,*54
$GNRMC,000025.80,A,3347.9409,S,15051.9787,E,096.1,194.7,010126,,*38
$GNGGA,000025.90,3347.9416,S,15051.9756,E,4,18,0.6,30.0,M,46.9,M,,*57
$GNRMC,000025.90,A,3347.9416,S,15051.9756,E,096.1,194.7,010126,,*3B
$GNGGA,000026.00,3347.9422,S,15051.9725,E,4,18,0.6,30.0,M,46.9,M,,*5E
$GNRMC,000026.00,A,3347.9422,S,15051.9725,E,096.1,194.7,010126,,*32
$GNGGA,000026.10,3347.9429,S,15051.9694,E,4,18,0.6,30.0,M,46.9,M,,*5F
$GNRMC,000026.10,A,3347.9429,S,15051.9694,E,096.1,194.7,010126,,*33
$GNGGA,000026.20,3347.9436,S,15051.9663,E,4,18,0.6,30.0,M,46.9,M,,*5A
$GNRMC,000026.20,A,3347.9436,S,15051.9663,E,096.1,194.7,010126,,*36
$GNGGA,000026.30,3347.9443,S,15051.9632,E,4,18,0.6,30.0,M,46.9,M,,*5D
$GNRMC,000026.30,A,3347.9443,S,15051.9632,E,096.1,194.7,010126,,*31
$GNGGA,000026.40,3347.9449,S,15051.9601,E,4,18,0.6,30.0,M,46.9,M,,*50
$GNRMC,000026.40,A,3347.9449,S,15051.9601,E,096.0,194.7,010126,,*3D
$GNGGA,000026.50,3347.9456,S,15051.9570,E,4,18,0.6,30.0,M,46.9,M,,*5A
$GNRMC,000026.50,A,3347.9456,S,15051.9570,E,096.0,194.7,010126,,*37
$GNGGA,000026.60,3347.9463,S,15051.9539,E,4,18,0.6,30.0,M,46.9,M,,*52
$GNRMC,000026.60,A,3347.9463,S,15051.9539,E,096.0,194.7,010126,,*3F
$GNGGA,000026.70,3347.9470,S,15051.9508,E,4,18,0.6,30.0,M,46.9,M,,*53
$GNRMC,000026.70,A,3347.9470,S,15051.9508,E,096.0,196.8,010126,,*33
$GNGGA,000026.80,3347.9478,S,15051.9477,E,4,18,0.6,30.0,M,46.9,M,,*5D
$GNRMC,000026.80,A,3347.9478,S,15051.9477,E,096.0,196.8,010126,,*3D
$GNGGA,000026.90,3347.9485,S,15051.9447,E,4,18,0.6,30.0,M,46.9,M,,*5D
$GNRMC,000026.90,A,3347.9485,S,15051.9447,E,096.0,196.8,010126,,*3D
$GNGGA,000027.00,3347.9493,S,15051.9416,E,4,18,0.6,30.0,M,46.9,M,,*56
$GNRMC,000027.00,A,3347.9493,S,15051.9416,E,096.0,196.8,010126,,*36
$GNGGA,000027.10,3347.9501,S,15051.9385,E,4,18,0.6,30.0,M,46.9,M,,*50
$GNRMC,000027.10,A,3347.9501,S,15051.9385,E,096.0,196.8,010126,,*30
$GNGGA,000027.20,3347.9508,S,15051.9355,E,4,18,0.6,30.0,M,46.9,M,,*57
$GNRMC,000027.20,A,3347.9508,S,15051.9355,E,096.0,196.8,010126,,*37
$GNGGA,000027.30,3347.9516,S,15051.9324,E,4,18,0.6,30.0,M,46.9,M,,*5F
$GNRMC,000027.30,A,3347.9516,S,15051.9324,E,096.0,196.8,010126,,*3F
$GNGGA,000027.40,3347.9524,S,15051.9293,E,4,18,0.6,30.0,M,46.9,M,,*54
$GNRMC,000027.40,A,3347.9524,S,15051.9293,E,096.0,196.8,010126,,*34
$GNGGA,000027.50,3347.9532,S,15051.9262,E,4,18,0.6,30.0,M,46.9,M,,*5C
$GNRMC,000027.50,A,3347.9532,S,15051.9262,E,096.0,196.8,010126,,*3C
$GNGGA,000027.60,3347.9539,S,15051.9232,E,4,18,0.6,30.0,M,46.9,M,,*51
$GNRMC,000027.60,A,3347.9539,S,15051.9232,E,096.0,196.8,010126,,*31
$GNGGA,000027.70,3347.9548,S,15051.9201,E,4,18,0.6,30.0,M,46.9,M,,*56
$GNRMC,000027.70,A,3347.9548,S,15051.9201,E,096.1,199.1,010126,,*31
$GNGGA,000027.80,3347.9557,S,15051.9171,E,4,18,0.6,30.0,M,46.9,M,,*53
$GNRMC,000027.80,A,3347.9557,S,15051.9171,E,096.1,199.1,010126,,*34
$GNGGA,000027.90,3347.9565,S,15051.9141,E,4,18,0.6,30.0,M,46.9,M,,*50
$GNRMC,000027.90,A,3347.9565,S,15051.9141,E,096.1,199.1,010126,,*37
$GNGGA,000028.00,3347.9574,S,15051.9110,E,4,18,0.6,30.0,M,46.9,M,,*52
$GNRMC,000028.00,A,3347.9574,S,15051.9110,E,096.1,199.1,010126,,*35
$GNGGA,000028.10,3347.9583,S,15051.9080,E,4,18,0.6,30.0,M,46.9,M,,*53
$GNRMC,000028.10,A,3347.9583,S,15051.9080,E,096.1,199.1,010126,,*34
$GNGGA,000028.20,3347.9591,S,15051.9050,E,4,18,0.6,30.0,M,46.9,M,,*5E
$GNRMC,000028.20,A,3347.9591,S,15051.9050,E,096.1,199.1,010126,,*39
$GNGGA,000028.30,3347.9600,S,15051.9019,E,4,18,0.6,30.0,M,46.9,M,,*59
$GNRMC,000028.30,A,3347.9600,S,15051.9019,E,096.1,199.1,010126,,*3E
$GNGGA,000028.40,3347.9609,S,15051.8989,E,4,18,0.6,30.0,M,46.9,M,,*56
$GNRMC,000028.40,A,3347.9609,S,15051.8989,E,096.1,199.1,010126,,*31
$GNGGA,000028.50,3347.9618,S,15051.8959,E,4,18,0.6,30.0,M,46.9,M,,*5A
$GNRMC,000028.50,A,3347.9618,S,15051.8959,E,096.1,199.1,010126,,*3D
$GNGGA,000028.60,3347.9627,S,15051.8929,E,4,18,0.6,30.0,M,46.9,M,,*52
$GNRMC,000028.60,A,3347.9627,S,15051.8929,E,096.2,201.5,010126,,*30
$GNGGA,000028.70,3347.9637,S,15051.8899,E,4,18,0.6,30.0,M,46.9,M,,*58
$GNRMC,000028.70,A,3347.9637,S,15051.8899,E,096.2,201.5,010126,,*3A
$GNGGA,000028.80,3347.9647,S,15051.8869,E,4,18,0.6,30.0,M,46.9,M,,*5F
$GNRMC,000028.80,A,3347.9647,S,15051.8869,E,096.2,201.5,010126,,*3D
$GNGGA,000028.90,3347.9657,S,15051.8839,E,4,18,0.6,30.0,M,46.9,M,,*5A
$GNRMC,000028.90,A,3347.9657,S,15051.8839,E,096.2,201.5,010126,,*38
$GNGGA,000029.00,3347.9666,S,15051.8809,E,4,18,0.6,30.0,M,46.9,M,,*53
$GNRMC,000029.00,A,3347.9666,S,15051.8809,E,096.2,201.5,010126,,*31
$GNGGA,000029.10,3347.9676,S,15051.8779,E,4,18,0.6,30.0,M,46.9,M,,*5B
$GNRMC,000029.10,A,3347.9676,S,15051.8779,E,096.2,201.5,010126,,*39
$GNGGA,000029.20,3347.9686,S,15051.8749,E,4,18,0.6,30.0,M,46.9,M,,*54
$GNRMC,000029.20,A,3347.9686,S,15051.8749,E,096.3,201.5,010126,,*37
$GNGGA,000029.30,3347.9696,S,15051.8719,E,4,18,0.6,30.0,M,46.9,M,,*51
$GNRMC,000029.30,A,3347.9696,S,15051.8719,E,096.3,201.5,010126,,*32
$GNGGA,000029.40,3347.9706,S,15051.8690,E,4,18,0.6,30.0,M,46.9,M,,*5E
$GNRMC,000029.40,A,3347.9706,S,15051.8690,E,096.3,204.2,010126,,*3F
$GNGGA,000029.50,3347.9717,S,15051.8660,E,4,18,0.6,30.0,M,46.9,M,,*50
$GNRMC,000029.50,A,3347.9717,S,15051.8660,E,096.3,204.2,010126,,*31
$GNGGA,000029.60,3347.9728,S,15051.8631,E,4,18,0.6,30.0,M,46.9,M,,*5B
$GNRMC,000029.60,A,3347.9728,S,15051.8631,E,096.4,204.2,010126,,*3D
$GNGGA,000029.70,3347.9739,S,15051.8602,E,4,18,0.6,30.0,M,46.9,M,,*5A
$GNRMC,000029.70,A,3347.9739,S,15051.8602,E,096.4,204.2,010126,,*3C
$GNGGA,000029.80,3347.9750,S,15051.8572,E,4,18,0.6,30.0,M,46.9,M,,*5E
$GNRMC,000029.80,A,3347.9750,S,15051.8572,E,096.4,204.2,010126,,*38
$GNGGA,000029.90,3347.9761,S,15051.8543,E,4,18,0.6,30.0,M,46.9,M,,*5F
$GNRMC,000029.90,A,3347.9761,S,15051.8543,E,096.4,204.2,010126,,*39
$GNGGA,000030.00,3347.9772,S,15051.8513,E,4,18,0.6,30.0,M,46.9,M,,*59
$GNRMC,000030.00,A,3347.9772,S,15051.8513,E,096.5,204.2,010126,,*3E
$GNGGA,000030.10,3347.9783,S,15051.8484,E,4,18,0.6,30.0,M,46.9,M,,*59
$GNRMC,000030.10,A,3347.9783,S,15051.8484,E,096.5,204.2,010126,,*3E
$GNGGA,000030.20,3347.9793,S,15051.8455,E,4,18,0.6,30.0,M,46.9,M,,*57
$GNRMC,000030.20,A,3347.9793,S,15051.8455,E,096.5,204.2,010126,,*30
$GNGGA,000030.30,3347.9806,S,15051.8426,E,4,18,0.6,30.0,M,46.9,M,,*51
$GNRMC,000030.30,A,3347.9806,S,15051.8426,E,096.6,207.2,010126,,*36
$GNGGA,000030.40,3347.9818,S,15051.8397,E,4,18,0.6,30.0,M,46.9,M,,*54
$GNRMC,000030.40,A,3347.9818,S,15051.8397,E,096.6,207.2,010126,,*33
$GNGGA,000030.50,3347.9830,S,15051.8368,E,4,18,0.6,30.0,M,46.9,M,,*5F
$GNRMC,000030.50,A,3347.9830,S,15051.8368,E,096.6,207.2,010126,,*38
$GNGGA,000030.60,3347.9842,S,15051.8340,E,4,18,0.6,30.0,M,46.9,M,,*53
$GNRMC,000030.60,A,3347.9842,S,15051.8340,E,096.7,207.2,010126,,*35
$GNGGA,000030.70,3347.9854,S,15051.8311,E,4,18,0.6,30.0,M,46.9,M,,*51
$GNRMC,000030.70,A,3347.9854,S,15051.8311,E,096.7,207.2,010126,,*37
$GNGGA,000030.80,3347.9867,S,15051.8282,E,4,18,0.6,30.0,M,46.9,M,,*55
$GNRMC,000030.80,A,3347.9867,S,15051.8282,E,096.7,207.2,010126,,*33
$GNGGA,000030.90,3347.9879,S,15051.8253,E,4,18,0.6,30.0,M,46.9,M,,*57
$GNRMC,000030.90,A,3347.9879,S,15051.8253,E,096.8,207.2,010126,,*3E
$GNGGA,000031.00,3347.9891,S,15051.8225,E,4,18,0.6,30.0,M,46.9,M,,*58
$GNRMC,000031.00,A,3347.9891,S,15051.8225,E,096.8,207.2,010126,,*31
$GNGGA,000031.10,3347.9905,S,15051.8197,E,4,18,0.6,30.0,M,46.9,M,,*5F
$GNRMC,000031.10,A,3347.9905,S,15051.8197,E,096.8,210.4,010126,,*36
$GNGGA,000031.20,3347.9918,S,15051.8169,E,4,18,0.6,30.0,M,46.9,M,,*51
$GNRMC,000031.20,A,3347.9918,S,15051.8169,E,096.9,210.4,010126,,*39
$GNGGA,000031.30,3347.9932,S,15051.8141,E,4,18,0.6,30.0,M,46.9,M,,*52
$GNRMC,000031.30,A,3347.9932,S,15051.8141,E,096.9,210.4,010126,,*3A
$GNGGA,000031.40,3347.9946,S,15051.8113,E,4,18,0.6,30.0,M,46.9,M,,*51
$GNRMC,000031.40,A,3347.9946,S,15051.8113,E,096.9,210.4,010126,,*39
$GNGGA,000031.50,3347.9959,S,15051.8085,E,4,18,0.6,30.0,M,46.9,M,,*50
$GNRMC,000031.50,A,3347.9959,S,15051.8085,E,097.0,210.4,010126,,*30
$GNGGA,000031.60,3347.9973,S,15051.8057,E,4,18,0.6,30.0,M,46.9,M,,*54
$GNRMC,000031.60,A,3347.9973,S,15051.8057,E,097.0,210.4,010126,,*34
$GNGGA,000031.70,3347.9987,S,15051.8029,E,4,18,0.6,30.0,M,46.9,M,,*57
$GNRMC,000031.70,A,3347.9987,S,15051.8029,E,097.1,210.4,010126,,*36
$GNGGA,000031.80,3348.0001,S,15051.8002,E,4,18,0.6,30.0,M,46.9,M,,*50
$GNRMC,000031.80,A,3348.0001,S,15051.8002,E,097.1,214.1,010126,,*30
$GNGGA,000031.90,3348.0016,S,15051.7975,E,4,18,0.6,30.0,M,46.9,M,,*51
$GNRMC,000031.90,A,3348.0016,S,15051.7975,E,097.2,214.1,010126,,*32
$GNGGA,000032.00,3348.0031,S,15051.7948,E,4,18,0.6,30.0,M,46.9,M,,*50
$GNRMC,000032.00,A,3348.0031,S,15051.7948,E,097.2,214.1,010126,,*33
$GNGGA,000032.10,3348.0046,S,15051.7921,E,4,18,0.6,30.0,M,46.9,M,,*5E
$GNRMC,000032.10,A,3348.0046,S,15051.7921,E,097.3,214.1,010126,,*3C
$GNGGA,000032.20,3348.0062,S,15051.7894,E,4,18,0.6,30.0,M,46.9,M,,*54
$GNRMC,000032.20,A,3348.0062,S,15051.7894,E,097.3,214.1,010126,,*36
$GNGGA,000032.30,3348.0077,S,15051.7868,E,4,18,0.6,30.0,M,46.9,M,,*52
$GNRMC,000032.30,A,3348.0077,S,15051.7868,E,097.3,214.1,010126,,*30
$GNGGA,000032.40,3348.0092,S,15051.7841,E,4,18,0.6,30.0,M,46.9,M,,*55
$GNRMC,000032.40,A,3348.0092,S,15051.7841,E,097.4,214.1,010126,,*30
$GNGGA,000032.50,3348.0108,S,15051.7814,E,4,18,0.6,30.0,M,46.9,M,,*56
$GNRMC,000032.50,A,3348.0108,S,15051.7814,E,097.4,218.2,010126,,*3C
$GNGGA,000032.60,3348.0125,S,15051.7789,E,4,18,0.6,30.0,M,46.9,M,,*51
$GNRMC,000032.60,A,3348.0125,S,15051.7789,E,097.5,218.2,010126,,*3A
$GNGGA,000032.70,3348.0141,S,15051.7763,E,4,18,0.6,30.0,M,46.9,M,,*56
$GNRMC,000032.70,A,3348.0141,S,15051.7763,E,097.5,218.2,010126,,*3D
$GNGGA,000032.80,3348.0158,S,15051.7738,E,4,18,0.6,30.0,M,46.9,M,,*5F
$GNRMC,000032.80,A,3348.0158,S,15051.7738,E,097.6,218.2,010126,,*37
$GNGGA,000032.90,3348.0175,S,15051.7712,E,4,18,0.6,30.0,M,46.9,M,,*59
$GNRMC,000032.90,A,3348.0175,S,15051.7712,E,097.6,218.2,010126,,*31
$GNGGA,000033.00,3348.0192,S,15051.7687,E,4,18,0.6,30.0,M,46.9,M,,*55
$GNRMC,000033.00,A,3348.0192,S,15051.7687,E,097.7,218.2,010126,,*3C
$GNGGA,000033.10,3348.0209,S,15051.7661,E,4,18,0.6,30.0,M,46.9,M,,*5D
$GNRMC,000033.10,A,3348.0209,S,15051.7661,E,097.7,222.9,010126,,*36
$GNGGA,000033.20,3348.0227,S,15051.7637,E,4,18,0.6,30.0,M,46.9,M,,*51
$GNRMC,000033.20,A,3348.0227,S,15051.7637,E,097.8,222.9,010126,,*35
$GNGGA,000033.30,3348.0246,S,15051.7613,E,4,18,0.6,30.0,M,46.9,M,,*51
$GNRMC,000033.30,A,3348.0246,S,15051.7613,E,097.8,222.9,010126,,*35
$GNGGA,000033.40,3348.0264,S,15051.7589,E,4,18,0.6,30.0,M,46.9,M,,*56
$GNRMC,000033.40,A,3348.0264,S,15051.7589,E,097.9,222.9,010126,,*33
$GNGGA,000033.50,3348.0282,S,15051.7565,E,4,18,0.6,30.0,M,46.9,M,,*5D
$GNRMC,000033.50,A,3348.0282,S,15051.7565,E,098.0,222.9,010126,,*3E
$GNGGA,000033.60,3348.0301,S,15051.7541,E,4,18,0.6,30.0,M,46.9,M,,*52
$GNRMC,000033.60,A,3348.0301,S,15051.7541,E,098.0,222.9,010126,,*31
$GNGGA,000033.70,3348.0320,S,15051.7517,E,4,18,0.6,30.0,M,46.9,M,,*53
$GNRMC,000033.70,A,3348.0320,S,15051.7517,E,098.1,222.9,010126,,*31
$GNGGA,000033.80,3348.0340,S,15051.7495,E,4,18,0.6,30.0,M,46.9,M,,*51
$GNRMC,000033.80,A,3348.0340,S,15051.7495,E,098.1,228.2,010126,,*32
$GNGGA,000033.90,3348.0360,S,15051.7473,E,4,18,0.6,30.0,M,46.9,M,,*5A
$GNRMC,000033.90,A,3348.0360,S,15051.7473,E,098.2,228.2,010126,,*3A
$GNGGA,000034.00,3348.0380,S,15051.7451,E,4,18,0.6,30.0,M,46.9,M,,*5A
$GNRMC,000034.00,A,3348.0380,S,15051.7451,E,098.2,228.2,010126,,*3A
$GNGGA,000034.10,3348.0401,S,15051.7430,E,4,18,0.6,30.0,M,46.9,M,,*52
$GNRMC,000034.10,A,3348.0401,S,15051.7430,E,098.3,228.2,010126,,*33
$GNGGA,000034.20,3348.0421,S,15051.7408,E,4,18,0.6,30.0,M,46.9,M,,*58
$GNRMC,000034.20,A,3348.0421,S,15051.7408,E,098.3,228.2,010126,,*39
$GNGGA,000034.30,3348.0442,S,15051.7386,E,4,18,0.6,30.0,M,46.9,M,,*5D
$GNRMC,000034.30,A,3348.0442,S,15051.7386,E,098.4,234.2,010126,,*36
$GNGGA,000034.40,3348.0464,S,15051.7367,E,4,18,0.6,30.0,M,46.9,M,,*51
$GNRMC,000034.40,A,3348.0464,S,15051.7367,E,098.5,234.2,010126,,*3B
$GNGGA,000034.50,3348.0486,S,15051.7348,E,4,18,0.6,30.0,M,46.9,M,,*51
$GNRMC,000034.50,A,3348.0486,S,15051.7348,E,098.5,234.2,010126,,*3B
$GNGGA,000034.60,3348.0508,S,15051.7328,E,4,18,0.6,30.0,M,46.9,M,,*53
$GNRMC,000034.60,A,3348.0508,S,15051.7328,E,098.6,234.2,010126,,*3A
$GNGGA,000034.70,3348.0530,S,15051.7309,E,4,18,0.6,30.0,M,46.9,M,,*5A
$GNRMC,000034.70,A,3348.0530,S,15051.7309,E,098.6,234.2,010126,,*33
$GNGGA,000034.80,3348.0552,S,15051.7290,E,4,18,0.6,30.0,M,46.9,M,,*50
$GNRMC,000034.80,A,3348.0552,S,15051.7290,E,098.7,234.2,010126,,*38
$GNGGA,000034.90,3348.0576,S,15051.7273,E,4,18,0.6,30.0,M,46.9,M,,*5A
$GNRMC,000034.90,A,3348.0576,S,15051.7273,E,098.8,241.0,010126,,*3D
$GNGGA,000035.00,3348.0600,S,15051.7257,E,4,18,0.6,30.0,M,46.9,M,,*56
$GNRMC,000035.00,A,3348.0600,S,15051.7257,E,098.8,241.0,010126,,*31
$GNGGA,000035.10,3348.0624,S,15051.7241,E,4,18,0.6,30.0,M,46.9,M,,*56
$GNRMC,000035.10,A,3348.0624,S,15051.7241,E,098.9,241.0,010126,,*30
$GNGGA,000035.20,3348.0648,S,15051.7225,E,4,18,0.6,30.0,M,46.9,M,,*5D
$GNRMC,000035.20,A,3348.0648,S,15051.7225,E,098.9,241.0,010126,,*3B
$GNGGA,000035.30,3348.0672,S,15051.7209,E,4,18,0.6,30.0,M,46.9,M,,*5B
$GNRMC,000035.30,A,3348.0672,S,15051.7209,E,099.0,241.0,010126,,*35
$GNGGA,000035.40,3348.0697,S,15051.7196,E,4,18,0.6,30.0,M,46.9,M,,*52
$GNRMC,000035.40,A,3348.0697,S,15051.7196,E,099.1,248.6,010126,,*32
$GNGGA,000035.50,3348.0723,S,15051.7184,E,4,18,0.6,30.0,M,46.9,M,,*5E
$GNRMC,000035.50,A,3348.0723,S,15051.7184,E,099.1,248.6,010126,,*3E
$GNGGA,000035.60,3348.0748,S,15051.7172,E,4,18,0.6,30.0,M,46.9,M,,*59
$GNRMC,000035.60,A,3348.0748,S,15051.7172,E,099.2,248.6,010126,,*3A
$GNGGA,000035.70,3348.0774,S,15051.7160,E,4,18,0.6,30.0,M,46.9,M,,*54
$GNRMC,000035.70,A,3348.0774,S,15051.7160,E,099.3,248.6,010126,,*36
$GNGGA,000035.80,3348.0800,S,15051.7148,E,4,18,0.6,30.0,M,46.9,M,,*5D
$GNRMC,000035.80,A,3348.0800,S,15051.7148,E,099.3,248.6,010126,,*3F
$GNGGA,000035.90,3348.0827,S,15051.7140,E,4,18,0.6,30.0,M,46.9,M,,*51
$GNRMC,000035.90,A,3348.0827,S,15051.7140,E,099.4,256.8,010126,,*35
$GNGGA,000036.00,3348.0853,S,15051.7132,E,4,18,0.6,30.0,M,46.9,M,,*5D
$GNRMC,000036.00,A,3348.0853,S,15051.7132,E,099.5,256.8,010126,,*38
$GNGGA,000036.10,3348.0880,S,15051.7125,E,4,18,0.6,30.0,M,46.9,M,,*54
$GNRMC,000036.10,A,3348.0880,S,15051.7125,E,099.5,256.8,010126,,*31
$GNGGA,000036.20,3348.0907,S,15051.7117,E,4,18,0.6,30.0,M,46.9,M,,*58
$GNRMC,000036.20,A,3348.0907,S,15051.7117,E,099.6,256.8,010126,,*3E
$GNGGA,000036.30,3348.0934,S,15051.7111,E,4,18,0.6,30.0,M,46.9,M,,*5F
$GNRMC,000036.30,A,3348.0934,S,15051.7111,E,099.6,265.6,010126,,*37
$GNGGA,000036.40,3348.0962,S,15051.7109,E,4,18,0.6,30.0,M,46.9,M,,*52
$GNRMC,000036.40,A,3348.0962,S,15051.7109,E,099.7,265.6,010126,,*3B
$GNGGA,000036.50,3348.0989,S,15051.7106,E,4,18,0.6,30.0,M,46.9,M,,*59
$GNRMC,000036.50,A,3348.0989,S,15051.7106,E,099.8,265.6,010126,,*3F
$GNGGA,000036.60,3348.1017,S,15051.7103,E,4,18,0.6,30.0,M,46.9,M,,*50
$GNRMC,000036.60,A,3348.1017,S,15051.7103,E,099.8,265.6,010126,,*36
$GNGGA,000036.70,3348.1045,S,15051.7101,E,4,18,0.6,30.0,M,46.9,M,,*54
$GNRMC,000036.70,A,3348.1045,S,15051.7101,E,099.9,265.6,010126,,*33
$GNGGA,000036.80,3348.1072,S,15051.7102,E,4,18,0.6,30.0,M,46.9,M,,*5C
$GNRMC,000036.80,A,3348.1072,S,15051.7102,E,100.0,274.4,010126,,*31
$GNGGA,000036.90,3348.1100,S,15051.7105,E,4,18,0.6,30.0,M,46.9,M,,*5E
$GNRMC,000036.90,A,3348.1100,S,15051.7105,E,100.0,274.4,010126,,*33
$GNGGA,000037.00,3348.1128,S,15051.7108,E,4,18,0.6,30.0,M,46.9,M,,*51
$GNRMC,000037.00,A,3348.1128,S,15051.7108,E,100.1,274.4,010126,,*3D
$GNGGA,000037.10,3348.1155,S,15051.7110,E,4,18,0.6,30.0,M,46.9,M,,*53
$GNRMC,000037.10,A,3348.1155,S,15051.7110,E,100.2,274.4,010126,,*3C
$GNGGA,000037.20,3348.1183,S,15051.7114,E,4,18,0.6,30.0,M,46.9,M,,*5F
$GNRMC,000037.20,A,3348.1183,S,15051.7114,E,100.2,283.2,010126,,*3E
$GNGGA,000037.30,3348.1210,S,15051.7122,E,4,18,0.6,30.0,M,46.9,M,,*52
$GNRMC,000037.30,A,3348.1210,S,15051.7122,E,100.3,283.2,010126,,*32
$GNGGA,000037.40,3348.1237,S,15051.7130,E,4,18,0.6,30.0,M,46.9,M,,*53
$GNRMC,000037.40,A,3348.1237,S,15051.7130,E,100.4,283.2,010126,,*34
$GNGGA,000037.50,3348.1264,S,15051.7137,E,4,18,0.6,30.0,M,46.9,M,,*53
$GNRMC,000037.50,A,3348.1264,S,15051.7137,E,100.4,283.2,010126,,*34
$GNGGA,000037.60,3348.1291,S,15051.7145,E,4,18,0.6,30.0,M,46.9,M,,*5F
$GNRMC,000037.60,A,3348.1291,S,15051.7145,E,100.5,283.2,010126,,*39
$GNGGA,000037.70,3348.1318,S,15051.7156,E,4,18,0.6,30.0,M,46.9,M,,*5C
$GNRMC,000037.70,A,3348.1318,S,15051.7156,E,100.5,291.4,010126,,*3F
$GNGGA,000037.80,3348.1344,S,15051.7168,E,4,18,0.6,30.0,M,46.9,M,,*57
$GNRMC,000037.80,A,3348.1344,S,15051.7168,E,100.6,291.4,010126,,*37
$GNGGA,000037.90,3348.1370,S,15051.7180,E,4,18,0.6,30.0,M,46.9,M,,*57
$GNRMC,000037.90,A,3348.1370,S,15051.7180,E,100.7,291.4,010126,,*36
$GNGGA,000038.00,3348.1396,S,15051.7193,E,4,18,0.6,30.0,M,46.9,M,,*5B
$GNRMC,000038.00,A,3348.1396,S,15051.7193,E,100.7,291.4,010126,,*3A
$GNGGA,000038.10,3348.1422,S,15051.7205,E,4,18,0.6,30.0,M,46.9,M,,*5E
$GNRMC,000038.10,A,3348.1422,S,15051.7205,E,100.8,299.0,010126,,*3C
$GNGGA,000038.20,3348.1446,S,15051.7221,E,4,18,0.6,30.0,M,46.9,M,,*59
$GNRMC,000038.20,A,3348.1446,S,15051.7221,E,100.9,299.0,010126,,*3A
$GNGGA,000038.30,3348.1471,S,15051.7238,E,4,18,0.6,30.0,M,46.9,M,,*54
$GNRMC,000038.30,A,3348.1471,S,15051.7238,E,100.9,299.0,010126,,*37
$GNGGA,000038.40,3348.1495,S,15051.7254,E,4,18,0.6,30.0,M,46.9,M,,*53
$GNRMC,000038.40,A,3348.1495,S,15051.7254,E,101.0,299.0,010126,,*38
$GNGGA,000038.50,3348.1520,S,15051.7270,E,4,18,0.6,30.0,M,46.9,M,,*5B
$GNRMC,000038.50,A,3348.1520,S,15051.7270,E,101.1,299.0,010126,,*31
$GNGGA,000038.60,3348.1544,S,15051.7287,E,4,18,0.6,30.0,M,46.9,M,,*52
$GNRMC,000038.60,A,3348.1544,S,15051.7287,E,101.1,305.8,010126,,*34
$GNGGA,000038.70,3348.1567,S,15051.7307,E,4,18,0.6,30.0,M,46.9,M,,*5B
$GNRMC,000038.70,A,3348.1567,S,15051.7307,E,101.2,305.8,010126,,*3E
$GNGGA,000038.80,3348.1590,S,15051.7326,E,4,18,0.6,30.0,M,46.9,M,,*5F
$GNRMC,000038.80,A,3348.1590,S,15051.7326,E,101.2,305.8,010126,,*3A
$GNGGA,000038.90,3348.1612,S,15051.7346,E,4,18,0.6,30.0,M,46.9,M,,*51
$GNRMC,000038.90,A,3348.1612,S,15051.7346,E,101.3,305.8,010126,,*35
$GNGGA,000039.00,3348.1635,S,15051.7366,E,4,18,0.6,30.0,M,46.9,M,,*5E
$GNRMC,000039.00,A,3348.1635,S,15051.7366,E,101.4,305.8,010126,,*3D
$GNGGA,000039.10,3348.1658,S,15051.7386,E,4,18,0.6,30.0,M,46.9,M,,*5A
$GNRMC,000039.10,A,3348.1658,S,15051.7386,E,101.4,305.8,010126,,*39
$GNGGA,000039.20,3348.1679,S,15051.7408,E,4,18,0.6,30.0,M,46.9,M,,*5B
$GNRMC,000039.20,A,3348.1679,S,15051.7408,E,101.5,311.8,010126,,*3C
$GNGGA,000039.30,3348.1700,S,15051.7431,E,4,18,0.6,30.0,M,46.9,M,,*5F
$GNRMC,000039.30,A,3348.1700,S,15051.7431,E,101.5,311.8,010126,,*38
$GNGGA,000039.40,3348.1721,S,15051.7453,E,4,18,0.6,30.0,M,46.9,M,,*5F
$GNRMC,000039.40,A,3348.1721,S,15051.7453,E,101.6,311.8,010126,,*3B
$GNGGA,000039.50,3348.1742,S,15051.7476,E,4,18,0.6,30.0,M,46.9,M,,*5C
$GNRMC,000039.50,A,3348.1742,S,15051.7476,E,101.7,311.8,010126,,*39
$GNGGA,000039.60,3348.1763,S,15051.7498,E,4,18,0.6,30.0,M,46.9,M,,*5C
$GNRMC,000039.60,A,3348.1763,S,15051.7498,E,101.7,311.8,010126,,*39
$GNGGA,000039.70,3348.1784,S,15051.7522,E,4,18,0.6,30.0,M,46.9,M,,*54
$GNRMC,000039.70,A,3348.1784,S,15051.7522,E,101.8,317.1,010126,,*31
$GNGGA,000039.80,3348.1803,S,15051.7547,E,4,18,0.6,30.0,M,46.9,M,,*58
$GNRMC,000039.80,A,3348.1803,S,15051.7547,E,101.8,317.1,010126,,*3D
$GNGGA,000039.90,3348.1822,S,15051.7571,E,4,18,0.6,30.0,M,46.9,M,,*5F
$GNRMC,000039.90,A,3348.1822,S,15051.7571,E,101.9,317.1,010126,,*3B
$GNGGA,000040.00,3348.1842,S,15051.7596,E,4,18,0.6,30.0,M,46.9,M,,*57
$GNRMC,000040.00,A,3348.1842,S,15051.7596,E,101.9,317.1,010126,,*33
$GNGGA,000040.10,3348.1861,S,15051.7621,E,4,18,0.6,30.0,M,46.9,M,,*58
$GNRMC,000040.10,A,3348.1861,S,15051.7621,E,102.0,317.1,010126,,*36
$GNGGA,000040.20,3348.1880,S,15051.7646,E,4,18,0.6,30.0,M,46.9,M,,*55
$GNRMC,000040.20,A,3348.1880,S,15051.7646,E,102.1,317.1,010126,,*3A
$GNGGA,000040.30,3348.1899,S,15051.7672,E,4,18,0.6,30.0,M,46.9,M,,*5B
$GNRMC,000040.30,A,3348.1899,S,15051.7672,E,102.1,321.8,010126,,*38
$GNGGA,000040.40,3348.1916,S,15051.7699,E,4,18,0.6,30.0,M,46.9,M,,*5F
$GNRMC,000040.40,A,3348.1916,S,15051.7699,E,102.2,321.8,010126,,*3F
$GNGGA,000040.50,3348.1934,S,15051.7726,E,4,18,0.6,30.0,M,46.9,M,,*5B
$GNRMC,000040.50,A,3348.1934,S,15051.7726,E,102.2,321.8,010126,,*3B
$GNGGA,000040.60,3348.1951,S,15051.7752,E,4,18,0.6,30.0,M,46.9,M,,*58
$GNRMC,000040.60,A,3348.1951,S,15051.7752,E,102.3,321.8,010126,,*39
$GNGGA,000040.70,3348.1969,S,15051.7779,E,4,18,0.6,30.0,M,46.9,M,,*5B
$GNRMC,000040.70,A,3348.1969,S,15051.7779,E,102.3,321.8,010126,,*3A
$GNGGA,000040.80,3348.1987,S,15051.7806,E,4,18,0.6,30.0,M,46.9,M,,*53
$GNRMC,000040.80,A,3348.1987,S,15051.7806,E,102.4,321.8,010126,,*35
$GNGGA,000040.90,3348.2004,S,15051.7833,E,4,18,0.6,30.0,M,46.9,M,,*55
$GNRMC,000040.90,A,3348.2004,S,15051.7833,E,102.4,325.9,010126,,*36
$GNGGA,000041.00,3348.2020,S,15051.7862,E,4,18,0.6,30.0,M,46.9,M,,*5F
$GNRMC,000041.00,A,3348.2020,S,15051.7862,E,102.5,325.9,010126,,*3D
$GNGGA,000041.10,3348.2036,S,15051.7890,E,4,18,0.6,30.0,M,46.9,M,,*54
$GNRMC,000041.10,A,3348.2036,S,15051.7890,E,102.5,325.9,010126,,*36
$GNGGA,000041.20,3348.2052,S,15051.7918,E,4,18,0.6,30.0,M,46.9,M,,*54
$GNRMC,000041.20,A,3348.2052,S,15051.7918,E,102.6,325.9,010126,,*35
$GNGGA,000041.30,3348.2068,S,15051.7947,E,4,18,0.6,30.0,M,46.9,M,,*56
$GNRMC,000041.30,A,3348.2068,S,15051.7947,E,102.6,325.9,010126,,*37
$GNGGA,000041.40,3348.2084,S,15051.7975,E,4,18,0.6,30.0,M,46.9,M,,*52
$GNRMC,000041.40,A,3348.2084,S,15051.7975,E,102.7,325.9,010126,,*32
$GNGGA,000041.50,3348.2100,S,15051.8003,E,4,18,0.6,30.0,M,46.9,M,,*59
$GNRMC,000041.50,A,3348.2100,S,15051.8003,E,102.7,325.9,010126,,*39
$GNGGA,000041.60,3348.2115,S,15051.8032,E,4,18,0.6,30.0,M,46.9,M,,*5C
$GNRMC,000041.60,A,3348.2115,S,15051.8032,E,102.8,329.6,010126,,*30
$GNGGA,000041.70,3348.2129,S,15051.8062,E,4,18,0.6,30.0,M,46.9,M,,*57
$GNRMC,000041.70,A,3348.2129,S,15051.8062,E,102.8,329.6,010126,,*3B
$GNGGA,000041.80,3348.2144,S,15051.8092,E,4,18,0.6,30.0,M,46.9,M,,*5C
$GNRMC,000041.80,A,3348.2144,S,15051.8092,E,102.8,329.6,010126,,*30
$GNGGA,000041.90,3348.2158,S,15051.8121,E,4,18,0.6,30.0,M,46.9,M,,*59
$GNRMC,000041.90,A,3348.2158,S,15051.8121,E,102.9,329.6,010126,,*34
$GNGGA,000042.00,3348.2173,S,15051.8151,E,4,18,0.6,30.0,M,46.9,M,,*5D
$GNRMC,000042.00,A,3348.2173,S,15051.8151,E,102.9,329.6,010126,,*30
$GNGGA,000042.10,3348.2187,S,15051.8181,E,4,18,0.6,30.0,M,46.9,M,,*5A
$GNRMC,000042.10,A,3348.2187,S,15051.8181,E,103.0,329.6,010126,,*3F
$GNGGA,000042.20,3348.2202,S,15051.8210,E,4,18,0.6,30.0,M,46.9,M,,*5C
$GNRMC,000042.20,A,3348.2202,S,15051.8210,E,103.0,329.6,010126,,*39
$GNGGA,000042.30,3348.2215,S,15051.8240,E,4,18,0.6,30.0,M,46.9,M,,*5E
$GNRMC,000042.30,A,3348.2215,S,15051.8240,E,103.1,332.8,010126,,*3E
$GNGGA,000042.40,3348.2229,S,15051.8271,E,4,18,0.6,30.0,M,46.9,M,,*54
$GNRMC,000042.40,A,3348.2229,S,15051.8271,E,103.1,332.8,010126,,*34
$GNGGA,000042.50,3348.2242,S,15051.8302,E,4,18,0.6,30.0,M,46.9,M,,*5D
$GNRMC,000042.50,A,3348.2242,S,15051.8302,E,103.1,332.8,010126,,*3D
$GNGGA,000042.60,3348.2255,S,15051.8332,E,4,18,0.6,30.0,M,46.9,M,,*5B
$GNRMC,000042.60,A,3348.2255,S,15051.8332,E,103.2,332.8,010126,,*38
$GNGGA,000042.70,3348.2268,S,15051.8363,E,4,18,0.6,30.0,M,46.9,M,,*50
$GNRMC,000042.70,A,3348.2268,S,15051.8363,E,103.2,332.8,010126,,*33
$GNGGA,000042.80,3348.2281,S,15051.8394,E,4,18,0.6,30.0,M,46.9,M,,*50
$GNRMC,000042.80,A,3348.2281,S,15051.8394,E,103.2,332.8,010126,,*33
$GNGGA,000042.90,3348.2294,S,15051.8424,E,4,18,0.6,30.0,M,46.9,M,,*59
$GNRMC,000042.90,A,3348.2294,S,15051.8424,E,103.3,332.8,010126,,*3B
$GNGGA,000043.00,3348.2307,S,15051.8455,E,4,18,0.6,30.0,M,46.9,M,,*5C
$GNRMC,000043.00,A,3348.2307,S,15051.8455,E,103.3,335.8,010126,,*39
$GNGGA,000043.10,3348.2319,S,15051.8487,E,4,18,0.6,30.0,M,46.9,M,,*5D
$GNRMC,000043.10,A,3348.2319,S,15051.8487,E,103.3,335.8,010126,,*38
$GNGGA,000043.20,3348.2330,S,15051.8518,E,4,18,0.6,30.0,M,46.9,M,,*52
$GNRMC,000043.20,A,3348.2330,S,15051.8518,E,103.4,335.8,010126,,*30
$GNGGA,000043.30,3348.2342,S,15051.8550,E,4,18,0.6,30.0,M,46.9,M,,*5A
$GNRMC,000043.30,A,3348.2342,S,15051.8550,E,103.4,335.8,010126,,*38
$GNGGA,000043.40,3348.2354,S,15051.8581,E,4,18,0.6,30.0,M,46.9,M,,*56
$GNRMC,000043.40,A,3348.2354,S,15051.8581,E,103.4,335.8,010126,,*34
$GNGGA,000043.50,3348.2366,S,15051.8613,E,4,18,0.6,30.0,M,46.9,M,,*5E
$GNRMC,000043.50,A,3348.2366,S,15051.8613,E,103.5,335.8,010126,,*3D
$GNGGA,000043.60,3348.2377,S,15051.8644,E,4,18,0.6,30.0,M,46.9,M,,*5F
$GNRMC,000043.60,A,3348.2377,S,15051.8644,E,103.5,335.8,010126,,*3C
$GNGGA,000043.70,3348.2389,S,15051.8676,E,4,18,0.6,30.0,M,46.9,M,,*5E
$GNRMC,000043.70,A,3348.2389,S,15051.8676,E,103.5,335.8,010126,,*3D
$GNGGA,000043.80,3348.2400,S,15051.8707,E,4,18,0.6,30.0,M,46.9,M,,*50
$GNRMC,000043.80,A,3348.2400,S,15051.8707,E,103.5,338.5,010126,,*33
$GNGGA,000043.90,3348.2411,S,15051.8740,E,4,18,0.6,30.0,M,46.9,M,,*52
$GNRMC,000043.90,A,3348.2411,S,15051.8740,E,103.6,338.5,010126,,*32
$GNGGA,000044.00,3348.2421,S,15051.8772,E,4,18,0.6,30.0,M,46.9,M,,*5E
$GNRMC,000044.00,A,3348.2421,S,15051.8772,E,103.6,338.5,010126,,*3E
$GNGGA,000044.10,3348.2432,S,15051.8804,E,4,18,0.6,30.0,M,46.9,M,,*53
$GNRMC,000044.10,A,3348.2432,S,15051.8804,E,103.6,338.5,010126,,*33
$GNGGA,000044.20,3348.2443,S,15051.8836,E,4,18,0.6,30.0,M,46.9,M,,*57
$GNRMC,000044.20,A,3348.2443,S,15051.8836,E,103.6,338.5,010126,,*37
$GNGGA,000044.30,3348.2453,S,15051.8868,E,4,18,0.6,30.0,M,46.9,M,,*5C
$GNRMC,000044.30,A,3348.2453,S,15051.8868,E,103.6,338.5,010126,,*3C
$GNGGA,000044.40,3348.2464,S,15051.8901,E,4,18,0.6,30.0,M,46.9,M,,*51
$GNRMC,000044.40,A,3348.2464,S,15051.8901,E,103.7,338.5,010126,,*30
$GNGGA,000044.50,3348.2474,S,15051.8933,E,4,18,0.6,30.0,M,46.9,M,,*50
$GNRMC,000044.50,A,3348.2474,S,15051.8933,E,103.7,338.5,010126,,*31
$GNGGA,000044.60,3348.2484,S,15051.8965,E,4,18,0.6,30.0,M,46.9,M,,*5F
$GNRMC,000044.60,A,3348.2484,S,15051.8965,E,103.7,340.9,010126,,*3D
$GNGGA,000044.70,3348.2494,S,15051.8998,E,4,18,0.6,30.0,M,46.9,M,,*5D
$GNRMC,000044.70,A,3348.2494,S,15051.8998,E,103.7,340.9,010126,,*3F
$GNGGA,000044.80,3348.2503,S,15051.9031,E,4,18,0.6,30.0,M,46.9,M,,*56
$GNRMC,000044.80,A,3348.2503,S,15051.9031,E,103.7,340.9,010126,,*34
$GNGGA,000044.90,3348.2513,S,15051.9063,E,4,18,0.6,30.0,M,46.9,M,,*51
$GNRMC,000044.90,A,3348.2513,S,15051.9063,E,103.7,340.9,010126,,*33
$GNGGA,000045.00,3348.2522,S,15051.9096,E,4,18,0.6,30.0,M,46.9,M,,*51
$GNRMC,000045.00,A,3348.2522,S,15051.9096,E,103.7,340.9,010126,,*33
$GNGGA,000045.10,3348.2531,S,15051.9129,E,4,18,0.6,30.0,M,46.9,M,,*57
$GNRMC,000045.10,A,3348.2531,S,15051.9129,E,103.8,340.9,010126,,*3A
$GNGGA,000045.20,3348.2541,S,15051.9162,E,4,18,0.6,30.0,M,46.9,M,,*5C
$GNRMC,000045.20,A,3348.2541,S,15051.9162,E,103.8,340.9,010126,,*31
$GNGGA,000045.30,3348.2550,S,15051.9195,E,4,18,0.6,30.0,M,46.9,M,,*55
$GNRMC,000045.30,A,3348.2550,S,15051.9195,E,103.8,340.9,010126,,*38
$GNGGA,000045.40,3348.2560,S,15051.9227,E,4,18,0.6,30.0,M,46.9,M,,*5B
$GNRMC,000045.40,A,3348.2560,S,15051.9227,E,103.8,340.9,010126,,*36
$GNGGA,000045.50,3348.2568,S,15051.9260,E,4,18,0.6,30.0,M,46.9,M,,*51
$GNRMC,000045.50,A,3348.2568,S,15051.9260,E,103.8,343.2,010126,,*34
$GNGGA,000045.60,3348.2576,S,15051.9294,E,4,18,0.6,30.0,M,46.9,M,,*56
$GNRMC,000045.60,A,3348.2576,S,15051.9294,E,103.8,343.2,010126,,*33
$GNGGA,000045.70,3348.2585,S,15051.9327,E,4,18,0.6,30.0,M,46.9,M,,*52
$GNRMC,000045.70,A,3348.2585,S,15051.9327,E,103.8,343.2,010126,,*37
$GNGGA,000045.80,3348.2593,S,15051.9360,E,4,18,0.6,30.0,M,46.9,M,,*59
$GNRMC,000045.80,A,3348.2593,S,15051.9360,E,103.8,343.2,010126,,*3C
$GNGGA,000045.90,3348.2601,S,15051.9393,E,4,18,0.6,30.0,M,46.9,M,,*5C
$GNRMC,000045.90,A,3348.2601,S,15051.9393,E,103.8,343.2,010126,,*39
$GNGGA,000046.00,3348.2610,S,15051.9426,E,4,18,0.6,30.0,M,46.9,M,,*5F
$GNRMC,000046.00,A,3348.2610,S,15051.9426,E,103.8,343.2,010126,,*3A
$GNGGA,000046.10,3348.2618,S,15051.9460,E,4,18,0.6,30.0,M,46.9,M,,*54
$GNRMC,000046.10,A,3348.2618,S,15051.9460,E,103.8,343.2,010126,,*31
$GNGGA,000046.20,3348.2626,S,15051.9493,E,4,18,0.6,30.0,M,46.9,M,,*56
$GNRMC,000046.20,A,3348.2626,S,15051.9493,E,103.8,343.2,010126,,*33
$GNGGA,000046.30,3348.2634,S,15051.9526,E,4,18,0.6,30.0,M,46.9,M,,*5B
$GNRMC,000046.30,A,3348.2634,S,15051.9526,E,103.8,345.3,010126,,*39
$GNGGA,000046.40,3348.2642,S,15051.9560,E,4,18,0.6,30.0,M,46.9,M,,*5F
$GNRMC,000046.40,A,3348.2642,S,15051.9560,E,103.8,345.3,010126,,*3D
$GNGGA,000046.50,3348.2649,S,15051.9593,E,4,18,0.6,30.0,M,46.9,M,,*59
$GNRMC,000046.50,A,3348.2649,S,15051.9593,E,103.8,345.3,010126,,*3B
$GNGGA,000046.60,3348.2656,S,15051.9627,E,4,18,0.6,30.0,M,46.9,M,,*58
$GNRMC,000046.60,A,3348.2656,S,15051.9627,E,103.8,345.3,010126,,*3A
$GNGGA,000046.70,3348.2663,S,15051.9660,E,4,18,0.6,30.0,M,46.9,M,,*5C
$GNRMC,000046.70,A,3348.2663,S,15051.9660,E,103.8,345.3,010126,,*3E
$GNGGA,000046.80,3348.2671,S,15051.9694,E,4,18,0.6,30.0,M,46.9,M,,*5B
$GNRMC,000046.80,A,3348.2671,S,15051.9694,E,103.8,345.3,010126,,*39
$GNGGA,000046.90,3348.2678,S,15051.9727,E,4,18,0.6,30.0,M,46.9,M,,*5A
$GNRMC,000046.90,A,3348.2678,S,15051.9727,E,103.8,345.3,010126,,*38
$GNGGA,000047.00,3348.2685,S,15051.9761,E,4,18,0.6,30.0,M,46.9,M,,*52
$GNRMC,000047.00,A,3348.2685,S,15051.9761,E,103.7,345.3,010126,,*3F
$GNGGA,000047.10,3348.2693,S,15051.9794,E,4,18,0.6,30.0,M,46.9,M,,*5E
$GNRMC,000047.10,A,3348.2693,S,15051.9794,E,103.7,345.3,010126,,*33
$GNGGA,000047.20,3348.2700,S,15051.9828,E,4,18,0.6,30.0,M,46.9,M,,*5E
$GNRMC,000047.20,A,3348.2700,S,15051.9828,E,103.7,347.3,010126,,*31
$GNGGA,000047.30,3348.2706,S,15051.9862,E,4,18,0.6,30.0,M,46.9,M,,*57
$GNRMC,000047.30,A,3348.2706,S,15051.9862,E,103.7,347.3,010126,,*38
$GNGGA,000047.40,3348.2712,S,15051.9896,E,4,18,0.6,30.0,M,46.9,M,,*5E
$GNRMC,000047.40,A,3348.2712,S,15051.9896,E,103.7,347.3,010126,,*31
$GNGGA,000047.50,3348.2719,S,15051.9929,E,4,18,0.6,30.0,M,46.9,M,,*51
$GNRMC,000047.50,A,3348.2719,S,15051.9929,E,103.7,347.3,010126,,*3E
$GNGGA,000047.60,3348.2725,S,15051.9963,E,4,18,0.6,30.0,M,46.9,M,,*53
$GNRMC,000047.60,A,3348.2725,S,15051.9963,E,103.6,347.3,010126,,*3D
$GNGGA,000047.70,3348.2731,S,15051.9997,E,4,18,0.6,30.0,M,46.9,M,,*5C
$GNRMC,000047.70,A,3348.2731,S,15051.9997,E,103.6,347.3,010126,,*32
$GNGGA,000047.80,3348.2738,S,15052.0031,E,4,18,0.6,30.0,M,46.9,M,,*55
$GNRMC,000047.80,A,3348.2738,S,15052.0031,E,103.6,347.3,010126,,*3B
$GNGGA,000047.90,3348.2744,S,15052.0064,E,4,18,0.6,30.0,M,46.9,M,,*5F
$GNRMC,000047.90,A,3348.2744,S,15052.0064,E,103.6,347.3,010126,,*31
$GNGGA,000048.00,3348.2750,S,15052.0098,E,4,18,0.6,30.0,M,46.9,M,,*5F
$GNRMC,000048.00,A,3348.2750,S,15052.0098,E,103.6,347.3,010126,,*31
$GNGGA,000048.10,3348.2757,S,15052.0132,E,4,18,0.6,30.0,M,46.9,M,,*58
$GNRMC,000048.10,A,3348.2757,S,15052.0132,E,103.5,347.3,010126,,*35
$GNGGA,000048.20,3348.2762,S,15052.0166,E,4,18,0.6,30.0,M,46.9,M,,*5C
$GNRMC,000048.20,A,3348.2762,S,15052.0166,E,103.5,349.2,010126,,*3E
$GNGGA,000048.30,3348.2767,S,15052.0200,E,4,18,0.6,30.0,M,46.9,M,,*5B
$GNRMC,000048.30,A,3348.2767,S,15052.0200,E,103.5,349.2,010126,,*39
$GNGGA,000048.40,3348.2773,S,15052.0234,E,4,18,0.6,30.0,M,46.9,M,,*5E
$GNRMC,000048.40,A,3348.2773,S,15052.0234,E,103.5,349.2,010126,,*3C
$GNGGA,000048.50,3348.2778,S,15052.0268,E,4,18,0.6,30.0,M,46.9,M,,*5D
$GNRMC,000048.50,A,3348.2778,S,15052.0268,E,103.4,349.2,010126,,*3E
$GNGGA,000048.60,3348.2784,S,15052.0302,E,4,18,0.6,30.0,M,46.9,M,,*50
$GNRMC,000048.60,A,3348.2784,S,15052.0302,E,103.4,349.2,010126,,*33
$GNGGA,000048.70,3348.2789,S,15052.0336,E,4,18,0.6,30.0,M,46.9,M,,*5B
$GNRMC,000048.70,A,3348.2789,S,15052.0336,E,103.4,349.2,010126,,*38
$GNGGA,000048.80,3348.2794,S,15052.0370,E,4,18,0.6,30.0,M,46.9,M,,*5A
$GNRMC,000048.80,A,3348.2794,S,15052.0370,E,103.3,349.2,010126,,*3E
$GNGGA,000048.90,3348.2800,S,15052.0404,E,4,18,0.6,30.0,M,46.9,M,,*5D
$GNRMC,000048.90,A,3348.2800,S,15052.0404,E,103.3,349.2,010126,,*39
$GNGGA,000049.00,3348.2805,S,15052.0437,E,4,18,0.6,30.0,M,46.9,M,,*50
$GNRMC,000049.00,A,3348.2805,S,15052.0437,E,103.3,349.2,010126,,*34
$GNGGA,000049.10,3348.2810,S,15052.0471,E,4,18,0.6,30.0,M,46.9,M,,*57
$GNRMC,000049.10,A,3348.2810,S,15052.0471,E,103.3,351.0,010126,,*38
$GNGGA,000049.20,3348.2815,S,15052.0505,E,4,18,0.6,30.0,M,46.9,M,,*53
$GNRMC,000049.20,A,3348.2815,S,15052.0505,E,103.2,351.0,010126,,*3D
$GNGGA,000049.30,3348.2819,S,15052.0540,E,4,18,0.6,30.0,M,46.9,M,,*5F
$GNRMC,000049.30,A,3348.2819,S,15052.0540,E,103.2,351.0,010126,,*31
$GNGGA,000049.40,3348.2824,S,15052.0574,E,4,18,0.6,30.0,M,46.9,M,,*51
$GNRMC,000049.40,A,3348.2824,S,15052.0574,E,103.1,351.0,010126,,*3C
$GNGGA,000049.50,3348.2828,S,15052.0608,E,4,18,0.6,30.0,M,46.9,M,,*54
$GNRMC,000049.50,A,3348.2828,S,15052.0608,E,103.1,351.0,010126,,*39
$GNGGA,000049.60,3348.2833,S,15052.0642,E,4,18,0.6,30.0,M,46.9,M,,*53
$GNRMC,000049.60,A,3348.2833,S,15052.0642,E,103.1,351.0,010126,,*3E
$GNGGA,000049.70,3348.2837,S,15052.0676,E,4,18,0.6,30.0,M,46.9,M,,*51
$GNRMC,000049.70,A,3348.2837,S,15052.0676,E,103.0,351.0,010126,,*3D
$GNGGA,000049.80,3348.2841,S,15052.0710,E,4,18,0.6,30.0,M,46.9,M,,*5E
$GNRMC,000049.80,A,3348.2841,S,15052.0710,E,103.0,351.0,010126,,*32
$GNGGA,000049.90,3348.2846,S,15052.0744,E,4,18,0.6,30.0,M,46.9,M,,*59
$GNRMC,000049.90,A,3348.2846,S,15052.0744,E,102.9,351.0,010126,,*3D
$GNGGA,000050.00,3348.2850,S,15052.0778,E,4,18,0.6,30.0,M,46.9,M,,*50
$GNRMC,000050.00,A,3348.2850,S,15052.0778,E,102.9,351.0,010126,,*34
$GNGGA,000050.10,3348.2854,S,15052.0812,E,4,18,0.6,30.0,M,46.9,M,,*56
$GNRMC,000050.10,A,3348.2854,S,15052.0812,E,102.9,352.7,010126,,*36
$GNGGA,000050.20,3348.2858,S,15052.0846,E,4,18,0.6,30.0,M,46.9,M,,*58
$GNRMC,000050.20,A,3348.2858,S,15052.0846,E,102.8,352.7,010126,,*39
$GNGGA,000050.30,3348.2862,S,15052.0880,E,4,18,0.6,30.0,M,46.9,M,,*5A
$GNRMC,000050.30,A,3348.2862,S,15052.0880,E,102.8,352.7,010126,,*3B
$GNGGA,000050.40,3348.2865,S,15052.0914,E,4,18,0.6,30.0,M,46.9,M,,*56
$GNRMC,000050.40,A,3348.2865,S,15052.0914,E,102.7,352.7,010126,,*38
$GNGGA,000050.50,3348.2869,S,15052.0948,E,4,18,0.6,30.0,M,46.9,M,,*52
$GNRMC,000050.50,A,3348.2869,S,15052.0948,E,102.7,352.7,010126,,*3C
$GNGGA,000050.60,3348.2872,S,15052.0982,E,4,18,0.6,30.0,M,46.9,M,,*5D
$GNRMC,000050.60,A,3348.2872,S,15052.0982,E,102.6,352.7,010126,,*32
$GNGGA,000050.70,3348.2876,S,15052.1016,E,4,18,0.6,30.0,M,46.9,M,,*5D
$GNRMC,000050.70,A,3348.2876,S,15052.1016,E,102.6,352.7,010126,,*32
$GNGGA,000050.80,3348.2880,S,15052.1050,E,4,18,0.6,30.0,M,46.9,M,,*59
$GNRMC,000050.80,A,3348.2880,S,15052.1050,E,102.5,352.7,010126,,*35
$GNGGA,000050.90,3348.2883,S,15052.1084,E,4,18,0.6,30.0,M,46.9,M,,*52
$GNRMC,000050.90,A,3348.2883,S,15052.1084,E,102.5,352.7,010126,,*3E
$GNGGA,000051.00,3348.2887,S,15052.1118,E,4,18,0.6,30.0,M,46.9,M,,*5A
$GNRMC,000051.00,A,3348.2887,S,15052.1118,E,102.4,352.7,010126,,*37
$GNGGA,000051.10,3348.2890,S,15052.1152,E,4,18,0.6,30.0,M,46.9,M,,*53
$GNRMC,000051.10,A,3348.2890,S,15052.1152,E,102.4,354.4,010126,,*3B
$GNGGA,000051.20,3348.2893,S,15052.1186,E,4,18,0.6,30.0,M,46.9,M,,*5A
$GNRMC,000051.20,A,3348.2893,S,15052.1186,E,102.3,354.4,010126,,*35
$GNGGA,000051.30,3348.2896,S,15052.1220,E,4,18,0.6,30.0,M,46.9,M,,*51
$GNRMC,000051.30,A,3348.2896,S,15052.1220,E,102.3,354.4,010126,,*3E
$GNGGA,000051.40,3348.2898,S,15052.1254,E,4,18,0.6,30.0,M,46.9,M,,*5B
$GNRMC,000051.40,A,3348.2898,S,15052.1254,E,102.2,354.4,010126,,*35
$GNGGA,000051.50,3348.2901,S,15052.1288,E,4,18,0.6,30.0,M,46.9,M,,*5A
$GNRMC,000051.50,A,3348.2901,S,15052.1288,E,102.2,354.4,010126,,*34
$GNGGA,000051.60,3348.2904,S,15052.1322,E,4,18,0.6,30.0,M,46.9,M,,*5D
$GNRMC,000051.60,A,3348.2904,S,15052.1322,E,102.1,354.4,010126,,*30
$GNGGA,000051.70,3348.2907,S,15052.1356,E,4,18,0.6,30.0,M,46.9,M,,*5C
$GNRMC,000051.70,A,3348.2907,S,15052.1356,E,102.1,354.4,010126,,*31
$GNGGA,000051.80,3348.2909,S,15052.1390,E,4,18,0.6,30.0,M,46.9,M,,*57
$GNRMC,000051.80,A,3348.2909,S,15052.1390,E,102.0,354.4,010126,,*3B
$GNGGA,000051.90,3348.2912,S,15052.1424,E,4,18,0.6,30.0,M,46.9,M,,*54
$GNRMC,000051.90,A,3348.2912,S,15052.1424,E,102.0,354.4,010126,,*38
$GNGGA,000052.00,3348.2915,S,15052.1458,E,4,18,0.6,30.0,M,46.9,M,,*52
$GNRMC,000052.00,A,3348.2915,S,15052.1458,E,101.9,354.4,010126,,*34
$GNGGA,000052.10,3348.2917,S,15052.1492,E,4,18,0.6,30.0,M,46.9,M,,*57
$GNRMC,000052.10,A,3348.2917,S,15052.1492,E,101.9,356.0,010126,,*37
$GNGGA,000052.20,3348.2919,S,15052.1525,E,4,18,0.6,30.0,M,46.9,M,,*57
$GNRMC,000052.20,A,3348.2919,S,15052.1525,E,101.8,356.0,010126,,*36
$GNGGA,000052.30,3348.2921,S,15052.1559,E,4,18,0.6,30.0,M,46.9,M,,*56
$GNRMC,000052.30,A,3348.2921,S,15052.1559,E,101.7,356.0,010126,,*38
$GNGGA,000052.40,3348.2923,S,15052.1593,E,4,18,0.6,30.0,M,46.9,M,,*55
$GNRMC,000052.40,A,3348.2923,S,15052.1593,E,101.7,356.0,010126,,*3B
$GNGGA,000052.50,3348.2925,S,15052.1627,E,4,18,0.6,30.0,M,46.9,M,,*5E
$GNRMC,000052.50,A,3348.2925,S,15052.1627,E,101.6,356.0,010126,,*31
$GNGGA,000052.60,3348.2927,S,15052.1661,E,4,18,0.6,30.0,M,46.9,M,,*5D
$GNRMC,000052.60,A,3348.2927,S,15052.1661,E,101.6,356.0,010126,,*32
$GNGGA,000052.70,3348.2929,S,15052.1695,E,4,18,0.6,30.0,M,46.9,M,,*59
$GNRMC,000052.70,A,3348.2929,S,15052.1695,E,101.5,356.0,010126,,*35
$GNGGA,000052.80,3348.2931,S,15052.1729,E,4,18,0.6,30.0,M,46.9,M,,*59
$GNRMC,000052.80,A,3348.2931,S,15052.1729,E,101.4,356.0,010126,,*34
$GNGGA,000052.90,3348.2933,S,15052.1763,E,4,18,0.6,30.0,M,46.9,M,,*54
$GNRMC,000052.90,A,3348.2933,S,15052.1763,E,101.4,356.0,010126,,*39
$GNGGA,000053.00,3348.2935,S,15052.1796,E,4,18,0.6,30.0,M,46.9,M,,*50
$GNRMC,000053.00,A,3348.2935,S,15052.1796,E,101.3,356.0,010126,,*3A
$GNGGA,000053.10,3348.2937,S,15052.1830,E,4,18,0.6,30.0,M,46.9,M,,*50
$GNRMC,000053.10,A,3348.2937,S,15052.1830,E,101.3,357.6,010126,,*3D
$GNGGA,000053.20,3348.2938,S,15052.1864,E,4,18,0.6,30.0,M,46.9,M,,*5D
$GNRMC,000053.20,A,3348.2938,S,15052.1864,E,101.2,357.6,010126,,*31
$GNGGA,000053.30,3348.2939,S,15052.1898,E,4,18,0.6,30.0,M,46.9,M,,*5E
$GNRMC,000053.30,A,3348.2939,S,15052.1898,E,101.1,357.6,010126,,*31
$GNGGA,000053.40,3348.2940,S,15052.1931,E,4,18,0.6,30.0,M,46.9,M,,*55
$GNRMC,000053.40,A,3348.2940,S,15052.1931,E,101.1,357.6,010126,,*3A
$GNGGA,000053.50,3348.2942,S,15052.1965,E,4,18,0.6,30.0,M,46.9,M,,*57
$GNRMC,000053.50,A,3348.2942,S,15052.1965,E,101.0,357.6,010126,,*39
$GNGGA,000053.60,3348.2943,S,15052.1999,E,4,18,0.6,30.0,M,46.9,M,,*56
$GNRMC,000053.60,A,3348.2943,S,15052.1999,E,100.9,357.6,010126,,*30
$GNGGA,000053.70,3348.2944,S,15052.2033,E,4,18,0.6,30.0,M,46.9,M,,*5A
$GNRMC,000053.70,A,3348.2944,S,15052.2033,E,100.9,357.6,010126,,*3C
$GNGGA,000053.80,3348.2945,S,15052.2066,E,4,18,0.6,30.0,M,46.9,M,,*54
$GNRMC,000053.80,A,3348.2945,S,15052.2066,E,100.8,357.6,010126,,*33
$GNGGA,000053.90,3348.2946,S,15052.2100,E,4,18,0.6,30.0,M,46.9,M,,*57
$GNRMC,000053.90,A,3348.2946,S,15052.2100,E,100.8,357.6,010126,,*30
$GNGGA,000054.00,3348.2947,S,15052.2133,E,4,18,0.6,30.0,M,46.9,M,,*58
$GNRMC,000054.00,A,3348.2947,S,15052.2133,E,100.7,357.6,010126,,*30
$GNGGA,000054.10,3348.2949,S,15052.2167,E,4,18,0.6,30.0,M,46.9,M,,*56
$GNRMC,000054.10,A,3348.2949,S,15052.2167,E,100.6,357.6,010126,,*3F
$GNGGA,000054.20,3348.2949,S,15052.2201,E,4,18,0.6,30.0,M,46.9,M,,*56
$GNRMC,000054.20,A,3348.2949,S,15052.2201,E,100.6,359.2,010126,,*35
$GNGGA,000054.30,3348.2950,S,15052.2234,E,4,18,0.6,30.0,M,46.9,M,,*59
$GNRMC,000054.30,A,3348.2950,S,15052.2234,E,100.5,359.2,010126,,*39
$GNGGA,000054.40,3348.2950,S,15052.2268,E,4,18,0.6,30.0,M,46.9,M,,*57
$GNRMC,000054.40,A,3348.2950,S,15052.2268,E,100.4,359.2,010126,,*36
$GNGGA,000054.50,3348.2951,S,15052.2301,E,4,18,0.6,30.0,M,46.9,M,,*59
$GNRMC,000054.50,A,3348.2951,S,15052.2301,E,100.4,359.2,010126,,*38
$GNGGA,000054.60,3348.2951,S,15052.2335,E,4,18,0.6,30.0,M,46.9,M,,*5D
$GNRMC,000054.60,A,3348.2951,S,15052.2335,E,100.3,359.2,010126,,*3B
$GNGGA,000054.70,3348.2951,S,15052.2368,E,4,18,0.6,30.0,M,46.9,M,,*54
$GNRMC,000054.70,A,3348.2951,S,15052.2368,E,100.2,359.2,010126,,*33
$GNGGA,000054.80,3348.2952,S,15052.2402,E,4,18,0.6,30.0,M,46.9,M,,*53
$GNRMC,000054.80,A,3348.2952,S,15052.2402,E,100.2,359.2,010126,,*34
$GNGGA,000054.90,3348.2952,S,15052.2435,E,4,18,0.6,30.0,M,46.9,M,,*56
$GNRMC,000054.90,A,3348.2952,S,15052.2435,E,100.1,359.2,010126,,*32
$GNGGA,000055.00,3348.2952,S,15052.2469,E,4,18,0.6,30.0,M,46.9,M,,*57
$GNRMC,000055.00,A,3348.2952,S,15052.2469,E,100.1,359.2,010126,,*33
$GNGGA,000055.10,3348.2953,S,15052.2502,E,4,18,0.6,30.0,M,46.9,M,,*5B
$GNRMC,000055.10,A,3348.2953,S,15052.2502,E,100.0,359.2,010126,,*3E
$GNGGA,000055.20,3348.2953,S,15052.2536,E,4,18,0.6,30.0,M,46.9,M,,*5F
$GNRMC,000055.20,A,3348.2953,S,15052.2536,E,099.9,359.2,010126,,*32
$GNGGA,000055.30,3348.2953,S,15052.2569,E,4,18,0.6,30.0,M,46.9,M,,*54
$GNRMC,000055.30,A,3348.2953,S,15052.2569,E,099.9,000.8,010126,,*3C
$GNGGA,000055.40,3348.2953,S,15052.2602,E,4,18,0.6,30.0,M,46.9,M,,*5D
$GNRMC,000055.40,A,3348.2953,S,15052.2602,E,099.8,000.8,010126,,*34
$GNGGA,000055.50,3348.2952,S,15052.2636,E,4,18,0.6,30.0,M,46.9,M,,*5A
$GNRMC,000055.50,A,3348.2952,S,15052.2636,E,099.7,000.8,010126,,*3C
$GNGGA,000055.60,3348.2952,S,15052.2669,E,4,18,0.6,30.0,M,46.9,M,,*53
$GNRMC,000055.60,A,3348.2952,S,15052.2669,E,099.7,000.8,010126,,*35
$GNGGA,000055.70,3348.2951,S,15052.2702,E,4,18,0.6,30.0,M,46.9,M,,*5D
$GNRMC,000055.70,A,3348.2951,S,15052.2702,E,099.6,000.8,010126,,*3A
$GNGGA,000055.80,3348.2951,S,15052.2736,E,4,18,0.6,30.0,M,46.9,M,,*55
$GNRMC,000055.80,A,3348.2951,S,15052.2736,E,099.5,000.8,010126,,*31
$GNGGA,000055.90,3348.2951,S,15052.2769,E,4,18,0.6,30.0,M,46.9,M,,*5E
$GNRMC,000055.90,A,3348.2951,S,15052.2769,E,099.5,000.8,010126,,*3A
$GNGGA,000056.00,3348.2950,S,15052.2802,E,4,18,0.6,30.0,M,46.9,M,,*57
$GNRMC,000056.00,A,3348.2950,S,15052.2802,E,099.4,000.8,010126,,*32
$GNGGA,000056.10,3348.2950,S,15052.2835,E,4,18,0.6,30.0,M,46.9,M,,*52
$GNRMC,000056.10,A,3348.2950,S,15052.2835,E,099.3,000.8,010126,,*30
$GNGGA,000056.20,3348.2949,S,15052.2868,E,4,18,0.6,30.0,M,46.9,M,,*51
$GNRMC,000056.20,A,3348.2949,S,15052.2868,E,099.3,000.8,010126,,*33
$GNGGA,000056.30,3348.2949,S,15052.2902,E,4,18,0.6,30.0,M,46.9,M,,*5D
$GNRMC,000056.30,A,3348.2949,S,15052.2902,E,099.2,002.4,010126,,*30
$GNGGA,000056.40,3348.2948,S,15052.2935,E,4,18,0.6,30.0,M,46.9,M,,*5F
$GNRMC,000056.40,A,3348.2948,S,15052.2935,E,099.2,002.4,010126,,*32
$GNGGA,000056.50,3348.2947,S,15052.2968,E,4,18,0.6,30.0,M,46.9,M,,*59
$GNRMC,000056.50,A,3348.2947,S,15052.2968,E,099.1,002.4,010126,,*37
$GNGGA,000056.60,3348.2946,S,15052.3001,E,4,18,0.6,30.0,M,46.9,M,,*5C
$GNRMC,000056.60,A,3348.2946,S,15052.3001,E,099.0,002.4,010126,,*33
$GNGGA,000056.70,3348.2944,S,15052.3034,E,4,18,0.6,30.0,M,46.9,M,,*59
$GNRMC,000056.70,A,3348.2944,S,15052.3034,E,099.0,002.4,010126,,*36
$GNGGA,000056.80,3348.2943,S,15052.3067,E,4,18,0.6,30.0,M,46.9,M,,*57
$GNRMC,000056.80,A,3348.2943,S,15052.3067,E,098.9,002.4,010126,,*30
$GNGGA,000056.90,3348.2942,S,15052.3100,E,4,18,0.6,30.0,M,46.9,M,,*57
$GNRMC,000056.90,A,3348.2942,S,15052.3100,E,098.8,002.4,010126,,*31
$GNGGA,000057.00,3348.2941,S,15052.3133,E,4,18,0.6,30.0,M,46.9,M,,*5C
$GNRMC,000057.00,A,3348.2941,S,15052.3133,E,098.8,002.4,010126,,*3A
$GNGGA,000057.10,3348.2940,S,15052.3166,E,4,18,0.6,30.0,M,46.9,M,,*5C
$GNRMC,000057.10,A,3348.2940,S,15052.3166,E,098.7,002.4,010126,,*35
$GNGGA,000057.20,3348.2939,S,15052.3199,E,4,18,0.6,30.0,M,46.9,M,,*51
$GNRMC,000057.20,A,3348.2939,S,15052.3199,E,098.7,002.4,010126,,*38
$GNGGA,000057.30,3348.2938,S,15052.3232,E,4,18,0.6,30.0,M,46.9,M,,*53
$GNRMC,000057.30,A,3348.2938,S,15052.3232,E,098.6,002.4,010126,,*3B
$GNGGA,000057.40,3348.2936,S,15052.3265,E,4,18,0.6,30.0,M,46.9,M,,*58
$GNRMC,000057.40,A,3348.2936,S,15052.3265,E,098.5,004.0,010126,,*31
$GNGGA,000057.50,3348.2934,S,15052.3298,E,4,18,0.6,30.0,M,46.9,M,,*59
$GNRMC,000057.50,A,3348.2934,S,15052.3298,E,098.5,004.0,010126,,*30
$GNGGA,000057.60,3348.2932,S,15052.3330,E,4,18,0.6,30.0,M,46.9,M,,*5F
$GNRMC,000057.60,A,3348.2932,S,15052.3330,E,098.4,004.0,010126,,*37
$GNGGA,000057.70,3348.2930,S,15052.3363,E,4,18,0.6,30.0,M,46.9,M,,*5A
$GNRMC,000057.70,A,3348.2930,S,15052.3363,E,098.4,004.0,010126,,*32
$GNGGA,000057.80,3348.2929,S,15052.3396,E,4,18,0.6,30.0,M,46.9,M,,*57
$GNRMC,000057.80,A,3348.2929,S,15052.3396,E,098.3,004.0,010126,,*38
$GNGGA,000057.90,3348.2927,S,15052.3429,E,4,18,0.6,30.0,M,46.9,M,,*5B
$GNRMC,000057.90,A,3348.2927,S,15052.3429,E,098.3,004.0,010126,,*34
$GNGGA,000058.00,3348.2925,S,15052.3461,E,4,18,0.6,30.0,M,46.9,M,,*53
$GNRMC,000058.00,A,3348.2925,S,15052.3461,E,098.2,004.0,010126,,*3D
$GNGGA,000058.10,3348.2923,S,15052.3494,E,4,18,0.6,30.0,M,46.9,M,,*5E
$GNRMC,000058.10,A,3348.2923,S,15052.3494,E,098.1,004.0,010126,,*33
$GNGGA,000058.20,3348.2921,S,15052.3527,E,4,18,0.6,30.0,M,46.9,M,,*56
$GNRMC,000058.20,A,3348.2921,S,15052.3527,E,098.1,004.0,010126,,*3B
$GNGGA,000058.30,3348.2919,S,15052.3560,E,4,18,0.6,30.0,M,46.9,M,,*5F
$GNRMC,000058.30,A,3348.2919,S,15052.3560,E,098.0,004.0,010126,,*33
$GNGGA,000058.40,3348.2917,S,15052.3592,E,4,18,0.6,30.0,M,46.9,M,,*5B
$GNRMC,000058.40,A,3348.2917,S,15052.3592,E,098.0,004.0,010126,,*37
$GNGGA,000058.50,3348.2915,S,15052.3625,E,4,18,0.6,30.0,M,46.9,M,,*57
$GNRMC,000058.50,A,3348.2915,S,15052.3625,E,097.9,005.6,010126,,*3A
$GNGGA,000058.60,3348.2912,S,15052.3657,E,4,18,0.6,30.0,M,46.9,M,,*56
$GNRMC,000058.60,A,3348.2912,S,15052.3657,E,097.9,005.6,010126,,*3B
$GNGGA,000058.70,3348.2909,S,15052.3690,E,4,18,0.6,30.0,M,46.9,M,,*56
$GNRMC,000058.70,A,3348.2909,S,15052.3690,E,097.8,005.6,010126,,*3A
$GNGGA,000058.80,3348.2907,S,15052.3722,E,4,18,0.6,30.0,M,46.9,M,,*5F
$GNRMC,000058.80,A,3348.2907,S,15052.3722,E,097.8,005.6,010126,,*33
$GNGGA,000058.90,3348.2904,S,15052.3755,E,4,18,0.6,30.0,M,46.9,M,,*5D
$GNRMC,000058.90,A,3348.2904,S,15052.3755,E,097.7,005.6,010126,,*3E
$GNGGA,000059.00,3348.2901,S,15052.3787,E,4,18,0.6,30.0,M,46.9,M,,*5F
$GNRMC,000059.00,A,3348.2901,S,15052.3787,E,097.7,005.6,010126,,*3C
$GNGGA,000059.10,3348.2899,S,15052.3820,E,4,18,0.6,30.0,M,46.9,M,,*5C
$GNRMC,000059.10,A,3348.2899,S,15052.3820,E,097.6,005.6,010126,,*3E
$GNGGA,000059.20,3348.2896,S,15052.3852,E,4,18,0.6,30.0,M,46.9,M,,*55
$GNRMC,000059.20,A,3348.2896,S,15052.3852,E,097.6,005.6,010126,,*37
$GNGGA,000059.30,3348.2894,S,15052.3885,E,4,18,0.6,30.0,M,46.9,M,,*5C
$GNRMC,000059.30,A,3348.2894,S,15052.3885,E,097.5,005.6,010126,,*3D
$GNGGA,000059.40,3348.2891,S,15052.3917,E,4,18,0.6,30.0,M,46.9,M,,*54
$GNRMC,000059.40,A,3348.2891,S,15052.3917,E,097.5,005.6,010126,,*35
$GNGGA,000059.50,3348.2888,S,15052.3950,E,4,18,0.6,30.0,M,46.9,M,,*5E
$GNRMC,000059.50,A,3348.2888,S,15052.3950,E,097.4,007.3,010126,,*39
$GNGGA,000059.60,3348.2885,S,15052.3982,E,4,18,0.6,30.0,M,46.9,M,,*5F
$GNRMC,000059.60,A,3348.2885,S,15052.3982,E,097.4,007.3,010126,,*38
$GNGGA,000059.70,3348.2881,S,15052.4014,E,4,18,0.6,30.0,M,46.9,M,,*5B
$GNRMC,000059.70,A,3348.2881,S,15052.4014,E,097.3,007.3,010126,,*3B
$GNGGA,000059.80,3348.2878,S,15052.4046,E,4,18,0.6,30.0,M,46.9,M,,*55
$GNRMC,000059.80,A,3348.2878,S,15052.4046,E,097.3,007.3,010126,,*35
$GNGGA,000059.90,3348.2875,S,15052.4079,E,4,18,0.6,30.0,M,46.9,M,,*55
$GNRMC,000059.90,A,3348.2875,S,15052.4079,E,097.2,007.3,010126,,*34
