$GNGGA,000000.00,3348.0373,S,15052.7621,E,4,18,0.6,30.0,M,46.9,M,,*57
$GNRMC,000000.00,A,3348.0373,S,15052.7621,E,116.7,131.8,010126,,*34
$GNGGA,000000.10,3348.0349,S,15052.7595,E,4,18,0.6,30.0,M,46.9,M,,*53
$GNRMC,000000.10,A,3348.0349,S,15052.7595,E,116.8,131.8,010126,,*3F
$GNGGA,000000.20,3348.0325,S,15052.7569,E,4,18,0.6,30.0,M,46.9,M,,*59
$GNRMC,000000.20,A,3348.0325,S,15052.7569,E,116.8,131.8,010126,,*35
$GNGGA,000000.30,3348.0303,S,15052.7541,E,4,18,0.6,30.0,M,46.9,M,,*56
$GNRMC,000000.30,A,3348.0303,S,15052.7541,E,116.9,137.1,010126,,*34
$GNGGA,000000.40,3348.0280,S,15052.7512,E,4,18,0.6,30.0,M,46.9,M,,*5D
$GNRMC,000000.40,A,3348.0280,S,15052.7512,E,116.9,137.1,010126,,*3F
$GNGGA,000000.50,3348.0258,S,15052.7484,E,4,18,0.6,30.0,M,46.9,M,,*57
$GNRMC,000000.50,A,3348.0258,S,15052.7484,E,117.0,137.1,010126,,*3D
$GNGGA,000000.60,3348.0236,S,15052.7455,E,4,18,0.6,30.0,M,46.9,M,,*50
$GNRMC,000000.60,A,3348.0236,S,15052.7455,E,117.0,137.1,010126,,*3A
$GNGGA,000000.70,3348.0214,S,15052.7426,E,4,18,0.6,30.0,M,46.9,M,,*55
$GNRMC,000000.70,A,3348.0214,S,15052.7426,E,117.1,137.1,010126,,*3E
$GNGGA,000000.80,3348.0194,S,15052.7396,E,4,18,0.6,30.0,M,46.9,M,,*5D
$GNRMC,000000.80,A,3348.0194,S,15052.7396,E,117.1,141.8,010126,,*3E
$GNGGA,000000.90,3348.0173,S,15052.7365,E,4,18,0.6,30.0,M,46.9,M,,*59
$GNRMC,000000.90,A,3348.0173,S,15052.7365,E,117.2,141.8,010126,,*39
$GNGGA,000001.00,3348.0153,S,15052.7335,E,4,18,0.6,30.0,M,46.9,M,,*56
$GNRMC,000001.00,A,3348.0153,S,15052.7335,E,117.2,141.8,010126,,*36
$GNGGA,000001.10,3348.0133,S,15052.7304,E,4,18,0.6,30.0,M,46.9,M,,*53
$GNRMC,000001.10,A,3348.0133,S,15052.7304,E,117.3,141.8,010126,,*32
$GNGGA,000001.20,3348.0113,S,15052.7273,E,4,18,0.6,30.0,M,46.9,M,,*53
$GNRMC,000001.20,A,3348.0113,S,15052.7273,E,117.3,141.8,010126,,*32
$GNGGA,000001.30,3348.0093,S,15052.7242,E,4,18,0.6,30.0,M,46.9,M,,*59
$GNRMC,000001.30,A,3348.0093,S,15052.7242,E,117.4,145.9,010126,,*3A
$GNGGA,000001.40,3348.0075,S,15052.7209,E,4,18,0.6,30.0,M,46.9,M,,*59
$GNRMC,000001.40,A,3348.0075,S,15052.7209,E,117.4,145.9,010126,,*3A
$GNGGA,000001.50,3348.0057,S,15052.7177,E,4,18,0.6,30.0,M,46.9,M,,*52
$GNRMC,000001.50,A,3348.0057,S,15052.7177,E,117.4,145.9,010126,,*31
$GNGGA,000001.60,3348.0039,S,15052.7145,E,4,18,0.6,30.0,M,46.9,M,,*58
$GNRMC,000001.60,A,3348.0039,S,15052.7145,E,117.5,145.9,010126,,*3A
$GNGGA,000001.70,3348.0020,S,15052.7112,E,4,18,0.6,30.0,M,46.9,M,,*53
$GNRMC,000001.70,A,3348.0020,S,15052.7112,E,117.5,145.9,010126,,*31
$GNGGA,000001.80,3348.0002,S,15052.7079,E,4,18,0.6,30.0,M,46.9,M,,*50
$GNRMC,000001.80,A,3348.0002,S,15052.7079,E,117.6,145.9,010126,,*31
$GNGGA,000001.90,3347.9985,S,15052.7046,E,4,18,0.6,30.0,M,46.9,M,,*5D
$GNRMC,000001.90,A,3347.9985,S,15052.7046,E,117.6,149.6,010126,,*3F
$GNGGA,000002.00,3347.9968,S,15052.7012,E,4,18,0.6,30.0,M,46.9,M,,*55
$GNRMC,000002.00,A,3347.9968,S,15052.7012,E,117.6,149.6,010126,,*37
$GNGGA,000002.10,3347.9951,S,15052.6979,E,4,18,0.6,30.0,M,46.9,M,,*5B
$GNRMC,000002.10,A,3347.9951,S,15052.6979,E,117.7,149.6,010126,,*38
$GNGGA,000002.20,3347.9935,S,15052.6945,E,4,18,0.6,30.0,M,46.9,M,,*55
$GNRMC,000002.20,A,3347.9935,S,15052.6945,E,117.7,149.6,010126,,*36
$GNGGA,000002.30,3347.9918,S,15052.6911,E,4,18,0.6,30.0,M,46.9,M,,*5A
$GNRMC,000002.30,A,3347.9918,S,15052.6911,E,117.7,149.6,010126,,*39
$GNGGA,000002.40,3347.9902,S,15052.6877,E,4,18,0.6,30.0,M,46.9,M,,*57
$GNRMC,000002.40,A,3347.9902,S,15052.6877,E,117.8,149.6,010126,,*3B
$GNGGA,000002.50,3347.9886,S,15052.6843,E,4,18,0.6,30.0,M,46.9,M,,*5C
$GNRMC,000002.50,A,3347.9886,S,15052.6843,E,117.8,152.8,010126,,*34
$GNGGA,000002.60,3347.9871,S,15052.6808,E,4,18,0.6,30.0,M,46.9,M,,*58
$GNRMC,000002.60,A,3347.9871,S,15052.6808,E,117.9,152.8,010126,,*31
$GNGGA,000002.70,3347.9856,S,15052.6772,E,4,18,0.6,30.0,M,46.9,M,,*5E
$GNRMC,000002.70,A,3347.9856,S,15052.6772,E,117.9,152.8,010126,,*37
$GNGGA,000002.80,3347.9841,S,15052.6737,E,4,18,0.6,30.0,M,46.9,M,,*56
$GNRMC,000002.80,A,3347.9841,S,15052.6737,E,117.9,152.8,010126,,*3F
$GNGGA,000002.90,3347.9826,S,15052.6702,E,4,18,0.6,30.0,M,46.9,M,,*50
$GNRMC,000002.90,A,3347.9826,S,15052.6702,E,117.9,152.8,010126,,*39
$GNGGA,000003.00,3347.9811,S,15052.6667,E,4,18,0.6,30.0,M,46.9,M,,*5E
$GNRMC,000003.00,A,3347.9811,S,15052.6667,E,118.0,152.8,010126,,*31
$GNGGA,000003.10,3347.9796,S,15052.6632,E,4,18,0.6,30.0,M,46.9,M,,*5F
$GNRMC,000003.10,A,3347.9796,S,15052.6632,E,118.0,152.8,010126,,*30
$GNGGA,000003.20,3347.9783,S,15052.6596,E,4,18,0.6,30.0,M,46.9,M,,*55
$GNRMC,000003.20,A,3347.9783,S,15052.6596,E,118.0,155.8,010126,,*3D
$GNGGA,000003.30,3347.9769,S,15052.6560,E,4,18,0.6,30.0,M,46.9,M,,*59
$GNRMC,000003.30,A,3347.9769,S,15052.6560,E,118.1,155.8,010126,,*30
$GNGGA,000003.40,3347.9756,S,15052.6524,E,4,18,0.6,30.0,M,46.9,M,,*52
$GNRMC,000003.40,A,3347.9756,S,15052.6524,E,118.1,155.8,010126,,*3B
$GNGGA,000003.50,3347.9742,S,15052.6488,E,4,18,0.6,30.0,M,46.9,M,,*51
$GNRMC,000003.50,A,3347.9742,S,15052.6488,E,118.1,155.8,010126,,*38
$GNGGA,000003.60,3347.9729,S,15052.6452,E,4,18,0.6,30.0,M,46.9,M,,*58
$GNRMC,000003.60,A,3347.9729,S,15052.6452,E,118.1,155.8,010126,,*31
$GNGGA,000003.70,3347.9715,S,15052.6417,E,4,18,0.6,30.0,M,46.9,M,,*57
$GNRMC,000003.70,A,3347.9715,S,15052.6417,E,118.2,155.8,010126,,*3D
$GNGGA,000003.80,3347.9702,S,15052.6380,E,4,18,0.6,30.0,M,46.9,M,,*57
$GNRMC,000003.80,A,3347.9702,S,15052.6380,E,118.2,158.5,010126,,*3D
$GNGGA,000003.90,3347.9690,S,15052.6344,E,4,18,0.6,30.0,M,46.9,M,,*54
$GNRMC,000003.90,A,3347.9690,S,15052.6344,E,118.2,158.5,010126,,*3E
$GNGGA,000004.00,3347.9678,S,15052.6307,E,4,18,0.6,30.0,M,46.9,M,,*5B
$GNRMC,000004.00,A,3347.9678,S,15052.6307,E,118.2,158.5,010126,,*31
$GNGGA,000004.10,3347.9666,S,15052.6270,E,4,18,0.6,30.0,M,46.9,M,,*54
$GNRMC,000004.10,A,3347.9666,S,15052.6270,E,118.2,158.5,010126,,*3E
$GNGGA,000004.20,3347.9654,S,15052.6233,E,4,18,0.6,30.0,M,46.9,M,,*51
$GNRMC,000004.20,A,3347.9654,S,15052.6233,E,118.3,158.5,010126,,*3A
$GNGGA,000004.30,3347.9642,S,15052.6197,E,4,18,0.6,30.0,M,46.9,M,,*5A
$GNRMC,000004.30,A,3347.9642,S,15052.6197,E,118.3,158.5,010126,,*31
$GNGGA,000004.40,3347.9630,S,15052.6160,E,4,18,0.6,30.0,M,46.9,M,,*50
$GNRMC,000004.40,A,3347.9630,S,15052.6160,E,118.3,158.5,010126,,*3B
$GNGGA,000004.50,3347.9618,S,15052.6123,E,4,18,0.6,30.0,M,46.9,M,,*5C
$GNRMC,000004.50,A,3347.9618,S,15052.6123,E,118.3,160.9,010126,,*30
$GNGGA,000004.60,3347.9607,S,15052.6086,E,4,18,0.6,30.0,M,46.9,M,,*5F
$GNRMC,000004.60,A,3347.9607,S,15052.6086,E,118.3,160.9,010126,,*33
$GNGGA,000004.70,3347.9597,S,15052.6048,E,4,18,0.6,30.0,M,46.9,M,,*56
$GNRMC,000004.70,A,3347.9597,S,15052.6048,E,118.3,160.9,010126,,*3A
$GNGGA,000004.80,3347.9586,S,15052.6011,E,4,18,0.6,30.0,M,46.9,M,,*55
$GNRMC,000004.80,A,3347.9586,S,15052.6011,E,118.3,160.9,010126,,*39
$GNGGA,000004.90,3347.9575,S,15052.5974,E,4,18,0.6,30.0,M,46.9,M,,*51
$GNRMC,000004.90,A,3347.9575,S,15052.5974,E,118.3,160.9,010126,,*3D
$GNGGA,000005.00,3347.9564,S,15052.5936,E,4,18,0.6,30.0,M,46.9,M,,*5F
$GNRMC,000005.00,A,3347.9564,S,15052.5936,E,118.4,160.9,010126,,*34
$GNGGA,000005.10,3347.9554,S,15052.5899,E,4,18,0.6,30.0,M,46.9,M,,*59
$GNRMC,000005.10,A,3347.9554,S,15052.5899,E,118.4,160.9,010126,,*32
$GNGGA,000005.20,3347.9543,S,15052.5862,E,4,18,0.6,30.0,M,46.9,M,,*58
$GNRMC,000005.20,A,3347.9543,S,15052.5862,E,118.4,160.9,010126,,*33
$GNGGA,000005.30,3347.9533,S,15052.5824,E,4,18,0.6,30.0,M,46.9,M,,*5C
$GNRMC,000005.30,A,3347.9533,S,15052.5824,E,118.4,163.2,010126,,*3F
$GNGGA,000005.40,3347.9524,S,15052.5786,E,4,18,0.6,30.0,M,46.9,M,,*5A
$GNRMC,000005.40,A,3347.9524,S,15052.5786,E,118.4,163.2,010126,,*39
$GNGGA,000005.50,3347.9514,S,15052.5748,E,4,18,0.6,30.0,M,46.9,M,,*5A
$GNRMC,000005.50,A,3347.9514,S,15052.5748,E,118.4,163.2,010126,,*39
$GNGGA,000005.60,3347.9505,S,15052.5710,E,4,18,0.6,30.0,M,46.9,M,,*54
$GNRMC,000005.60,A,3347.9505,S,15052.5710,E,118.4,163.2,010126,,*37
$GNGGA,000005.70,3347.9495,S,15052.5672,E,4,18,0.6,30.0,M,46.9,M,,*58
$GNRMC,000005.70,A,3347.9495,S,15052.5672,E,118.4,163.2,010126,,*3B
$GNGGA,000005.80,3347.9486,S,15052.5635,E,4,18,0.6,30.0,M,46.9,M,,*56
$GNRMC,000005.80,A,3347.9486,S,15052.5635,E,118.4,163.2,010126,,*35
$GNGGA,000005.90,3347.9476,S,15052.5597,E,4,18,0.6,30.0,M,46.9,M,,*53
$GNRMC,000005.90,A,3347.9476,S,15052.5597,E,118.4,163.2,010126,,*30
$GNGGA,000006.00,3347.9467,S,15052.5559,E,4,18,0.6,30.0,M,46.9,M,,*5B
$GNRMC,000006.00,A,3347.9467,S,15052.5559,E,118.4,165.3,010126,,*3F
$GNGGA,000006.10,3347.9458,S,15052.5521,E,4,18,0.6,30.0,M,46.9,M,,*59
$GNRMC,000006.10,A,3347.9458,S,15052.5521,E,118.4,165.3,010126,,*3D
$GNGGA,000006.20,3347.9450,S,15052.5482,E,4,18,0.6,30.0,M,46.9,M,,*5A
$GNRMC,000006.20,A,3347.9450,S,15052.5482,E,118.4,165.3,010126,,*3E
$GNGGA,000006.30,3347.9442,S,15052.5444,E,4,18,0.6,30.0,M,46.9,M,,*52
$GNRMC,000006.30,A,3347.9442,S,15052.5444,E,118.4,165.3,010126,,*36
$GNGGA,000006.40,3347.9434,S,15052.5406,E,4,18,0.6,30.0,M,46.9,M,,*52
$GNRMC,000006.40,A,3347.9434,S,15052.5406,E,118.4,165.3,010126,,*36
$GNGGA,000006.50,3347.9425,S,15052.5368,E,4,18,0.6,30.0,M,46.9,M,,*5C
$GNRMC,000006.50,A,3347.9425,S,15052.5368,E,118.3,165.3,010126,,*3F
$GNGGA,000006.60,3347.9417,S,15052.5329,E,4,18,0.6,30.0,M,46.9,M,,*5B
$GNRMC,000006.60,A,3347.9417,S,15052.5329,E,118.3,165.3,010126,,*38
$GNGGA,000006.70,3347.9409,S,15052.5291,E,4,18,0.6,30.0,M,46.9,M,,*57
$GNRMC,000006.70,A,3347.9409,S,15052.5291,E,118.3,165.3,010126,,*34
$GNGGA,000006.80,3347.9400,S,15052.5253,E,4,18,0.6,30.0,M,46.9,M,,*5F
$GNRMC,000006.80,A,3347.9400,S,15052.5253,E,118.3,167.3,010126,,*3E
$GNGGA,000006.90,3347.9393,S,15052.5214,E,4,18,0.6,30.0,M,46.9,M,,*50
$GNRMC,000006.90,A,3347.9393,S,15052.5214,E,118.3,167.3,010126,,*31
$GNGGA,000007.00,3347.9386,S,15052.5176,E,4,18,0.6,30.0,M,46.9,M,,*5B
$GNRMC,000007.00,A,3347.9386,S,15052.5176,E,118.3,167.3,010126,,*3A
$GNGGA,000007.10,3347.9379,S,15052.5137,E,4,18,0.6,30.0,M,46.9,M,,*5F
$GNRMC,000007.10,A,3347.9379,S,15052.5137,E,118.3,167.3,010126,,*3E
$GNGGA,000007.20,3347.9372,S,15052.5099,E,4,18,0.6,30.0,M,46.9,M,,*52
$GNRMC,000007.20,A,3347.9372,S,15052.5099,E,118.3,167.3,010126,,*33
$GNGGA,000007.30,3347.9364,S,15052.5060,E,4,18,0.6,30.0,M,46.9,M,,*52
$GNRMC,000007.30,A,3347.9364,S,15052.5060,E,118.2,167.3,010126,,*32
$GNGGA,000007.40,3347.9357,S,15052.5022,E,4,18,0.6,30.0,M,46.9,M,,*53
$GNRMC,000007.40,A,3347.9357,S,15052.5022,E,118.2,167.3,010126,,*33
$GNGGA,000007.50,3347.9350,S,15052.4983,E,4,18,0.6,30.0,M,46.9,M,,*56
$GNRMC,000007.50,A,3347.9350,S,15052.4983,E,118.2,167.3,010126,,*36
$GNGGA,000007.60,3347.9343,S,15052.4944,E,4,18,0.6,30.0,M,46.9,M,,*5C
$GNRMC,000007.60,A,3347.9343,S,15052.4944,E,118.2,169.2,010126,,*33
$GNGGA,000007.70,3347.9337,S,15052.4906,E,4,18,0.6,30.0,M,46.9,M,,*58
$GNRMC,000007.70,A,3347.9337,S,15052.4906,E,118.2,169.2,010126,,*37
$GNGGA,000007.80,3347.9331,S,15052.4867,E,4,18,0.6,30.0,M,46.9,M,,*57
$GNRMC,000007.80,A,3347.9331,S,15052.4867,E,118.1,169.2,010126,,*3B
$GNGGA,000007.90,3347.9324,S,15052.4828,E,4,18,0.6,30.0,M,46.9,M,,*59
$GNRMC,000007.90,A,3347.9324,S,15052.4828,E,118.1,169.2,010126,,*35
$GNGGA,000008.00,3347.9318,S,15052.4789,E,4,18,0.6,30.0,M,46.9,M,,*54
$GNRMC,000008.00,A,3347.9318,S,15052.4789,E,118.1,169.2,010126,,*38
$GNGGA,000008.10,3347.9312,S,15052.4751,E,4,18,0.6,30.0,M,46.9,M,,*5A
$GNRMC,000008.10,A,3347.9312,S,15052.4751,E,118.1,169.2,010126,,*36
$GNGGA,000008.20,3347.9306,S,15052.4712,E,4,18,0.6,30.0,M,46.9,M,,*5B
$GNRMC,000008.20,A,3347.9306,S,15052.4712,E,118.0,169.2,010126,,*36
$GNGGA,000008.30,3347.9300,S,15052.4673,E,4,18,0.6,30.0,M,46.9,M,,*5A
$GNRMC,000008.30,A,3347.9300,S,15052.4673,E,118.0,169.2,010126,,*37
$GNGGA,000008.40,3347.9294,S,15052.4634,E,4,18,0.6,30.0,M,46.9,M,,*52
$GNRMC,000008.40,A,3347.9294,S,15052.4634,E,118.0,169.2,010126,,*3F
$GNGGA,000008.50,3347.9288,S,15052.4596,E,4,18,0.6,30.0,M,46.9,M,,*55
$GNRMC,000008.50,A,3347.9288,S,15052.4596,E,118.0,171.0,010126,,*33
$GNGGA,000008.60,3347.9283,S,15052.4557,E,4,18,0.6,30.0,M,46.9,M,,*50
$GNRMC,000008.60,A,3347.9283,S,15052.4557,E,117.9,171.0,010126,,*30
$GNGGA,000008.70,3347.9278,S,15052.4518,E,4,18,0.6,30.0,M,46.9,M,,*5E
$GNRMC,000008.70,A,3347.9278,S,15052.4518,E,117.9,171.0,010126,,*3E
$GNGGA,000008.80,3347.9273,S,15052.4479,E,4,18,0.6,30.0,M,46.9,M,,*5C
$GNRMC,000008.80,A,3347.9273,S,15052.4479,E,117.9,171.0,010126,,*3C
$GNGGA,000008.90,3347.9268,S,15052.4440,E,4,18,0.6,30.0,M,46.9,M,,*5D
$GNRMC,000008.90,A,3347.9268,S,15052.4440,E,117.8,171.0,010126,,*3C
$GNGGA,000009.00,3347.9263,S,15052.4401,E,4,18,0.6,30.0,M,46.9,M,,*5B
$GNRMC,000009.00,A,3347.9263,S,15052.4401,E,117.8,171.0,010126,,*3A
$GNGGA,000009.10,3347.9257,S,15052.4362,E,4,18,0.6,30.0,M,46.9,M,,*5F
$GNRMC,000009.10,A,3347.9257,S,15052.4362,E,117.8,171.0,010126,,*3E
$GNGGA,000009.20,3347.9252,S,15052.4323,E,4,18,0.6,30.0,M,46.9,M,,*5C
$GNRMC,000009.20,A,3347.9252,S,15052.4323,E,117.7,171.0,010126,,*32
$GNGGA,000009.30,3347.9247,S,15052.4284,E,4,18,0.6,30.0,M,46.9,M,,*55
$GNRMC,000009.30,A,3347.9247,S,15052.4284,E,117.7,172.7,010126,,*3F
$GNGGA,000009.40,3347.9243,S,15052.4245,E,4,18,0.6,30.0,M,46.9,M,,*5B
$GNRMC,000009.40,A,3347.9243,S,15052.4245,E,117.7,172.7,010126,,*31
$GNGGA,000009.50,3347.9239,S,15052.4207,E,4,18,0.6,30.0,M,46.9,M,,*51
$GNRMC,000009.50,A,3347.9239,S,15052.4207,E,117.6,172.7,010126,,*3A
$GNGGA,000009.60,3347.9235,S,15052.4168,E,4,18,0.6,30.0,M,46.9,M,,*54
$GNRMC,000009.60,A,3347.9235,S,15052.4168,E,117.6,172.7,010126,,*3F
$GNGGA,000009.70,3347.9231,S,15052.4129,E,4,18,0.6,30.0,M,46.9,M,,*54
$GNRMC,000009.70,A,3347.9231,S,15052.4129,E,117.5,172.7,010126,,*3C
$GNGGA,000009.80,3347.9227,S,15052.4090,E,4,18,0.6,30.0,M,46.9,M,,*5F
$GNRMC,000009.80,A,3347.9227,S,15052.4090,E,117.5,172.7,010126,,*37
$GNGGA,000009.90,3347.9223,S,15052.4051,E,4,18,0.6,30.0,M,46.9,M,,*57
$GNRMC,000009.90,A,3347.9223,S,15052.4051,E,117.5,172.7,010126,,*3F
$GNGGA,000010.00,3347.9218,S,15052.4012,E,4,18,0.6,30.0,M,46.9,M,,*59
$GNRMC,000010.00,A,3347.9218,S,15052.4012,E,117.4,172.7,010126,,*30
$GNGGA,000010.10,3347.9214,S,15052.3973,E,4,18,0.6,30.0,M,46.9,M,,*5D
$GNRMC,000010.10,A,3347.9214,S,15052.3973,E,117.4,172.7,010126,,*34
$GNGGA,000010.20,3347.9210,S,15052.3934,E,4,18,0.6,30.0,M,46.9,M,,*59
$GNRMC,000010.20,A,3347.9210,S,15052.3934,E,117.3,174.4,010126,,*32
$GNGGA,000010.30,3347.9207,S,15052.3895,E,4,18,0.6,30.0,M,46.9,M,,*54
$GNRMC,000010.30,A,3347.9207,S,15052.3895,E,117.3,174.4,010126,,*3F
$GNGGA,000010.40,3347.9204,S,15052.3856,E,4,18,0.6,30.0,M,46.9,M,,*5F
$GNRMC,000010.40,A,3347.9204,S,15052.3856,E,117.2,174.4,010126,,*35
$GNGGA,000010.50,3347.9201,S,15052.3817,E,4,18,0.6,30.0,M,46.9,M,,*5E
$GNRMC,000010.50,A,3347.9201,S,15052.3817,E,117.2,174.4,010126,,*34
$GNGGA,000010.60,3347.9198,S,15052.3778,E,4,18,0.6,30.0,M,46.9,M,,*58
$GNRMC,000010.60,A,3347.9198,S,15052.3778,E,117.1,174.4,010126,,*31
$GNGGA,000010.70,3347.9195,S,15052.3739,E,4,18,0.6,30.0,M,46.9,M,,*51
$GNRMC,000010.70,A,3347.9195,S,15052.3739,E,117.1,174.4,010126,,*38
$GNGGA,000010.80,3347.9191,S,15052.3700,E,4,18,0.6,30.0,M,46.9,M,,*50
$GNRMC,000010.80,A,3347.9191,S,15052.3700,E,117.1,174.4,010126,,*39
$GNGGA,000010.90,3347.9188,S,15052.3661,E,4,18,0.6,30.0,M,46.9,M,,*5F
$GNRMC,000010.90,A,3347.9188,S,15052.3661,E,117.0,174.4,010126,,*37
$GNGGA,000011.00,3347.9185,S,15052.3622,E,4,18,0.6,30.0,M,46.9,M,,*5D
$GNRMC,000011.00,A,3347.9185,S,15052.3622,E,117.0,174.4,010126,,*35
$GNGGA,000011.10,3347.9182,S,15052.3583,E,4,18,0.6,30.0,M,46.9,M,,*53
$GNRMC,000011.10,A,3347.9182,S,15052.3583,E,116.9,176.0,010126,,*35
$GNGGA,000011.20,3347.9180,S,15052.3544,E,4,18,0.6,30.0,M,46.9,M,,*59
$GNRMC,000011.20,A,3347.9180,S,15052.3544,E,116.9,176.0,010126,,*3F
$GNGGA,000011.30,3347.9178,S,15052.3505,E,4,18,0.6,30.0,M,46.9,M,,*5A
$GNRMC,000011.30,A,3347.9178,S,15052.3505,E,116.8,176.0,010126,,*3D
$GNGGA,000011.40,3347.9176,S,15052.3467,E,4,18,0.6,30.0,M,46.9,M,,*56
$GNRMC,000011.40,A,3347.9176,S,15052.3467,E,116.8,176.0,010126,,*31
$GNGGA,000011.50,3347.9173,S,15052.3428,E,4,18,0.6,30.0,M,46.9,M,,*59
$GNRMC,000011.50,A,3347.9173,S,15052.3428,E,116.7,176.0,010126,,*31
$GNGGA,000011.60,3347.9171,S,15052.3389,E,4,18,0.6,30.0,M,46.9,M,,*54
$GNRMC,000011.60,A,3347.9171,S,15052.3389,E,116.7,176.0,010126,,*3C
$GNGGA,000011.70,3347.9169,S,15052.3350,E,4,18,0.6,30.0,M,46.9,M,,*58
$GNRMC,000011.70,A,3347.9169,S,15052.3350,E,116.6,176.0,010126,,*31
$GNGGA,000011.80,3347.9167,S,15052.3311,E,4,18,0.6,30.0,M,46.9,M,,*5C
$GNRMC,000011.80,A,3347.9167,S,15052.3311,E,116.6,176.0,010126,,*35
$GNGGA,000011.90,3347.9164,S,15052.3272,E,4,18,0.6,30.0,M,46.9,M,,*5A
$GNRMC,000011.90,A,3347.9164,S,15052.3272,E,116.5,176.0,010126,,*30
$GNGGA,000012.00,3347.9162,S,15052.3233,E,4,18,0.6,30.0,M,46.9,M,,*53
$GNRMC,000012.00,A,3347.9162,S,15052.3233,E,116.4,177.6,010126,,*3F
$GNGGA,000012.10,3347.9161,S,15052.3194,E,4,18,0.6,30.0,M,46.9,M,,*5F
$GNRMC,000012.10,A,3347.9161,S,15052.3194,E,116.4,177.6,010126,,*33
$GNGGA,000012.20,3347.9160,S,15052.3156,E,4,18,0.6,30.0,M,46.9,M,,*53
$GNRMC,000012.20,A,3347.9160,S,15052.3156,E,116.3,177.6,010126,,*38
$GNGGA,000012.30,3347.9158,S,15052.3117,E,4,18,0.6,30.0,M,46.9,M,,*5C
$GNRMC,000012.30,A,3347.9158,S,15052.3117,E,116.3,177.6,010126,,*37
$GNGGA,000012.40,3347.9157,S,15052.3078,E,4,18,0.6,30.0,M,46.9,M,,*5C
$GNRMC,000012.40,A,3347.9157,S,15052.3078,E,116.2,177.6,010126,,*36
$GNGGA,000012.50,3347.9156,S,15052.3039,E,4,18,0.6,30.0,M,46.9,M,,*59
$GNRMC,000012.50,A,3347.9156,S,15052.3039,E,116.2,177.6,010126,,*33
$GNGGA,000012.60,3347.9154,S,15052.3000,E,4,18,0.6,30.0,M,46.9,M,,*52
$GNRMC,000012.60,A,3347.9154,S,15052.3000,E,116.1,177.6,010126,,*3B
$GNGGA,000012.70,3347.9153,S,15052.2962,E,4,18,0.6,30.0,M,46.9,M,,*58
$GNRMC,000012.70,A,3347.9153,S,15052.2962,E,116.1,177.6,010126,,*31
$GNGGA,000012.80,3347.9152,S,15052.2923,E,4,18,0.6,30.0,M,46.9,M,,*53
$GNRMC,000012.80,A,3347.9152,S,15052.2923,E,116.0,177.6,010126,,*3B
$GNGGA,000012.90,3347.9151,S,15052.2884,E,4,18,0.6,30.0,M,46.9,M,,*5D
$GNRMC,000012.90,A,3347.9151,S,15052.2884,E,116.0,179.2,010126,,*3F
$GNGGA,000013.00,3347.9150,S,15052.2845,E,4,18,0.6,30.0,M,46.9,M,,*59
$GNRMC,000013.00,A,3347.9150,S,15052.2845,E,115.9,179.2,010126,,*31
$GNGGA,000013.10,3347.9150,S,15052.2807,E,4,18,0.6,30.0,M,46.9,M,,*5E
$GNRMC,000013.10,A,3347.9150,S,15052.2807,E,115.8,179.2,010126,,*37
$GNGGA,000013.20,3347.9149,S,15052.2768,E,4,18,0.6,30.0,M,46.9,M,,*53
$GNRMC,000013.20,A,3347.9149,S,15052.2768,E,115.8,179.2,010126,,*3A
$GNGGA,000013.30,3347.9149,S,15052.2729,E,4,18,0.6,30.0,M,46.9,M,,*57
$GNRMC,000013.30,A,3347.9149,S,15052.2729,E,115.7,179.2,010126,,*31
$GNGGA,000013.40,3347.9148,S,15052.2691,E,4,18,0.6,30.0,M,46.9,M,,*53
$GNRMC,000013.40,A,3347.9148,S,15052.2691,E,115.7,179.2,010126,,*35
$GNGGA,000013.50,3347.9148,S,15052.2652,E,4,18,0.6,30.0,M,46.9,M,,*5D
$GNRMC,000013.50,A,3347.9148,S,15052.2652,E,115.6,179.2,010126,,*3A
$GNGGA,000013.60,3347.9148,S,15052.2613,E,4,18,0.6,30.0,M,46.9,M,,*5B
$GNRMC,000013.60,A,3347.9148,S,15052.2613,E,115.6,179.2,010126,,*3C
$GNGGA,000013.70,3347.9147,S,15052.2575,E,4,18,0.6,30.0,M,46.9,M,,*56
$GNRMC,000013.70,A,3347.9147,S,15052.2575,E,115.5,179.2,010126,,*32
$GNGGA,000013.80,3347.9147,S,15052.2536,E,4,18,0.6,30.0,M,46.9,M,,*5E
$GNRMC,000013.80,A,3347.9147,S,15052.2536,E,115.5,180.8,010126,,*36
$GNGGA,000013.90,3347.9147,S,15052.2498,E,4,18,0.6,30.0,M,46.9,M,,*5A
$GNRMC,000013.90,A,3347.9147,S,15052.2498,E,115.4,180.8,010126,,*33
$GNGGA,000014.00,3347.9148,S,15052.2459,E,4,18,0.6,30.0,M,46.9,M,,*56
$GNRMC,000014.00,A,3347.9148,S,15052.2459,E,115.3,180.8,010126,,*38
$GNGGA,000014.10,3347.9148,S,15052.2421,E,4,18,0.6,30.0,M,46.9,M,,*58
$GNRMC,000014.10,A,3347.9148,S,15052.2421,E,115.3,180.8,010126,,*36
$GNGGA,000014.20,3347.9149,S,15052.2382,E,4,18,0.6,30.0,M,46.9,M,,*54
$GNRMC,000014.20,A,3347.9149,S,15052.2382,E,115.2,180.8,010126,,*3B
$GNGGA,000014.30,3347.9149,S,15052.2344,E,4,18,0.6,30.0,M,46.9,M,,*5F
$GNRMC,000014.30,A,3347.9149,S,15052.2344,E,115.2,180.8,010126,,*30
$GNGGA,000014.40,3347.9149,S,15052.2305,E,4,18,0.6,30.0,M,46.9,M,,*5D
$GNRMC,000014.40,A,3347.9149,S,15052.2305,E,115.1,180.8,010126,,*31
$GNGGA,000014.50,3347.9150,S,15052.2267,E,4,18,0.6,30.0,M,46.9,M,,*51
$GNRMC,000014.50,A,3347.9150,S,15052.2267,E,115.1,180.8,010126,,*3D
$GNGGA,000014.60,3347.9150,S,15052.2228,E,4,18,0.6,30.0,M,46.9,M,,*59
$GNRMC,000014.60,A,3347.9150,S,15052.2228,E,115.0,180.8,010126,,*34
$GNGGA,000014.70,3347.9151,S,15052.2190,E,4,18,0.6,30.0,M,46.9,M,,*59
$GNRMC,000014.70,A,3347.9151,S,15052.2190,E,115.0,180.8,010126,,*34
$GNGGA,000014.80,3347.9152,S,15052.2151,E,4,18,0.6,30.0,M,46.9,M,,*58
$GNRMC,000014.80,A,3347.9152,S,15052.2151,E,114.9,182.4,010126,,*33
$GNGGA,000014.90,3347.9153,S,15052.2113,E,4,18,0.6,30.0,M,46.9,M,,*5E
$GNRMC,000014.90,A,3347.9153,S,15052.2113,E,114.9,182.4,010126,,*35
$GNGGA,000015.00,3347.9155,S,15052.2075,E,4,18,0.6,30.0,M,46.9,M,,*51
$GNRMC,000015.00,A,3347.9155,S,15052.2075,E,114.8,182.4,010126,,*3B
$GNGGA,000015.10,3347.9156,S,15052.2036,E,4,18,0.6,30.0,M,46.9,M,,*54
$GNRMC,000015.10,A,3347.9156,S,15052.2036,E,114.7,182.4,010126,,*31
$GNGGA,000015.20,3347.9157,S,15052.1998,E,4,18,0.6,30.0,M,46.9,M,,*58
$GNRMC,000015.20,A,3347.9157,S,15052.1998,E,114.7,182.4,010126,,*3D
$GNGGA,000015.30,3347.9159,S,15052.1960,E,4,18,0.6,30.0,M,46.9,M,,*50
$GNRMC,000015.30,A,3347.9159,S,15052.1960,E,114.6,182.4,010126,,*34
$GNGGA,000015.40,3347.9160,S,15052.1922,E,4,18,0.6,30.0,M,46.9,M,,*5B
$GNRMC,000015.40,A,3347.9160,S,15052.1922,E,114.6,182.4,010126,,*3F
$GNGGA,000015.50,3347.9161,S,15052.1883,E,4,18,0.6,30.0,M,46.9,M,,*51
$GNRMC,000015.50,A,3347.9161,S,15052.1883,E,114.5,182.4,010126,,*36
$GNGGA,000015.60,3347.9163,S,15052.1845,E,4,18,0.6,30.0,M,46.9,M,,*5A
$GNRMC,000015.60,A,3347.9163,S,15052.1845,E,114.5,182.4,010126,,*3D
$GNGGA,000015.70,3347.9164,S,15052.1807,E,4,18,0.6,30.0,M,46.9,M,,*5A
$GNRMC,000015.70,A,3347.9164,S,15052.1807,E,114.4,184.0,010126,,*3E
$GNGGA,000015.80,3347.9167,S,15052.1769,E,4,18,0.6,30.0,M,46.9,M,,*51
$GNRMC,000015.80,A,3347.9167,S,15052.1769,E,114.4,184.0,010126,,*35
$GNGGA,000015.90,3347.9169,S,15052.1731,E,4,18,0.6,30.0,M,46.9,M,,*53
$GNRMC,000015.90,A,3347.9169,S,15052.1731,E,114.3,184.0,010126,,*30
$GNGGA,000016.00,3347.9171,S,15052.1693,E,4,18,0.6,30.0,M,46.9,M,,*59
$GNRMC,000016.00,A,3347.9171,S,15052.1693,E,114.3,184.0,010126,,*3A
$GNGGA,000016.10,3347.9173,S,15052.1655,E,4,18,0.6,30.0,M,46.9,M,,*50
$GNRMC,000016.10,A,3347.9173,S,15052.1655,E,114.2,184.0,010126,,*32
$GNGGA,000016.20,3347.9175,S,15052.1616,E,4,18,0.6,30.0,M,46.9,M,,*52
$GNRMC,000016.20,A,3347.9175,S,15052.1616,E,114.2,184.0,010126,,*30
$GNGGA,000016.30,3347.9178,S,15052.1578,E,4,18,0.6,30.0,M,46.9,M,,*55
$GNRMC,000016.30,A,3347.9178,S,15052.1578,E,114.1,184.0,010126,,*34
$GNGGA,000016.40,3347.9180,S,15052.1540,E,4,18,0.6,30.0,M,46.9,M,,*5E
$GNRMC,000016.40,A,3347.9180,S,15052.1540,E,114.1,184.0,010126,,*3F
$GNGGA,000016.50,3347.9182,S,15052.1502,E,4,18,0.6,30.0,M,46.9,M,,*5B
$GNRMC,000016.50,A,3347.9182,S,15052.1502,E,114.0,184.0,010126,,*3B
$GNGGA,000016.60,3347.9184,S,15052.1464,E,4,18,0.6,30.0,M,46.9,M,,*5F
$GNRMC,000016.60,A,3347.9184,S,15052.1464,E,114.0,185.6,010126,,*38
$GNGGA,000016.70,3347.9188,S,15052.1427,E,4,18,0.6,30.0,M,46.9,M,,*55
$GNRMC,000016.70,A,3347.9188,S,15052.1427,E,113.9,185.6,010126,,*3C
$GNGGA,000016.80,3347.9191,S,15052.1389,E,4,18,0.6,30.0,M,46.9,M,,*51
$GNRMC,000016.80,A,3347.9191,S,15052.1389,E,113.9,185.6,010126,,*38
$GNGGA,000016.90,3347.9194,S,15052.1351,E,4,18,0.6,30.0,M,46.9,M,,*50
$GNRMC,000016.90,A,3347.9194,S,15052.1351,E,113.8,185.6,010126,,*38
$GNGGA,000017.00,3347.9197,S,15052.1313,E,4,18,0.6,30.0,M,46.9,M,,*5D
$GNRMC,000017.00,A,3347.9197,S,15052.1313,E,113.8,185.6,010126,,*35
$GNGGA,000017.10,3347.9200,S,15052.1275,E,4,18,0.6,30.0,M,46.9,M,,*50
$GNRMC,000017.10,A,3347.9200,S,15052.1275,E,113.7,185.6,010126,,*37
$GNGGA,000017.20,3347.9203,S,15052.1237,E,4,18,0.6,30.0,M,46.9,M,,*56
$GNRMC,000017.20,A,3347.9203,S,15052.1237,E,113.7,185.6,010126,,*31
$GNGGA,000017.30,3347.9206,S,15052.1199,E,4,18,0.6,30.0,M,46.9,M,,*55
$GNRMC,000017.30,A,3347.9206,S,15052.1199,E,113.7,185.6,010126,,*32
$GNGGA,000017.40,3347.9209,S,15052.1162,E,4,18,0.6,30.0,M,46.9,M,,*59
$GNRMC,000017.40,A,3347.9209,S,15052.1162,E,113.6,185.6,010126,,*3F
$GNGGA,000017.50,3347.9212,S,15052.1124,E,4,18,0.6,30.0,M,46.9,M,,*50
$GNRMC,000017.50,A,3347.9212,S,15052.1124,E,113.6,187.3,010126,,*31
$GNGGA,000017.60,3347.9216,S,15052.1086,E,4,18,0.6,30.0,M,46.9,M,,*5E
$GNRMC,000017.60,A,3347.9216,S,15052.1086,E,113.5,187.3,010126,,*3C
$GNGGA,000017.70,3347.9220,S,15052.1049,E,4,18,0.6,30.0,M,46.9,M,,*59
$GNRMC,000017.70,A,3347.9220,S,15052.1049,E,113.5,187.3,010126,,*3B
$GNGGA,000017.80,3347.9224,S,15052.1011,E,4,18,0.6,30.0,M,46.9,M,,*5F
$GNRMC,000017.80,A,3347.9224,S,15052.1011,E,113.5,187.3,010126,,*3D
$GNGGA,000017.90,3347.9228,S,15052.0973,E,4,18,0.6,30.0,M,46.9,M,,*5E
$GNRMC,000017.90,A,3347.9228,S,15052.0973,E,113.4,187.3,010126,,*3D
$GNGGA,000018.00,3347.9232,S,15052.0936,E,4,18,0.6,30.0,M,46.9,M,,*52
$GNRMC,000018.00,A,3347.9232,S,15052.0936,E,113.4,187.3,010126,,*31
$GNGGA,000018.10,3347.9236,S,15052.0898,E,4,18,0.6,30.0,M,46.9,M,,*52
$GNRMC,000018.10,A,3347.9236,S,15052.0898,E,113.3,187.3,010126,,*36
$GNGGA,000018.20,3347.9240,S,15052.0861,E,4,18,0.6,30.0,M,46.9,M,,*56
$GNRMC,000018.20,A,3347.9240,S,15052.0861,E,113.3,187.3,010126,,*32
$GNGGA,000018.30,3347.9244,S,15052.0823,E,4,18,0.6,30.0,M,46.9,M,,*55
$GNRMC,000018.30,A,3347.9244,S,15052.0823,E,113.3,187.3,010126,,*31
$GNGGA,000018.40,3347.9249,S,15052.0786,E,4,18,0.6,30.0,M,46.9,M,,*5F
$GNRMC,000018.40,A,3347.9249,S,15052.0786,E,113.2,189.0,010126,,*37
$GNGGA,000018.50,3347.9253,S,15052.0748,E,4,18,0.6,30.0,M,46.9,M,,*57
$GNRMC,000018.50,A,3347.9253,S,15052.0748,E,113.2,189.0,010126,,*3F
$GNGGA,000018.60,3347.9258,S,15052.0711,E,4,18,0.6,30.0,M,46.9,M,,*53
$GNRMC,000018.60,A,3347.9258,S,15052.0711,E,113.2,189.0,010126,,*3B
$GNGGA,000018.70,3347.9263,S,15052.0674,E,4,18,0.6,30.0,M,46.9,M,,*58
$GNRMC,000018.70,A,3347.9263,S,15052.0674,E,113.1,189.0,010126,,*33
$GNGGA,000018.80,3347.9268,S,15052.0636,E,4,18,0.6,30.0,M,46.9,M,,*5A
$GNRMC,000018.80,A,3347.9268,S,15052.0636,E,113.1,189.0,010126,,*31
$GNGGA,000018.90,3347.9273,S,15052.0599,E,4,18,0.6,30.0,M,46.9,M,,*57
$GNRMC,000018.90,A,3347.9273,S,15052.0599,E,113.1,189.0,010126,,*3C
$GNGGA,000019.00,3347.9278,S,15052.0562,E,4,18,0.6,30.0,M,46.9,M,,*50
$GNRMC,000019.00,A,3347.9278,S,15052.0562,E,113.0,189.0,010126,,*3A
$GNGGA,000019.10,3347.9283,S,15052.0524,E,4,18,0.6,30.0,M,46.9,M,,*57
$GNRMC,000019.10,A,3347.9283,S,15052.0524,E,113.0,189.0,010126,,*3D
$GNGGA,000019.20,3347.9288,S,15052.0487,E,4,18,0.6,30.0,M,46.9,M,,*57
$GNRMC,000019.20,A,3347.9288,S,15052.0487,E,113.0,189.0,010126,,*3D
$GNGGA,000019.30,3347.9293,S,15052.0450,E,4,18,0.6,30.0,M,46.9,M,,*56
$GNRMC,000019.30,A,3347.9293,S,15052.0450,E,112.9,190.8,010126,,*34
$GNGGA,000019.40,3347.9299,S,15052.0413,E,4,18,0.6,30.0,M,46.9,M,,*5C
$GNRMC,000019.40,A,3347.9299,S,15052.0413,E,112.9,190.8,010126,,*3E
$GNGGA,000019.50,3347.9305,S,15052.0376,E,4,18,0.6,30.0,M,46.9,M,,*5D
$GNRMC,000019.50,A,3347.9305,S,15052.0376,E,112.9,190.8,010126,,*3F
$GNGGA,000019.60,3347.9311,S,15052.0339,E,4,18,0.6,30.0,M,46.9,M,,*50
$GNRMC,000019.60,A,3347.9311,S,15052.0339,E,112.9,190.8,010126,,*32
$GNGGA,000019.70,3347.9316,S,15052.0302,E,4,18,0.6,30.0,M,46.9,M,,*5E
$GNRMC,000019.70,A,3347.9316,S,15052.0302,E,112.8,190.8,010126,,*3D
$GNGGA,000019.80,3347.9322,S,15052.0265,E,4,18,0.6,30.0,M,46.9,M,,*56
$GNRMC,000019.80,A,3347.9322,S,15052.0265,E,112.8,190.8,010126,,*35
$GNGGA,000019.90,3347.9328,S,15052.0228,E,4,18,0.6,30.0,M,46.9,M,,*54
$GNRMC,000019.90,A,3347.9328,S,15052.0228,E,112.8,190.8,010126,,*37
$GNGGA,000020.00,3347.9334,S,15052.0191,E,4,18,0.6,30.0,M,46.9,M,,*5B
$GNRMC,000020.00,A,3347.9334,S,15052.0191,E,112.8,190.8,010126,,*38
$GNGGA,000020.10,3347.9340,S,15052.0154,E,4,18,0.6,30.0,M,46.9,M,,*50
$GNRMC,000020.10,A,3347.9340,S,15052.0154,E,112.8,190.8,010126,,*33
$GNGGA,000020.20,3347.9346,S,15052.0117,E,4,18,0.6,30.0,M,46.9,M,,*52
$GNRMC,000020.20,A,3347.9346,S,15052.0117,E,112.7,192.7,010126,,*33
$GNGGA,000020.30,3347.9353,S,15052.0080,E,4,18,0.6,30.0,M,46.9,M,,*58
$GNRMC,000020.30,A,3347.9353,S,15052.0080,E,112.7,192.7,010126,,*39
$GNGGA,000020.40,3347.9360,S,15052.0043,E,4,18,0.6,30.0,M,46.9,M,,*50
$GNRMC,000020.40,A,3347.9360,S,15052.0043,E,112.7,192.7,010126,,*31
$GNGGA,000020.50,3347.9367,S,15052.0007,E,4,18,0.6,30.0,M,46.9,M,,*56
$GNRMC,000020.50,A,3347.9367,S,15052.0007,E,112.7,192.7,010126,,*37
$GNGGA,000020.60,3347.9374,S,15051.9970,E,4,18,0.6,30.0,M,46.9,M,,*54
$GNRMC,000020.60,A,3347.9374,S,15051.9970,E,112.7,192.7,010126,,*35
$GNGGA,000020.70,3347.9381,S,15051.9933,E,4,18,0.6,30.0,M,46.9,M,,*58
$GNRMC,000020.70,A,3347.9381,S,15051.9933,E,112.7,192.7,010126,,*39
$GNGGA,000020.80,3347.9387,S,15051.9896,E,4,18,0.6,30.0,M,46.9,M,,*5F
$GNRMC,000020.80,A,3347.9387,S,15051.9896,E,112.6,192.7,010126,,*3F
$GNGGA,000020.90,3347.9394,S,15051.9860,E,4,18,0.6,30.0,M,46.9,M,,*55
$GNRMC,000020.90,A,3347.9394,S,15051.9860,E,112.6,192.7,010126,,*35
$GNGGA,000021.00,3347.9401,S,15051.9823,E,4,18,0.6,30.0,M,46.9,M,,*51
$GNRMC,000021.00,A,3347.9401,S,15051.9823,E,112.6,192.7,010126,,*31
$GNGGA,000021.10,3347.9409,S,15051.9787,E,4,18,0.6,30.0,M,46.9,M,,*59
$GNRMC,000021.10,A,3347.9409,S,15051.9787,E,112.6,194.7,010126,,*3F
$GNGGA,000021.20,3347.9417,S,15051.9750,E,4,18,0.6,30.0,M,46.9,M,,*5F
$GNRMC,000021.20,A,3347.9417,S,15051.9750,E,112.6,194.7,010126,,*39
$GNGGA,000021.30,3347.9425,S,15051.9714,E,4,18,0.6,30.0,M,46.9,M,,*5F
$GNRMC,000021.30,A,3347.9425,S,15051.9714,E,112.6,194.7,010126,,*39
$GNGGA,000021.40,3347.9433,S,15051.9677,E,4,18,0.6,30.0,M,46.9,M,,*5B
$GNRMC,000021.40,A,3347.9433,S,15051.9677,E,112.6,194.7,010126,,*3D
$GNGGA,000021.50,3347.9441,S,15051.9641,E,4,18,0.6,30.0,M,46.9,M,,*5A
$GNRMC,000021.50,A,3347.9441,S,15051.9641,E,112.6,194.7,010126,,*3C
$GNGGA,000021.60,3347.9449,S,15051.9605,E,4,18,0.6,30.0,M,46.9,M,,*51
$GNRMC,000021.60,A,3347.9449,S,15051.9605,E,112.6,194.7,010126,,*37
$GNGGA,000021.70,3347.9457,S,15051.9568,E,4,18,0.6,30.0,M,46.9,M,,*57
$GNRMC,000021.70,A,3347.9457,S,15051.9568,E,112.6,194.7,010126,,*31
$GNGGA,000021.80,3347.9464,S,15051.9532,E,4,18,0.6,30.0,M,46.9,M,,*57
$GNRMC,000021.80,A,3347.9464,S,15051.9532,E,112.6,194.7,010126,,*31
$GNGGA,000021.90,3347.9473,S,15051.9496,E,4,18,0.6,30.0,M,46.9,M,,*5F
$GNRMC,000021.90,A,3347.9473,S,15051.9496,E,112.6,196.8,010126,,*34
$GNGGA,000022.00,3347.9482,S,15051.9460,E,4,18,0.6,30.0,M,46.9,M,,*52
$GNRMC,000022.00,A,3347.9482,S,15051.9460,E,112.5,196.8,010126,,*3A
$GNGGA,000022.10,3347.9491,S,15051.9424,E,4,18,0.6,30.0,M,46.9,M,,*51
$GNRMC,000022.10,A,3347.9491,S,15051.9424,E,112.5,196.8,010126,,*39
$GNGGA,000022.20,3347.9500,S,15051.9388,E,4,18,0.6,30.0,M,46.9,M,,*5A
$GNRMC,000022.20,A,3347.9500,S,15051.9388,E,112.5,196.8,010126,,*32
$GNGGA,000022.30,3347.9509,S,15051.9352,E,4,18,0.6,30.0,M,46.9,M,,*55
$GNRMC,000022.30,A,3347.9509,S,15051.9352,E,112.6,196.8,010126,,*3E
$GNGGA,000022.40,3347.9518,S,15051.9316,E,4,18,0.6,30.0,M,46.9,M,,*52
$GNRMC,000022.40,A,3347.9518,S,15051.9316,E,112.6,196.8,010126,,*39
$GNGGA,000022.50,3347.9527,S,15051.9280,E,4,18,0.6,30.0,M,46.9,M,,*51
$GNRMC,000022.50,A,3347.9527,S,15051.9280,E,112.6,196.8,010126,,*3A
$GNGGA,000022.60,3347.9536,S,15051.9244,E,4,18,0.6,30.0,M,46.9,M,,*5A
$GNRMC,000022.60,A,3347.9536,S,15051.9244,E,112.6,196.8,010126,,*31
$GNGGA,000022.70,3347.9546,S,15051.9208,E,4,18,0.6,30.0,M,46.9,M,,*54
$GNRMC,000022.70,A,3347.9546,S,15051.9208,E,112.6,199.1,010126,,*39
$GNGGA,000022.80,3347.9556,S,15051.9173,E,4,18,0.6,30.0,M,46.9,M,,*55
$GNRMC,000022.80,A,3347.9556,S,15051.9173,E,112.6,199.1,010126,,*38
$GNGGA,000022.90,3347.9566,S,15051.9137,E,4,18,0.6,30.0,M,46.9,M,,*57
$GNRMC,000022.90,A,3347.9566,S,15051.9137,E,112.6,199.1,010126,,*3A
$GNGGA,000023.00,3347.9577,S,15051.9102,E,4,18,0.6,30.0,M,46.9,M,,*59
$GNRMC,000023.00,A,3347.9577,S,15051.9102,E,112.6,199.1,010126,,*34
$GNGGA,000023.10,3347.9587,S,15051.9066,E,4,18,0.6,30.0,M,46.9,M,,*54
$GNRMC,000023.10,A,3347.9587,S,15051.9066,E,112.6,199.1,010126,,*39
$GNGGA,000023.20,3347.9597,S,15051.9030,E,4,18,0.6,30.0,M,46.9,M,,*55
$GNRMC,000023.20,A,3347.9597,S,15051.9030,E,112.6,199.1,010126,,*38
$GNGGA,000023.30,3347.9607,S,15051.8995,E,4,18,0.6,30.0,M,46.9,M,,*59
$GNRMC,000023.30,A,3347.9607,S,15051.8995,E,112.6,199.1,010126,,*34
$GNGGA,000023.40,3347.9617,S,15051.8959,E,4,18,0.6,30.0,M,46.9,M,,*5F
$GNRMC,000023.40,A,3347.9617,S,15051.8959,E,112.6,199.1,010126,,*32
$GNGGA,000023.50,3347.9629,S,15051.8924,E,4,18,0.6,30.0,M,46.9,M,,*59
$GNRMC,000023.50,A,3347.9629,S,15051.8924,E,112.6,201.5,010126,,*32
$GNGGA,000023.60,3347.9640,S,15051.8889,E,4,18,0.6,30.0,M,46.9,M,,*53
$GNRMC,000023.60,A,3347.9640,S,15051.8889,E,112.7,201.5,010126,,*39
$GNGGA,000023.70,3347.9652,S,15051.8854,E,4,18,0.6,30.0,M,46.9,M,,*51
$GNRMC,000023.70,A,3347.9652,S,15051.8854,E,112.7,201.5,010126,,*3B
$GNGGA,000023.80,3347.9663,S,15051.8819,E,4,18,0.6,30.0,M,46.9,M,,*55
$GNRMC,000023.80,A,3347.9663,S,15051.8819,E,112.7,201.5,010126,,*3F
$GNGGA,000023.90,3347.9675,S,15051.8784,E,4,18,0.6,30.0,M,46.9,M,,*58
$GNRMC,000023.90,A,3347.9675,S,15051.8784,E,112.7,201.5,010126,,*32
$GNGGA,000024.00,3347.9686,S,15051.8749,E,4,18,0.6,30.0,M,46.9,M,,*5B
$GNRMC,000024.00,A,3347.9686,S,15051.8749,E,112.7,201.5,010126,,*31
$GNGGA,000024.10,3347.9697,S,15051.8714,E,4,18,0.6,30.0,M,46.9,M,,*52
$GNRMC,000024.10,A,3347.9697,S,15051.8714,E,112.7,201.5,010126,,*38
$GNGGA,000024.20,3347.9710,S,15051.8679,E,4,18,0.6,30.0,M,46.9,M,,*55
$GNRMC,000024.20,A,3347.9710,S,15051.8679,E,112.8,204.2,010126,,*32
$GNGGA,000024.30,3347.9722,S,15051.8645,E,4,18,0.6,30.0,M,46.9,M,,*5A
$GNRMC,000024.30,A,3347.9722,S,15051.8645,E,112.8,204.2,010126,,*3D
$GNGGA,000024.40,3347.9735,S,15051.8611,E,4,18,0.6,30.0,M,46.9,M,,*5A
$GNRMC,000024.40,A,3347.9735,S,15051.8611,E,112.8,204.2,010126,,*3D
$GNGGA,000024.50,3347.9748,S,15051.8576,E,4,18,0.6,30.0,M,46.9,M,,*53
$GNRMC,000024.50,A,3347.9748,S,15051.8576,E,112.8,204.2,010126,,*34
$GNGGA,000024.60,3347.9761,S,15051.8542,E,4,18,0.6,30.0,M,46.9,M,,*5C
$GNRMC,000024.60,A,3347.9761,S,15051.8542,E,112.9,204.2,010126,,*3A
$GNGGA,000024.70,3347.9774,S,15051.8507,E,4,18,0.6,30.0,M,46.9,M,,*58
$GNRMC,000024.70,A,3347.9774,S,15051.8507,E,112.9,204.2,010126,,*3E
$GNGGA,000024.80,3347.9787,S,15051.8473,E,4,18,0.6,30.0,M,46.9,M,,*59
$GNRMC,000024.80,A,3347.9787,S,15051.8473,E,112.9,204.2,010126,,*3F
$GNGGA,000024.90,3347.9800,S,15051.8439,E,4,18,0.6,30.0,M,46.9,M,,*56
$GNRMC,000024.90,A,3347.9800,S,15051.8439,E,112.9,207.2,010126,,*33
$GNGGA,000025.00,3347.9814,S,15051.8405,E,4,18,0.6,30.0,M,46.9,M,,*54
$GNRMC,000025.00,A,3347.9814,S,15051.8405,E,113.0,207.2,010126,,*39
$GNGGA,000025.10,3347.9829,S,15051.8372,E,4,18,0.6,30.0,M,46.9,M,,*5C
$GNRMC,000025.10,A,3347.9829,S,15051.8372,E,113.0,207.2,010126,,*31
$GNGGA,000025.20,3347.9843,S,15051.8338,E,4,18,0.6,30.0,M,46.9,M,,*5D
$GNRMC,000025.20,A,3347.9843,S,15051.8338,E,113.0,207.2,010126,,*30
$GNGGA,000025.30,3347.9857,S,15051.8305,E,4,18,0.6,30.0,M,46.9,M,,*57
$GNRMC,000025.30,A,3347.9857,S,15051.8305,E,113.0,207.2,010126,,*3A
$GNGGA,000025.40,3347.9872,S,15051.8271,E,4,18,0.6,30.0,M,46.9,M,,*55
$GNRMC,000025.40,A,3347.9872,S,15051.8271,E,113.1,207.2,010126,,*39
$GNGGA,000025.50,3347.9886,S,15051.8237,E,4,18,0.6,30.0,M,46.9,M,,*5D
$GNRMC,000025.50,A,3347.9886,S,15051.8237,E,113.1,207.2,010126,,*31
$GNGGA,000025.60,3347.9901,S,15051.8204,E,4,18,0.6,30.0,M,46.9,M,,*50
$GNRMC,000025.60,A,3347.9901,S,15051.8204,E,113.1,210.4,010126,,*3C
$GNGGA,000025.70,3347.9917,S,15051.8172,E,4,18,0.6,30.0,M,46.9,M,,*54
$GNRMC,000025.70,A,3347.9917,S,15051.8172,E,113.2,210.4,010126,,*3B
$GNGGA,000025.80,3347.9933,S,15051.8139,E,4,18,0.6,30.0,M,46.9,M,,*52
$GNRMC,000025.80,A,3347.9933,S,15051.8139,E,113.2,210.4,010126,,*3D
$GNGGA,000025.90,3347.9949,S,15051.8107,E,4,18,0.6,30.0,M,46.9,M,,*53
$GNRMC,000025.90,A,3347.9949,S,15051.8107,E,113.2,210.4,010126,,*3C
$GNGGA,000026.00,3347.9965,S,15051.8074,E,4,18,0.6,30.0,M,46.9,M,,*52
$GNRMC,000026.00,A,3347.9965,S,15051.8074,E,113.3,210.4,010126,,*3C
$GNGGA,000026.10,3347.9981,S,15051.8041,E,4,18,0.6,30.0,M,46.9,M,,*5F
$GNRMC,000026.10,A,3347.9981,S,15051.8041,E,113.3,210.4,010126,,*31
$GNGGA,000026.20,3347.9997,S,15051.8009,E,4,18,0.6,30.0,M,46.9,M,,*57
$GNRMC,000026.20,A,3347.9997,S,15051.8009,E,113.4,214.1,010126,,*3F
$GNGGA,000026.30,3348.0015,S,15051.7978,E,4,18,0.6,30.0,M,46.9,M,,*53
$GNRMC,000026.30,A,3348.0015,S,15051.7978,E,113.4,214.1,010126,,*3B
$GNGGA,000026.40,3348.0032,S,15051.7946,E,4,18,0.6,30.0,M,46.9,M,,*5C
$GNRMC,000026.40,A,3348.0032,S,15051.7946,E,113.4,214.1,010126,,*34
$GNGGA,000026.50,3348.0050,S,15051.7915,E,4,18,0.6,30.0,M,46.9,M,,*5F
$GNRMC,000026.50,A,3348.0050,S,15051.7915,E,113.5,214.1,010126,,*36
$GNGGA,000026.60,3348.0068,S,15051.7884,E,4,18,0.6,30.0,M,46.9,M,,*5E
$GNRMC,000026.60,A,3348.0068,S,15051.7884,E,113.5,214.1,010126,,*37
$GNGGA,000026.70,3348.0085,S,15051.7852,E,4,18,0.6,30.0,M,46.9,M,,*57
$GNRMC,000026.70,A,3348.0085,S,15051.7852,E,113.6,214.1,010126,,*3D
$GNGGA,000026.80,3348.0104,S,15051.7821,E,4,18,0.6,30.0,M,46.9,M,,*54
$GNRMC,000026.80,A,3348.0104,S,15051.7821,E,113.6,218.2,010126,,*31
$GNGGA,000026.90,3348.0123,S,15051.7791,E,4,18,0.6,30.0,M,46.9,M,,*54
$GNRMC,000026.90,A,3348.0123,S,15051.7791,E,113.6,218.2,010126,,*31
$GNGGA,000027.00,3348.0143,S,15051.7762,E,4,18,0.6,30.0,M,46.9,M,,*56
$GNRMC,000027.00,A,3348.0143,S,15051.7762,E,113.7,218.2,010126,,*32
$GNGGA,000027.10,3348.0162,S,15051.7732,E,4,18,0.6,30.0,M,46.9,M,,*51
$GNRMC,000027.10,A,3348.0162,S,15051.7732,E,113.7,218.2,010126,,*35
$GNGGA,000027.20,3348.0182,S,15051.7702,E,4,18,0.6,30.0,M,46.9,M,,*5F
$GNRMC,000027.20,A,3348.0182,S,15051.7702,E,113.8,218.2,010126,,*34
$GNGGA,000027.30,3348.0201,S,15051.7672,E,4,18,0.6,30.0,M,46.9,M,,*50
$GNRMC,000027.30,A,3348.0201,S,15051.7672,E,113.8,218.2,010126,,*3B
$GNGGA,000027.40,3348.0222,S,15051.7643,E,4,18,0.6,30.0,M,46.9,M,,*54
$GNRMC,000027.40,A,3348.0222,S,15051.7643,E,113.9,222.9,010126,,*3C
$GNGGA,000027.50,3348.0244,S,15051.7616,E,4,18,0.6,30.0,M,46.9,M,,*55
$GNRMC,000027.50,A,3348.0244,S,15051.7616,E,113.9,222.9,010126,,*3D
$GNGGA,000027.60,3348.0265,S,15051.7588,E,4,18,0.6,30.0,M,46.9,M,,*51
$GNRMC,000027.60,A,3348.0265,S,15051.7588,E,114.0,222.9,010126,,*37
$GNGGA,000027.70,3348.0287,S,15051.7560,E,4,18,0.6,30.0,M,46.9,M,,*5A
$GNRMC,000027.70,A,3348.0287,S,15051.7560,E,114.0,222.9,010126,,*3C
$GNGGA,000027.80,3348.0308,S,15051.7532,E,4,18,0.6,30.0,M,46.9,M,,*54
$GNRMC,000027.80,A,3348.0308,S,15051.7532,E,114.1,222.9,010126,,*33
$GNGGA,000027.90,3348.0330,S,15051.7505,E,4,18,0.6,30.0,M,46.9,M,,*5A
$GNRMC,000027.90,A,3348.0330,S,15051.7505,E,114.1,228.2,010126,,*3C
$GNGGA,000028.00,3348.0354,S,15051.7480,E,4,18,0.6,30.0,M,46.9,M,,*52
$GNRMC,000028.00,A,3348.0354,S,15051.7480,E,114.1,228.2,010126,,*34
$GNGGA,000028.10,3348.0378,S,15051.7454,E,4,18,0.6,30.0,M,46.9,M,,*54
$GNRMC,000028.10,A,3348.0378,S,15051.7454,E,114.2,228.2,010126,,*31
$GNGGA,000028.20,3348.0401,S,15051.7429,E,4,18,0.6,30.0,M,46.9,M,,*54
$GNRMC,000028.20,A,3348.0401,S,15051.7429,E,114.2,228.2,010126,,*31
$GNGGA,000028.30,3348.0425,S,15051.7403,E,4,18,0.6,30.0,M,46.9,M,,*5B
$GNRMC,000028.30,A,3348.0425,S,15051.7403,E,114.3,228.2,010126,,*3F
$GNGGA,000028.40,3348.0450,S,15051.7379,E,4,18,0.6,30.0,M,46.9,M,,*54
$GNRMC,000028.40,A,3348.0450,S,15051.7379,E,114.4,234.2,010126,,*3A
$GNGGA,000028.50,3348.0475,S,15051.7357,E,4,18,0.6,30.0,M,46.9,M,,*5E
$GNRMC,000028.50,A,3348.0475,S,15051.7357,E,114.4,234.2,010126,,*30
$GNGGA,000028.60,3348.0501,S,15051.7335,E,4,18,0.6,30.0,M,46.9,M,,*5B
$GNRMC,000028.60,A,3348.0501,S,15051.7335,E,114.5,234.2,010126,,*34
$GNGGA,000028.70,3348.0527,S,15051.7312,E,4,18,0.6,30.0,M,46.9,M,,*5B
$GNRMC,000028.70,A,3348.0527,S,15051.7312,E,114.5,234.2,010126,,*34
$GNGGA,000028.80,3348.0553,S,15051.7290,E,4,18,0.6,30.0,M,46.9,M,,*5C
$GNRMC,000028.80,A,3348.0553,S,15051.7290,E,114.6,234.2,010126,,*30
$GNGGA,000028.90,3348.0580,S,15051.7271,E,4,18,0.6,30.0,M,46.9,M,,*5C
$GNRMC,000028.90,A,3348.0580,S,15051.7271,E,114.6,241.0,010126,,*30
$GNGGA,000029.00,3348.0608,S,15051.7252,E,4,18,0.6,30.0,M,46.9,M,,*56
$GNRMC,000029.00,A,3348.0608,S,15051.7252,E,114.7,241.0,010126,,*3B
$GNGGA,000029.10,3348.0636,S,15051.7233,E,4,18,0.6,30.0,M,46.9,M,,*5D
$GNRMC,000029.10,A,3348.0636,S,15051.7233,E,114.7,241.0,010126,,*30
$GNGGA,000029.20,3348.0664,S,15051.7215,E,4,18,0.6,30.0,M,46.9,M,,*5D
$GNRMC,000029.20,A,3348.0664,S,15051.7215,E,114.8,241.0,010126,,*3F
$GNGGA,000029.30,3348.0692,S,15051.7198,E,4,18,0.6,30.0,M,46.9,M,,*53
$GNRMC,000029.30,A,3348.0692,S,15051.7198,E,114.8,248.6,010126,,*3E
$GNGGA,000029.40,3348.0722,S,15051.7184,E,4,18,0.6,30.0,M,46.9,M,,*53
$GNRMC,000029.40,A,3348.0722,S,15051.7184,E,114.9,248.6,010126,,*3F
$GNGGA,000029.50,3348.0752,S,15051.7170,E,4,18,0.6,30.0,M,46.9,M,,*5E
$GNRMC,000029.50,A,3348.0752,S,15051.7170,E,114.9,248.6,010126,,*32
$GNGGA,000029.60,3348.0781,S,15051.7156,E,4,18,0.6,30.0,M,46.9,M,,*57
$GNRMC,000029.60,A,3348.0781,S,15051.7156,E,115.0,248.6,010126,,*33
$GNGGA,000029.70,3348.0811,S,15051.7144,E,4,18,0.6,30.0,M,46.9,M,,*53
$GNRMC,000029.70,A,3348.0811,S,15051.7144,E,115.0,256.8,010126,,*36
$GNGGA,000029.80,3348.0843,S,15051.7135,E,4,18,0.6,30.0,M,46.9,M,,*5D
$GNRMC,000029.80,A,3348.0843,S,15051.7135,E,115.1,256.8,010126,,*39
$GNGGA,000029.90,3348.0874,S,15051.7127,E,4,18,0.6,30.0,M,46.9,M,,*5B
$GNRMC,000029.90,A,3348.0874,S,15051.7127,E,115.2,256.8,010126,,*3C
$GNGGA,000030.00,3348.0905,S,15051.7118,E,4,18,0.6,30.0,M,46.9,M,,*51
$GNRMC,000030.00,A,3348.0905,S,15051.7118,E,115.2,256.8,010126,,*36
$GNGGA,000030.10,3348.0936,S,15051.7111,E,4,18,0.6,30.0,M,46.9,M,,*59
$GNRMC,000030.10,A,3348.0936,S,15051.7111,E,115.3,265.6,010126,,*31
$GNGGA,000030.20,3348.0968,S,15051.7108,E,4,18,0.6,30.0,M,46.9,M,,*59
$GNRMC,000030.20,A,3348.0968,S,15051.7108,E,115.3,265.6,010126,,*31
$GNGGA,000030.30,3348.1000,S,15051.7105,E,4,18,0.6,30.0,M,46.9,M,,*53
$GNRMC,000030.30,A,3348.1000,S,15051.7105,E,115.4,265.6,010126,,*3C
$GNGGA,000030.40,3348.1032,S,15051.7102,E,4,18,0.6,30.0,M,46.9,M,,*52
$GNRMC,000030.40,A,3348.1032,S,15051.7102,E,115.4,265.6,010126,,*3D
$GNGGA,000030.50,3348.1064,S,15051.7102,E,4,18,0.6,30.0,M,46.9,M,,*50
$GNRMC,000030.50,A,3348.1064,S,15051.7102,E,115.5,274.4,010126,,*3C
$GNGGA,000030.60,3348.1096,S,15051.7105,E,4,18,0.6,30.0,M,46.9,M,,*59
$GNRMC,000030.60,A,3348.1096,S,15051.7105,E,115.5,274.4,010126,,*35
$GNGGA,000030.70,3348.1128,S,15051.7108,E,4,18,0.6,30.0,M,46.9,M,,*51
$GNRMC,000030.70,A,3348.1128,S,15051.7108,E,115.6,274.4,010126,,*3E
$GNGGA,000030.80,3348.1160,S,15051.7111,E,4,18,0.6,30.0,M,46.9,M,,*5A
$GNRMC,000030.80,A,3348.1160,S,15051.7111,E,115.7,274.4,010126,,*34
$GNGGA,000030.90,3348.1191,S,15051.7117,E,4,18,0.6,30.0,M,46.9,M,,*53
$GNRMC,000030.90,A,3348.1191,S,15051.7117,E,115.7,283.2,010126,,*33
$GNGGA,000031.00,3348.1223,S,15051.7126,E,4,18,0.6,30.0,M,46.9,M,,*53
$GNRMC,000031.00,A,3348.1223,S,15051.7126,E,115.8,283.2,010126,,*3C
$GNGGA,000031.10,3348.1254,S,15051.7134,E,4,18,0.6,30.0,M,46.9,M,,*51
$GNRMC,000031.10,A,3348.1254,S,15051.7134,E,115.8,283.2,010126,,*3E
$GNGGA,000031.20,3348.1285,S,15051.7143,E,4,18,0.6,30.0,M,46.9,M,,*5E
$GNRMC,000031.20,A,3348.1285,S,15051.7143,E,115.9,283.2,010126,,*30
$GNGGA,000031.30,3348.1316,S,15051.7155,E,4,18,0.6,30.0,M,46.9,M,,*53
$GNRMC,000031.30,A,3348.1316,S,15051.7155,E,115.9,291.4,010126,,*38
$GNGGA,000031.40,3348.1346,S,15051.7169,E,4,18,0.6,30.0,M,46.9,M,,*5E
$GNRMC,000031.40,A,3348.1346,S,15051.7169,E,116.0,291.4,010126,,*3F
$GNGGA,000031.50,3348.1376,S,15051.7183,E,4,18,0.6,30.0,M,46.9,M,,*58
$GNRMC,000031.50,A,3348.1376,S,15051.7183,E,116.0,291.4,010126,,*39
$GNGGA,000031.60,3348.1406,S,15051.7197,E,4,18,0.6,30.0,M,46.9,M,,*5E
$GNRMC,000031.60,A,3348.1406,S,15051.7197,E,116.1,291.4,010126,,*3E
$GNGGA,000031.70,3348.1435,S,15051.7214,E,4,18,0.6,30.0,M,46.9,M,,*57
$GNRMC,000031.70,A,3348.1435,S,15051.7214,E,116.2,299.0,010126,,*38
$GNGGA,000031.80,3348.1463,S,15051.7233,E,4,18,0.6,30.0,M,46.9,M,,*5E
$GNRMC,000031.80,A,3348.1463,S,15051.7233,E,116.2,299.0,010126,,*31
$GNGGA,000031.90,3348.1491,S,15051.7251,E,4,18,0.6,30.0,M,46.9,M,,*56
$GNRMC,000031.90,A,3348.1491,S,15051.7251,E,116.3,299.0,010126,,*38
$GNGGA,000032.00,3348.1520,S,15051.7270,E,4,18,0.6,30.0,M,46.9,M,,*54
$GNRMC,000032.00,A,3348.1520,S,15051.7270,E,116.3,299.0,010126,,*3A
$GNGGA,000032.10,3348.1547,S,15051.7290,E,4,18,0.6,30.0,M,46.9,M,,*5A
$GNRMC,000032.10,A,3348.1547,S,15051.7290,E,116.4,305.8,010126,,*3F
$GNGGA,000032.20,3348.1574,S,15051.7313,E,4,18,0.6,30.0,M,46.9,M,,*53
$GNRMC,000032.20,A,3348.1574,S,15051.7313,E,116.4,305.8,010126,,*36
$GNGGA,000032.30,3348.1600,S,15051.7335,E,4,18,0.6,30.0,M,46.9,M,,*56
$GNRMC,000032.30,A,3348.1600,S,15051.7335,E,116.5,305.8,010126,,*32
$GNGGA,000032.40,3348.1626,S,15051.7358,E,4,18,0.6,30.0,M,46.9,M,,*5E
$GNRMC,000032.40,A,3348.1626,S,15051.7358,E,116.5,305.8,010126,,*3A
$GNGGA,000032.50,3348.1652,S,15051.7381,E,4,18,0.6,30.0,M,46.9,M,,*58
$GNRMC,000032.50,A,3348.1652,S,15051.7381,E,116.6,305.8,010126,,*3F
$GNGGA,000032.60,3348.1677,S,15051.7406,E,4,18,0.6,30.0,M,46.9,M,,*54
$GNRMC,000032.60,A,3348.1677,S,15051.7406,E,116.6,311.8,010126,,*36
$GNGGA,000032.70,3348.1701,S,15051.7432,E,4,18,0.6,30.0,M,46.9,M,,*52
$GNRMC,000032.70,A,3348.1701,S,15051.7432,E,116.7,311.8,010126,,*31
$GNGGA,000032.80,3348.1726,S,15051.7458,E,4,18,0.6,30.0,M,46.9,M,,*54
$GNRMC,000032.80,A,3348.1726,S,15051.7458,E,116.7,311.8,010126,,*37
$GNGGA,000032.90,3348.1750,S,15051.7484,E,4,18,0.6,30.0,M,46.9,M,,*55
$GNRMC,000032.90,A,3348.1750,S,15051.7484,E,116.8,311.8,010126,,*39
$GNGGA,000033.00,3348.1774,S,15051.7510,E,4,18,0.6,30.0,M,46.9,M,,*57
$GNRMC,000033.00,A,3348.1774,S,15051.7510,E,116.8,311.8,010126,,*3B
$GNGGA,000033.10,3348.1796,S,15051.7538,E,4,18,0.6,30.0,M,46.9,M,,*50
$GNRMC,000033.10,A,3348.1796,S,15051.7538,E,116.9,317.1,010126,,*32
$GNGGA,000033.20,3348.1818,S,15051.7566,E,4,18,0.6,30.0,M,46.9,M,,*51
$GNRMC,000033.20,A,3348.1818,S,15051.7566,E,116.9,317.1,010126,,*33
$GNGGA,000033.30,3348.1841,S,15051.7595,E,4,18,0.6,30.0,M,46.9,M,,*50
$GNRMC,000033.30,A,3348.1841,S,15051.7595,E,117.0,317.1,010126,,*3A
$GNGGA,000033.40,3348.1863,S,15051.7623,E,4,18,0.6,30.0,M,46.9,M,,*59
$GNRMC,000033.40,A,3348.1863,S,15051.7623,E,117.0,317.1,010126,,*33
$GNGGA,000033.50,3348.1885,S,15051.7652,E,4,18,0.6,30.0,M,46.9,M,,*56
$GNRMC,000033.50,A,3348.1885,S,15051.7652,E,117.1,317.1,010126,,*3D
$GNGGA,000033.60,3348.1905,S,15051.7682,E,4,18,0.6,30.0,M,46.9,M,,*51
$GNRMC,000033.60,A,3348.1905,S,15051.7682,E,117.1,321.8,010126,,*36
$GNGGA,000033.70,3348.1926,S,15051.7713,E,4,18,0.6,30.0,M,46.9,M,,*58
$GNRMC,000033.70,A,3348.1926,S,15051.7713,E,117.2,321.8,010126,,*3C
$GNGGA,000033.80,3348.1946,S,15051.7744,E,4,18,0.6,30.0,M,46.9,M,,*53
$GNRMC,000033.80,A,3348.1946,S,15051.7744,E,117.2,321.8,010126,,*37
$GNGGA,000033.90,3348.1966,S,15051.7774,E,4,18,0.6,30.0,M,46.9,M,,*53
$GNRMC,000033.90,A,3348.1966,S,15051.7774,E,117.3,321.8,010126,,*36
$GNGGA,000034.00,3348.1986,S,15051.7805,E,4,18,0.6,30.0,M,46.9,M,,*5A
$GNRMC,000034.00,A,3348.1986,S,15051.7805,E,117.3,321.8,010126,,*3F
$GNGGA,000034.10,3348.2006,S,15051.7836,E,4,18,0.6,30.0,M,46.9,M,,*59
$GNRMC,000034.10,A,3348.2006,S,15051.7836,E,117.4,325.9,010126,,*3E
$GNGGA,000034.20,3348.2024,S,15051.7869,E,4,18,0.6,30.0,M,46.9,M,,*50
$GNRMC,000034.20,A,3348.2024,S,15051.7869,E,117.4,325.9,010126,,*37
$GNGGA,000034.30,3348.2042,S,15051.7901,E,4,18,0.6,30.0,M,46.9,M,,*5E
$GNRMC,000034.30,A,3348.2042,S,15051.7901,E,117.4,325.9,010126,,*39
$GNGGA,000034.40,3348.2061,S,15051.7934,E,4,18,0.6,30.0,M,46.9,M,,*5E
$GNRMC,000034.40,A,3348.2061,S,15051.7934,E,117.5,325.9,010126,,*38
$GNGGA,000034.50,3348.2079,S,15051.7966,E,4,18,0.6,30.0,M,46.9,M,,*51
$GNRMC,000034.50,A,3348.2079,S,15051.7966,E,117.5,325.9,010126,,*37
$GNGGA,000034.60,3348.2097,S,15051.7999,E,4,18,0.6,30.0,M,46.9,M,,*52
$GNRMC,000034.60,A,3348.2097,S,15051.7999,E,117.6,325.9,010126,,*37
$GNGGA,000034.70,3348.2115,S,15051.8032,E,4,18,0.6,30.0,M,46.9,M,,*5F
$GNRMC,000034.70,A,3348.2115,S,15051.8032,E,117.6,329.6,010126,,*39
$GNGGA,000034.80,3348.2131,S,15051.8066,E,4,18,0.6,30.0,M,46.9,M,,*57
$GNRMC,000034.80,A,3348.2131,S,15051.8066,E,117.6,329.6,010126,,*31
$GNGGA,000034.90,3348.2148,S,15051.8100,E,4,18,0.6,30.0,M,46.9,M,,*59
$GNRMC,000034.90,A,3348.2148,S,15051.8100,E,117.7,329.6,010126,,*3E
$GNGGA,000035.00,3348.2164,S,15051.8134,E,4,18,0.6,30.0,M,46.9,M,,*58
$GNRMC,000035.00,A,3348.2164,S,15051.8134,E,117.7,329.6,010126,,*3F
$GNGGA,000035.10,3348.2181,S,15051.8167,E,4,18,0.6,30.0,M,46.9,M,,*54
$GNRMC,000035.10,A,3348.2181,S,15051.8167,E,117.7,329.6,010126,,*33
$GNGGA,000035.20,3348.2197,S,15051.8201,E,4,18,0.6,30.0,M,46.9,M,,*53
$GNRMC,000035.20,A,3348.2197,S,15051.8201,E,117.8,329.6,010126,,*3B
$GNGGA,000035.30,3348.2213,S,15051.8236,E,4,18,0.6,30.0,M,46.9,M,,*59
$GNRMC,000035.30,A,3348.2213,S,15051.8236,E,117.8,332.8,010126,,*35
$GNGGA,000035.40,3348.2228,S,15051.8271,E,4,18,0.6,30.0,M,46.9,M,,*55
$GNRMC,000035.40,A,3348.2228,S,15051.8271,E,117.8,332.8,010126,,*39
$GNGGA,000035.50,3348.2243,S,15051.8306,E,4,18,0.6,30.0,M,46.9,M,,*58
$GNRMC,000035.50,A,3348.2243,S,15051.8306,E,117.9,332.8,010126,,*35
$GNGGA,000035.60,3348.2258,S,15051.8341,E,4,18,0.6,30.0,M,46.9,M,,*52
$GNRMC,000035.60,A,3348.2258,S,15051.8341,E,117.9,332.8,010126,,*3F
$GNGGA,000035.70,3348.2273,S,15051.8376,E,4,18,0.6,30.0,M,46.9,M,,*5E
$GNRMC,000035.70,A,3348.2273,S,15051.8376,E,117.9,332.8,010126,,*33
$GNGGA,000035.80,3348.2288,S,15051.8411,E,4,18,0.6,30.0,M,46.9,M,,*53
$GNRMC,000035.80,A,3348.2288,S,15051.8411,E,118.0,332.8,010126,,*38
$GNGGA,000035.90,3348.2303,S,15051.8446,E,4,18,0.6,30.0,M,46.9,M,,*52
$GNRMC,000035.90,A,3348.2303,S,15051.8446,E,118.0,332.8,010126,,*39
$GNGGA,000036.00,3348.2317,S,15051.8482,E,4,18,0.6,30.0,M,46.9,M,,*55
$GNRMC,000036.00,A,3348.2317,S,15051.8482,E,118.0,335.8,010126,,*39
$GNGGA,000036.10,3348.2330,S,15051.8518,E,4,18,0.6,30.0,M,46.9,M,,*53
$GNRMC,000036.10,A,3348.2330,S,15051.8518,E,118.1,335.8,010126,,*3E
$GNGGA,000036.20,3348.2344,S,15051.8554,E,4,18,0.6,30.0,M,46.9,M,,*5B
$GNRMC,000036.20,A,3348.2344,S,15051.8554,E,118.1,335.8,010126,,*36
$GNGGA,000036.30,3348.2357,S,15051.8590,E,4,18,0.6,30.0,M,46.9,M,,*50
$GNRMC,000036.30,A,3348.2357,S,15051.8590,E,118.1,335.8,010126,,*3D
$GNGGA,000036.40,3348.2370,S,15051.8626,E,4,18,0.6,30.0,M,46.9,M,,*5C
$GNRMC,000036.40,A,3348.2370,S,15051.8626,E,118.1,335.8,010126,,*31
$GNGGA,000036.50,3348.2384,S,15051.8662,E,4,18,0.6,30.0,M,46.9,M,,*56
$GNRMC,000036.50,A,3348.2384,S,15051.8662,E,118.2,335.8,010126,,*38
$GNGGA,000036.60,3348.2397,S,15051.8698,E,4,18,0.6,30.0,M,46.9,M,,*52
$GNRMC,000036.60,A,3348.2397,S,15051.8698,E,118.2,338.5,010126,,*3C
$GNGGA,000036.70,3348.2409,S,15051.8734,E,4,18,0.6,30.0,M,46.9,M,,*54
$GNRMC,000036.70,A,3348.2409,S,15051.8734,E,118.2,338.5,010126,,*3A
$GNGGA,000036.80,3348.2421,S,15051.8771,E,4,18,0.6,30.0,M,46.9,M,,*50
$GNRMC,000036.80,A,3348.2421,S,15051.8771,E,118.2,338.5,010126,,*3E
$GNGGA,000036.90,3348.2433,S,15051.8808,E,4,18,0.6,30.0,M,46.9,M,,*53
$GNRMC,000036.90,A,3348.2433,S,15051.8808,E,118.2,338.5,010126,,*3D
$GNGGA,000037.00,3348.2445,S,15051.8845,E,4,18,0.6,30.0,M,46.9,M,,*53
$GNRMC,000037.00,A,3348.2445,S,15051.8845,E,118.3,338.5,010126,,*3C
$GNGGA,000037.10,3348.2457,S,15051.8881,E,4,18,0.6,30.0,M,46.9,M,,*59
$GNRMC,000037.10,A,3348.2457,S,15051.8881,E,118.3,338.5,010126,,*36
$GNGGA,000037.20,3348.2469,S,15051.8918,E,4,18,0.6,30.0,M,46.9,M,,*56
$GNRMC,000037.20,A,3348.2469,S,15051.8918,E,118.3,338.5,010126,,*39
$GNGGA,000037.30,3348.2481,S,15051.8955,E,4,18,0.6,30.0,M,46.9,M,,*58
$GNRMC,000037.30,A,3348.2481,S,15051.8955,E,118.3,340.9,010126,,*34
$GNGGA,000037.40,3348.2492,S,15051.8992,E,4,18,0.6,30.0,M,46.9,M,,*56
$GNRMC,000037.40,A,3348.2492,S,15051.8992,E,118.3,340.9,010126,,*3A
$GNGGA,000037.50,3348.2503,S,15051.9030,E,4,18,0.6,30.0,M,46.9,M,,*5E
$GNRMC,000037.50,A,3348.2503,S,15051.9030,E,118.3,340.9,010126,,*32
$GNGGA,000037.60,3348.2514,S,15051.9067,E,4,18,0.6,30.0,M,46.9,M,,*59
$GNRMC,000037.60,A,3348.2514,S,15051.9067,E,118.3,340.9,010126,,*35
$GNGGA,000037.70,3348.2524,S,15051.9104,E,4,18,0.6,30.0,M,46.9,M,,*5F
$GNRMC,000037.70,A,3348.2524,S,15051.9104,E,118.3,340.9,010126,,*33
$GNGGA,000037.80,3348.2535,S,15051.9142,E,4,18,0.6,30.0,M,46.9,M,,*52
$GNRMC,000037.80,A,3348.2535,S,15051.9142,E,118.4,340.9,010126,,*39
$GNGGA,000037.90,3348.2546,S,15051.9179,E,4,18,0.6,30.0,M,46.9,M,,*5F
$GNRMC,000037.90,A,3348.2546,S,15051.9179,E,118.4,340.9,010126,,*34
$GNGGA,000038.00,3348.2556,S,15051.9216,E,4,18,0.6,30.0,M,46.9,M,,*52
$GNRMC,000038.00,A,3348.2556,S,15051.9216,E,118.4,340.9,010126,,*39
$GNGGA,000038.10,3348.2566,S,15051.9254,E,4,18,0.6,30.0,M,46.9,M,,*56
$GNRMC,000038.10,A,3348.2566,S,15051.9254,E,118.4,343.2,010126,,*35
$GNGGA,000038.20,3348.2576,S,15051.9292,E,4,18,0.6,30.0,M,46.9,M,,*5E
$GNRMC,000038.20,A,3348.2576,S,15051.9292,E,118.4,343.2,010126,,*3D
$GNGGA,000038.30,3348.2585,S,15051.9330,E,4,18,0.6,30.0,M,46.9,M,,*5A
$GNRMC,000038.30,A,3348.2585,S,15051.9330,E,118.4,343.2,010126,,*39
$GNGGA,000038.40,3348.2595,S,15051.9368,E,4,18,0.6,30.0,M,46.9,M,,*51
$GNRMC,000038.40,A,3348.2595,S,15051.9368,E,118.4,343.2,010126,,*32
$GNGGA,000038.50,3348.2604,S,15051.9406,E,4,18,0.6,30.0,M,46.9,M,,*54
$GNRMC,000038.50,A,3348.2604,S,15051.9406,E,118.4,343.2,010126,,*37
$GNGGA,000038.60,3348.2614,S,15051.9443,E,4,18,0.6,30.0,M,46.9,M,,*57
$GNRMC,000038.60,A,3348.2614,S,15051.9443,E,118.4,343.2,010126,,*34
$GNGGA,000038.70,3348.2623,S,15051.9481,E,4,18,0.6,30.0,M,46.9,M,,*5C
$GNRMC,000038.70,A,3348.2623,S,15051.9481,E,118.4,343.2,010126,,*3F
$GNGGA,000038.80,3348.2633,S,15051.9519,E,4,18,0.6,30.0,M,46.9,M,,*52
$GNRMC,000038.80,A,3348.2633,S,15051.9519,E,118.4,345.3,010126,,*36
$GNGGA,000038.90,3348.2641,S,15051.9557,E,4,18,0.6,30.0,M,46.9,M,,*5C
$GNRMC,000038.90,A,3348.2641,S,15051.9557,E,118.4,345.3,010126,,*38
$GNGGA,000039.00,3348.2649,S,15051.9596,E,4,18,0.6,30.0,M,46.9,M,,*51
$GNRMC,000039.00,A,3348.2649,S,15051.9596,E,118.4,345.3,010126,,*35
$GNGGA,000039.10,3348.2658,S,15051.9634,E,4,18,0.6,30.0,M,46.9,M,,*5B
$GNRMC,000039.10,A,3348.2658,S,15051.9634,E,118.4,345.3,010126,,*3F
$GNGGA,000039.20,3348.2666,S,15051.9672,E,4,18,0.6,30.0,M,46.9,M,,*57
$GNRMC,000039.20,A,3348.2666,S,15051.9672,E,118.4,345.3,010126,,*33
$GNGGA,000039.30,3348.2674,S,15051.9710,E,4,18,0.6,30.0,M,46.9,M,,*50
$GNRMC,000039.30,A,3348.2674,S,15051.9710,E,118.3,345.3,010126,,*33
$GNGGA,000039.40,3348.2683,S,15051.9749,E,4,18,0.6,30.0,M,46.9,M,,*53
$GNRMC,000039.40,A,3348.2683,S,15051.9749,E,118.3,345.3,010126,,*30
$GNGGA,000039.50,3348.2691,S,15051.9787,E,4,18,0.6,30.0,M,46.9,M,,*53
$GNRMC,000039.50,A,3348.2691,S,15051.9787,E,118.3,345.3,010126,,*30
$GNGGA,000039.60,3348.2699,S,15051.9825,E,4,18,0.6,30.0,M,46.9,M,,*5F
$GNRMC,000039.60,A,3348.2699,S,15051.9825,E,118.3,347.3,010126,,*3E
$GNGGA,000039.70,3348.2706,S,15051.9864,E,4,18,0.6,30.0,M,46.9,M,,*5C
$GNRMC,000039.70,A,3348.2706,S,15051.9864,E,118.3,347.3,010126,,*3D
$GNGGA,000039.80,3348.2714,S,15051.9902,E,4,18,0.6,30.0,M,46.9,M,,*51
$GNRMC,000039.80,A,3348.2714,S,15051.9902,E,118.3,347.3,010126,,*30
$GNGGA,000039.90,3348.2721,S,15051.9941,E,4,18,0.6,30.0,M,46.9,M,,*51
$GNRMC,000039.90,A,3348.2721,S,15051.9941,E,118.3,347.3,010126,,*30
$GNGGA,000040.00,3348.2728,S,15051.9979,E,4,18,0.6,30.0,M,46.9,M,,*54
$GNRMC,000040.00,A,3348.2728,S,15051.9979,E,118.3,347.3,010126,,*35
$GNGGA,000040.10,3348.2735,S,15052.0018,E,4,18,0.6,30.0,M,46.9,M,,*5D
$GNRMC,000040.10,A,3348.2735,S,15052.0018,E,118.2,347.3,010126,,*3D
$GNGGA,000040.20,3348.2742,S,15052.0056,E,4,18,0.6,30.0,M,46.9,M,,*54
$GNRMC,000040.20,A,3348.2742,S,15052.0056,E,118.2,347.3,010126,,*34
$GNGGA,000040.30,3348.2750,S,15052.0095,E,4,18,0.6,30.0,M,46.9,M,,*59
$GNRMC,000040.30,A,3348.2750,S,15052.0095,E,118.2,347.3,010126,,*39
$GNGGA,000040.40,3348.2757,S,15052.0134,E,4,18,0.6,30.0,M,46.9,M,,*53
$GNRMC,000040.40,A,3348.2757,S,15052.0134,E,118.2,347.3,010126,,*33
$GNGGA,000040.50,3348.2763,S,15052.0172,E,4,18,0.6,30.0,M,46.9,M,,*57
$GNRMC,000040.50,A,3348.2763,S,15052.0172,E,118.2,349.2,010126,,*38
$GNGGA,000040.60,3348.2769,S,15052.0211,E,4,18,0.6,30.0,M,46.9,M,,*58
$GNRMC,000040.60,A,3348.2769,S,15052.0211,E,118.1,349.2,010126,,*34
$GNGGA,000040.70,3348.2775,S,15052.0250,E,4,18,0.6,30.0,M,46.9,M,,*51
$GNRMC,000040.70,A,3348.2775,S,15052.0250,E,118.1,349.2,010126,,*3D
$GNGGA,000040.80,3348.2781,S,15052.0289,E,4,18,0.6,30.0,M,46.9,M,,*51
$GNRMC,000040.80,A,3348.2781,S,15052.0289,E,118.1,349.2,010126,,*3D
$GNGGA,000040.90,3348.2788,S,15052.0327,E,4,18,0.6,30.0,M,46.9,M,,*5C
$GNRMC,000040.90,A,3348.2788,S,15052.0327,E,118.1,349.2,010126,,*30
$GNGGA,000041.00,3348.2794,S,15052.0366,E,4,18,0.6,30.0,M,46.9,M,,*5C
$GNRMC,000041.00,A,3348.2794,S,15052.0366,E,118.0,349.2,010126,,*31
$GNGGA,000041.10,3348.2800,S,15052.0405,E,4,18,0.6,30.0,M,46.9,M,,*5D
$GNRMC,000041.10,A,3348.2800,S,15052.0405,E,118.0,349.2,010126,,*30
$GNGGA,000041.20,3348.2806,S,15052.0444,E,4,18,0.6,30.0,M,46.9,M,,*5D
$GNRMC,000041.20,A,3348.2806,S,15052.0444,E,118.0,349.2,010126,,*30
$GNGGA,000041.30,3348.2812,S,15052.0482,E,4,18,0.6,30.0,M,46.9,M,,*53
$GNRMC,000041.30,A,3348.2812,S,15052.0482,E,118.0,351.0,010126,,*35
$GNGGA,000041.40,3348.2817,S,15052.0521,E,4,18,0.6,30.0,M,46.9,M,,*59
$GNRMC,000041.40,A,3348.2817,S,15052.0521,E,117.9,351.0,010126,,*39
$GNGGA,000041.50,3348.2822,S,15052.0560,E,4,18,0.6,30.0,M,46.9,M,,*5B
$GNRMC,000041.50,A,3348.2822,S,15052.0560,E,117.9,351.0,010126,,*3B
$GNGGA,000041.60,3348.2827,S,15052.0599,E,4,18,0.6,30.0,M,46.9,M,,*5B
$GNRMC,000041.60,A,3348.2827,S,15052.0599,E,117.9,351.0,010126,,*3B
$GNGGA,000041.70,3348.2832,S,15052.0638,E,4,18,0.6,30.0,M,46.9,M,,*56
$GNRMC,000041.70,A,3348.2832,S,15052.0638,E,117.8,351.0,010126,,*37
$GNGGA,000041.80,3348.2837,S,15052.0677,E,4,18,0.6,30.0,M,46.9,M,,*57
$GNRMC,000041.80,A,3348.2837,S,15052.0677,E,117.8,351.0,010126,,*36
$GNGGA,000041.90,3348.2842,S,15052.0716,E,4,18,0.6,30.0,M,46.9,M,,*52
$GNRMC,000041.90,A,3348.2842,S,15052.0716,E,117.8,351.0,010126,,*33
$GNGGA,000042.00,3348.2847,S,15052.0755,E,4,18,0.6,30.0,M,46.9,M,,*5A
$GNRMC,000042.00,A,3348.2847,S,15052.0755,E,117.7,351.0,010126,,*34
$GNGGA,000042.10,3348.2852,S,15052.0793,E,4,18,0.6,30.0,M,46.9,M,,*55
$GNRMC,000042.10,A,3348.2852,S,15052.0793,E,117.7,352.7,010126,,*3F
$GNGGA,000042.20,3348.2857,S,15052.0832,E,4,18,0.6,30.0,M,46.9,M,,*57
$GNRMC,000042.20,A,3348.2857,S,15052.0832,E,117.7,352.7,010126,,*3D
$GNGGA,000042.30,3348.2861,S,15052.0871,E,4,18,0.6,30.0,M,46.9,M,,*54
$GNRMC,000042.30,A,3348.2861,S,15052.0871,E,117.6,352.7,010126,,*3F
$GNGGA,000042.40,3348.2865,S,15052.0910,E,4,18,0.6,30.0,M,46.9,M,,*51
$GNRMC,000042.40,A,3348.2865,S,15052.0910,E,117.6,352.7,010126,,*3A
$GNGGA,000042.50,3348.2869,S,15052.0949,E,4,18,0.6,30.0,M,46.9,M,,*50
$GNRMC,000042.50,A,3348.2869,S,15052.0949,E,117.5,352.7,010126,,*38
$GNGGA,000042.60,3348.2873,S,15052.0988,E,4,18,0.6,30.0,M,46.9,M,,*55
$GNRMC,000042.60,A,3348.2873,S,15052.0988,E,117.5,352.7,010126,,*3D
$GNGGA,000042.70,3348.2877,S,15052.1027,E,4,18,0.6,30.0,M,46.9,M,,*5D
$GNRMC,000042.70,A,3348.2877,S,15052.1027,E,117.5,352.7,010126,,*35
$GNGGA,000042.80,3348.2881,S,15052.1066,E,4,18,0.6,30.0,M,46.9,M,,*5E
$GNRMC,000042.80,A,3348.2881,S,15052.1066,E,117.4,352.7,010126,,*37
$GNGGA,000042.90,3348.2886,S,15052.1105,E,4,18,0.6,30.0,M,46.9,M,,*5C
$GNRMC,000042.90,A,3348.2886,S,15052.1105,E,117.4,352.7,010126,,*35
$GNGGA,000043.00,3348.2889,S,15052.1144,E,4,18,0.6,30.0,M,46.9,M,,*5E
$GNRMC,000043.00,A,3348.2889,S,15052.1144,E,117.3,354.4,010126,,*35
$GNGGA,000043.10,3348.2893,S,15052.1183,E,4,18,0.6,30.0,M,46.9,M,,*5F
$GNRMC,000043.10,A,3348.2893,S,15052.1183,E,117.3,354.4,010126,,*34
$GNGGA,000043.20,3348.2896,S,15052.1222,E,4,18,0.6,30.0,M,46.9,M,,*51
$GNRMC,000043.20,A,3348.2896,S,15052.1222,E,117.2,354.4,010126,,*3B
$GNGGA,000043.30,3348.2899,S,15052.1261,E,4,18,0.6,30.0,M,46.9,M,,*58
$GNRMC,000043.30,A,3348.2899,S,15052.1261,E,117.2,354.4,010126,,*32
$GNGGA,000043.40,3348.2902,S,15052.1300,E,4,18,0.6,30.0,M,46.9,M,,*5A
$GNRMC,000043.40,A,3348.2902,S,15052.1300,E,117.2,354.4,010126,,*30
$GNGGA,000043.50,3348.2905,S,15052.1339,E,4,18,0.6,30.0,M,46.9,M,,*56
$GNRMC,000043.50,A,3348.2905,S,15052.1339,E,117.1,354.4,010126,,*3F
$GNGGA,000043.60,3348.2908,S,15052.1378,E,4,18,0.6,30.0,M,46.9,M,,*5D
$GNRMC,000043.60,A,3348.2908,S,15052.1378,E,117.1,354.4,010126,,*34
$GNGGA,000043.70,3348.2912,S,15052.1417,E,4,18,0.6,30.0,M,46.9,M,,*59
$GNRMC,000043.70,A,3348.2912,S,15052.1417,E,117.0,354.4,010126,,*31
$GNGGA,000043.80,3348.2915,S,15052.1456,E,4,18,0.6,30.0,M,46.9,M,,*54
$GNRMC,000043.80,A,3348.2915,S,15052.1456,E,117.0,354.4,010126,,*3C
$GNGGA,000043.90,3348.2918,S,15052.1495,E,4,18,0.6,30.0,M,46.9,M,,*57
$GNRMC,000043.90,A,3348.2918,S,15052.1495,E,116.9,356.0,010126,,*31
$GNGGA,000044.00,3348.2920,S,15052.1534,E,4,18,0.6,30.0,M,46.9,M,,*58
$GNRMC,000044.00,A,3348.2920,S,15052.1534,E,116.9,356.0,010126,,*3E
$GNGGA,000044.10,3348.2922,S,15052.1573,E,4,18,0.6,30.0,M,46.9,M,,*58
$GNRMC,000044.10,A,3348.2922,S,15052.1573,E,116.8,356.0,010126,,*3F
$GNGGA,000044.20,3348.2924,S,15052.1611,E,4,18,0.6,30.0,M,46.9,M,,*5A
$GNRMC,000044.20,A,3348.2924,S,15052.1611,E,116.8,356.0,010126,,*3D
$GNGGA,000044.30,3348.2927,S,15052.1650,E,4,18,0.6,30.0,M,46.9,M,,*5D
$GNRMC,000044.30,A,3348.2927,S,15052.1650,E,116.7,356.0,010126,,*35
$GNGGA,000044.40,3348.2929,S,15052.1689,E,4,18,0.6,30.0,M,46.9,M,,*50
$GNRMC,000044.40,A,3348.2929,S,15052.1689,E,116.7,356.0,010126,,*38
$GNGGA,000044.50,3348.2931,S,15052.1728,E,4,18,0.6,30.0,M,46.9,M,,*52
$GNRMC,000044.50,A,3348.2931,S,15052.1728,E,116.6,356.0,010126,,*3B
$GNGGA,000044.60,3348.2933,S,15052.1767,E,4,18,0.6,30.0,M,46.9,M,,*58
$GNRMC,000044.60,A,3348.2933,S,15052.1767,E,116.6,356.0,010126,,*31
$GNGGA,000044.70,3348.2936,S,15052.1806,E,4,18,0.6,30.0,M,46.9,M,,*54
$GNRMC,000044.70,A,3348.2936,S,15052.1806,E,116.5,356.0,010126,,*3E
$GNGGA,000044.80,3348.2937,S,15052.1845,E,4,18,0.6,30.0,M,46.9,M,,*5D
$GNRMC,000044.80,A,3348.2937,S,15052.1845,E,116.5,357.6,010126,,*30
$GNGGA,000044.90,3348.2939,S,15052.1884,E,4,18,0.6,30.0,M,46.9,M,,*5F
$GNRMC,000044.90,A,3348.2939,S,15052.1884,E,116.4,357.6,010126,,*33
$GNGGA,000045.00,3348.2940,S,15052.1922,E,4,18,0.6,30.0,M,46.9,M,,*54
$GNRMC,000045.00,A,3348.2940,S,15052.1922,E,116.3,357.6,010126,,*3F
$GNGGA,000045.10,3348.2941,S,15052.1961,E,4,18,0.6,30.0,M,46.9,M,,*53
$GNRMC,000045.10,A,3348.2941,S,15052.1961,E,116.3,357.6,010126,,*38
$GNGGA,000045.20,3348.2943,S,15052.2000,E,4,18,0.6,30.0,M,46.9,M,,*5F
$GNRMC,000045.20,A,3348.2943,S,15052.2000,E,116.2,357.6,010126,,*35
$GNGGA,000045.30,3348.2944,S,15052.2039,E,4,18,0.6,30.0,M,46.9,M,,*53
$GNRMC,000045.30,A,3348.2944,S,15052.2039,E,116.2,357.6,010126,,*39
$GNGGA,000045.40,3348.2945,S,15052.2078,E,4,18,0.6,30.0,M,46.9,M,,*50
$GNRMC,000045.40,A,3348.2945,S,15052.2078,E,116.1,357.6,010126,,*39
$GNGGA,000045.50,3348.2947,S,15052.2116,E,4,18,0.6,30.0,M,46.9,M,,*5A
$GNRMC,000045.50,A,3348.2947,S,15052.2116,E,116.1,357.6,010126,,*33
$GNGGA,000045.60,3348.2948,S,15052.2155,E,4,18,0.6,30.0,M,46.9,M,,*51
$GNRMC,000045.60,A,3348.2948,S,15052.2155,E,116.0,357.6,010126,,*39
$GNGGA,000045.70,3348.2949,S,15052.2194,E,4,18,0.6,30.0,M,46.9,M,,*5C
$GNRMC,000045.70,A,3348.2949,S,15052.2194,E,116.0,359.2,010126,,*3E
$GNGGA,000045.80,3348.2950,S,15052.2233,E,4,18,0.6,30.0,M,46.9,M,,*55
$GNRMC,000045.80,A,3348.2950,S,15052.2233,E,115.9,359.2,010126,,*3D
$GNGGA,000045.90,3348.2950,S,15052.2271,E,4,18,0.6,30.0,M,46.9,M,,*52
$GNRMC,000045.90,A,3348.2950,S,15052.2271,E,115.9,359.2,010126,,*3A
$GNGGA,000046.00,3348.2951,S,15052.2310,E,4,18,0.6,30.0,M,46.9,M,,*5F
$GNRMC,000046.00,A,3348.2951,S,15052.2310,E,115.8,359.2,010126,,*36
$GNGGA,000046.10,3348.2951,S,15052.2349,E,4,18,0.6,30.0,M,46.9,M,,*52
$GNRMC,000046.10,A,3348.2951,S,15052.2349,E,115.7,359.2,010126,,*34
$GNGGA,000046.20,3348.2951,S,15052.2387,E,4,18,0.6,30.0,M,46.9,M,,*53
$GNRMC,000046.20,A,3348.2951,S,15052.2387,E,115.7,359.2,010126,,*35
$GNGGA,000046.30,3348.2952,S,15052.2426,E,4,18,0.6,30.0,M,46.9,M,,*5D
$GNRMC,000046.30,A,3348.2952,S,15052.2426,E,115.6,359.2,010126,,*3A
$GNGGA,000046.40,3348.2952,S,15052.2465,E,4,18,0.6,30.0,M,46.9,M,,*5D
$GNRMC,000046.40,A,3348.2952,S,15052.2465,E,115.6,359.2,010126,,*3A
$GNGGA,000046.50,3348.2953,S,15052.2503,E,4,18,0.6,30.0,M,46.9,M,,*5C
$GNRMC,000046.50,A,3348.2953,S,15052.2503,E,115.5,359.2,010126,,*38
$GNGGA,000046.60,3348.2953,S,15052.2542,E,4,18,0.6,30.0,M,46.9,M,,*5A
$GNRMC,000046.60,A,3348.2953,S,15052.2542,E,115.5,000.8,010126,,*3B
$GNGGA,000046.70,3348.2953,S,15052.2580,E,4,18,0.6,30.0,M,46.9,M,,*55
$GNRMC,000046.70,A,3348.2953,S,15052.2580,E,115.4,000.8,010126,,*35
$GNGGA,000046.80,3348.2952,S,15052.2619,E,4,18,0.6,30.0,M,46.9,M,,*58
$GNRMC,000046.80,A,3348.2952,S,15052.2619,E,115.4,000.8,010126,,*38
$GNGGA,000046.90,3348.2952,S,15052.2657,E,4,18,0.6,30.0,M,46.9,M,,*53
$GNRMC,000046.90,A,3348.2952,S,15052.2657,E,115.3,000.8,010126,,*34
$GNGGA,000047.00,3348.2951,S,15052.2696,E,4,18,0.6,30.0,M,46.9,M,,*55
$GNRMC,000047.00,A,3348.2951,S,15052.2696,E,115.2,000.8,010126,,*33
$GNGGA,000047.10,3348.2951,S,15052.2734,E,4,18,0.6,30.0,M,46.9,M,,*5D
$GNRMC,000047.10,A,3348.2951,S,15052.2734,E,115.2,000.8,010126,,*3B
$GNGGA,000047.20,3348.2951,S,15052.2773,E,4,18,0.6,30.0,M,46.9,M,,*5D
$GNRMC,000047.20,A,3348.2951,S,15052.2773,E,115.1,000.8,010126,,*38
$GNGGA,000047.30,3348.2950,S,15052.2811,E,4,18,0.6,30.0,M,46.9,M,,*56
$GNRMC,000047.30,A,3348.2950,S,15052.2811,E,115.1,000.8,010126,,*33
$GNGGA,000047.40,3348.2950,S,15052.2850,E,4,18,0.6,30.0,M,46.9,M,,*54
$GNRMC,000047.40,A,3348.2950,S,15052.2850,E,115.0,000.8,010126,,*30
$GNGGA,000047.50,3348.2949,S,15052.2888,E,4,18,0.6,30.0,M,46.9,M,,*58
$GNRMC,000047.50,A,3348.2949,S,15052.2888,E,115.0,000.8,010126,,*3C
$GNGGA,000047.60,3348.2948,S,15052.2927,E,4,18,0.6,30.0,M,46.9,M,,*5E
$GNRMC,000047.60,A,3348.2948,S,15052.2927,E,114.9,002.4,010126,,*3C
$GNGGA,000047.70,3348.2947,S,15052.2965,E,4,18,0.6,30.0,M,46.9,M,,*56
$GNRMC,000047.70,A,3348.2947,S,15052.2965,E,114.9,002.4,010126,,*34
$GNGGA,000047.80,3348.2945,S,15052.3003,E,4,18,0.6,30.0,M,46.9,M,,*53
$GNRMC,000047.80,A,3348.2945,S,15052.3003,E,114.8,002.4,010126,,*30
$GNGGA,000047.90,3348.2944,S,15052.3042,E,4,18,0.6,30.0,M,46.9,M,,*56
$GNRMC,000047.90,A,3348.2944,S,15052.3042,E,114.7,002.4,010126,,*3A
$GNGGA,000048.00,3348.2943,S,15052.3080,E,4,18,0.6,30.0,M,46.9,M,,*59
$GNRMC,000048.00,A,3348.2943,S,15052.3080,E,114.7,002.4,010126,,*35
$GNGGA,000048.10,3348.2942,S,15052.3118,E,4,18,0.6,30.0,M,46.9,M,,*59
$GNRMC,000048.10,A,3348.2942,S,15052.3118,E,114.6,002.4,010126,,*34
$GNGGA,000048.20,3348.2940,S,15052.3156,E,4,18,0.6,30.0,M,46.9,M,,*52
$GNRMC,000048.20,A,3348.2940,S,15052.3156,E,114.6,002.4,010126,,*3F
$GNGGA,000048.30,3348.2939,S,15052.3195,E,4,18,0.6,30.0,M,46.9,M,,*52
$GNRMC,000048.30,A,3348.2939,S,15052.3195,E,114.5,002.4,010126,,*3C
$GNGGA,000048.40,3348.2938,S,15052.3233,E,4,18,0.6,30.0,M,46.9,M,,*5B
$GNRMC,000048.40,A,3348.2938,S,15052.3233,E,114.5,002.4,010126,,*35
$GNGGA,000048.50,3348.2936,S,15052.3271,E,4,18,0.6,30.0,M,46.9,M,,*52
$GNRMC,000048.50,A,3348.2936,S,15052.3271,E,114.4,004.0,010126,,*3F
$GNGGA,000048.60,3348.2934,S,15052.3309,E,4,18,0.6,30.0,M,46.9,M,,*5D
$GNRMC,000048.60,A,3348.2934,S,15052.3309,E,114.4,004.0,010126,,*30
$GNGGA,000048.70,3348.2931,S,15052.3347,E,4,18,0.6,30.0,M,46.9,M,,*53
$GNRMC,000048.70,A,3348.2931,S,15052.3347,E,114.3,004.0,010126,,*39
$GNGGA,000048.80,3348.2929,S,15052.3385,E,4,18,0.6,30.0,M,46.9,M,,*5B
$GNRMC,000048.80,A,3348.2929,S,15052.3385,E,114.3,004.0,010126,,*31
$GNGGA,000048.90,3348.2927,S,15052.3424,E,4,18,0.6,30.0,M,46.9,M,,*58
$GNRMC,000048.90,A,3348.2927,S,15052.3424,E,114.2,004.0,010126,,*33
$GNGGA,000049.00,3348.2925,S,15052.3462,E,4,18,0.6,30.0,M,46.9,M,,*50
$GNRMC,000049.00,A,3348.2925,S,15052.3462,E,114.2,004.0,010126,,*3B
$GNGGA,000049.10,3348.2923,S,15052.3500,E,4,18,0.6,30.0,M,46.9,M,,*52
$GNRMC,000049.10,A,3348.2923,S,15052.3500,E,114.1,004.0,010126,,*3A
$GNGGA,000049.20,3348.2920,S,15052.3538,E,4,18,0.6,30.0,M,46.9,M,,*59
$GNRMC,000049.20,A,3348.2920,S,15052.3538,E,114.1,004.0,010126,,*31
$GNGGA,000049.30,3348.2918,S,15052.3576,E,4,18,0.6,30.0,M,46.9,M,,*59
$GNRMC,000049.30,A,3348.2918,S,15052.3576,E,114.0,004.0,010126,,*30
$GNGGA,000049.40,3348.2916,S,15052.3614,E,4,18,0.6,30.0,M,46.9,M,,*57
$GNRMC,000049.40,A,3348.2916,S,15052.3614,E,114.0,005.6,010126,,*39
$GNGGA,000049.50,3348.2913,S,15052.3652,E,4,18,0.6,30.0,M,46.9,M,,*51
$GNRMC,000049.50,A,3348.2913,S,15052.3652,E,113.9,005.6,010126,,*31
$GNGGA,000049.60,3348.2909,S,15052.3689,E,4,18,0.6,30.0,M,46.9,M,,*5F
$GNRMC,000049.60,A,3348.2909,S,15052.3689,E,113.9,005.6,010126,,*3F
$GNGGA,000049.70,3348.2906,S,15052.3727,E,4,18,0.6,30.0,M,46.9,M,,*54
$GNRMC,000049.70,A,3348.2906,S,15052.3727,E,113.8,005.6,010126,,*35
$GNGGA,000049.80,3348.2903,S,15052.3765,E,4,18,0.6,30.0,M,46.9,M,,*58
$GNRMC,000049.80,A,3348.2903,S,15052.3765,E,113.8,005.6,010126,,*39
$GNGGA,000049.90,3348.2900,S,15052.3803,E,4,18,0.6,30.0,M,46.9,M,,*55
$GNRMC,000049.90,A,3348.2900,S,15052.3803,E,113.8,005.6,010126,,*34
$GNGGA,000050.00,3348.2897,S,15052.3841,E,4,18,0.6,30.0,M,46.9,M,,*5D
$GNRMC,000050.00,A,3348.2897,S,15052.3841,E,113.7,005.6,010126,,*33
$GNGGA,000050.10,3348.2894,S,15052.3879,E,4,18,0.6,30.0,M,46.9,M,,*54
$GNRMC,000050.10,A,3348.2894,S,15052.3879,E,113.7,005.6,010126,,*3A
$GNGGA,000050.20,3348.2891,S,15052.3916,E,4,18,0.6,30.0,M,46.9,M,,*5A
$GNRMC,000050.20,A,3348.2891,S,15052.3916,E,113.6,005.6,010126,,*35
$GNGGA,000050.30,3348.2888,S,15052.3954,E,4,18,0.6,30.0,M,46.9,M,,*55
$GNRMC,000050.30,A,3348.2888,S,15052.3954,E,113.6,007.3,010126,,*3D
$GNGGA,000050.40,3348.2884,S,15052.3992,E,4,18,0.6,30.0,M,46.9,M,,*54
$GNRMC,000050.40,A,3348.2884,S,15052.3992,E,113.5,007.3,010126,,*3F
$GNGGA,000050.50,3348.2880,S,15052.4029,E,4,18,0.6,30.0,M,46.9,M,,*5F
$GNRMC,000050.50,A,3348.2880,S,15052.4029,E,113.5,007.3,010126,,*34
$GNGGA,000050.60,3348.2876,S,15052.4067,E,4,18,0.6,30.0,M,46.9,M,,*5F
$GNRMC,000050.60,A,3348.2876,S,15052.4067,E,113.5,007.3,010126,,*34
$GNGGA,000050.70,3348.2872,S,15052.4105,E,4,18,0.6,30.0,M,46.9,M,,*5F
$GNRMC,000050.70,A,3348.2872,S,15052.4105,E,113.4,007.3,010126,,*35
$GNGGA,000050.80,3348.2868,S,15052.4142,E,4,18,0.6,30.0,M,46.9,M,,*58
$GNRMC,000050.80,A,3348.2868,S,15052.4142,E,113.4,007.3,010126,,*32
$GNGGA,000050.90,3348.2864,S,15052.4180,E,4,18,0.6,30.0,M,46.9,M,,*5B
$GNRMC,000050.90,A,3348.2864,S,15052.4180,E,113.3,007.3,010126,,*36
$GNGGA,000051.00,3348.2860,S,15052.4217,E,4,18,0.6,30.0,M,46.9,M,,*5A
$GNRMC,000051.00,A,3348.2860,S,15052.4217,E,113.3,007.3,010126,,*37
$GNGGA,000051.10,3348.2856,S,15052.4255,E,4,18,0.6,30.0,M,46.9,M,,*58
$GNRMC,000051.10,A,3348.2856,S,15052.4255,E,113.3,007.3,010126,,*35
$GNGGA,000051.20,3348.2852,S,15052.4292,E,4,18,0.6,30.0,M,46.9,M,,*54
$GNRMC,000051.20,A,3348.2852,S,15052.4292,E,113.2,009.0,010126,,*35
$GNGGA,000051.30,3348.2847,S,15052.4330,E,4,18,0.6,30.0,M,46.9,M,,*58
$GNRMC,000051.30,A,3348.2847,S,15052.4330,E,113.2,009.0,010126,,*39
$GNGGA,000051.40,3348.2842,S,15052.4367,E,4,18,0.6,30.0,M,46.9,M,,*58
$GNRMC,000051.40,A,3348.2842,S,15052.4367,E,113.2,009.0,010126,,*39
$GNGGA,000051.50,3348.2837,S,15052.4404,E,4,18,0.6,30.0,M,46.9,M,,*59
$GNRMC,000051.50,A,3348.2837,S,15052.4404,E,113.1,009.0,010126,,*3B
$GNGGA,000051.60,3348.2832,S,15052.4442,E,4,18,0.6,30.0,M,46.9,M,,*5D
$GNRMC,000051.60,A,3348.2832,S,15052.4442,E,113.1,009.0,010126,,*3F
$GNGGA,000051.70,3348.2827,S,15052.4479,E,4,18,0.6,30.0,M,46.9,M,,*50
$GNRMC,000051.70,A,3348.2827,S,15052.4479,E,113.1,009.0,010126,,*32
$GNGGA,000051.80,3348.2822,S,15052.4516,E,4,18,0.6,30.0,M,46.9,M,,*52
$GNRMC,000051.80,A,3348.2822,S,15052.4516,E,113.0,009.0,010126,,*31
$GNGGA,000051.90,3348.2817,S,15052.4554,E,4,18,0.6,30.0,M,46.9,M,,*53
$GNRMC,000051.90,A,3348.2817,S,15052.4554,E,113.0,009.0,010126,,*30
$GNGGA,000052.00,3348.2812,S,15052.4591,E,4,18,0.6,30.0,M,46.9,M,,*55
$GNRMC,000052.00,A,3348.2812,S,15052.4591,E,113.0,009.0,010126,,*36
$GNGGA,000052.10,3348.2807,S,15052.4628,E,4,18,0.6,30.0,M,46.9,M,,*51
$GNRMC,000052.10,A,3348.2807,S,15052.4628,E,112.9,010.8,010126,,*3A
$GNGGA,000052.20,3348.2801,S,15052.4665,E,4,18,0.6,30.0,M,46.9,M,,*5D
$GNRMC,000052.20,A,3348.2801,S,15052.4665,E,112.9,010.8,010126,,*36
$GNGGA,000052.30,3348.2796,S,15052.4702,E,4,18,0.6,30.0,M,46.9,M,,*5D
$GNRMC,000052.30,A,3348.2796,S,15052.4702,E,112.9,010.8,010126,,*36
$GNGGA,000052.40,3348.2790,S,15052.4739,E,4,18,0.6,30.0,M,46.9,M,,*54
$GNRMC,000052.40,A,3348.2790,S,15052.4739,E,112.9,010.8,010126,,*3F
$GNGGA,000052.50,3348.2784,S,15052.4776,E,4,18,0.6,30.0,M,46.9,M,,*5B
$GNRMC,000052.50,A,3348.2784,S,15052.4776,E,112.8,010.8,010126,,*31
$GNGGA,000052.60,3348.2778,S,15052.4813,E,4,18,0.6,30.0,M,46.9,M,,*57
$GNRMC,000052.60,A,3348.2778,S,15052.4813,E,112.8,010.8,010126,,*3D
$GNGGA,000052.70,3348.2772,S,15052.4850,E,4,18,0.6,30.0,M,46.9,M,,*5B
$GNRMC,000052.70,A,3348.2772,S,15052.4850,E,112.8,010.8,010126,,*31
$GNGGA,000052.80,3348.2766,S,15052.4887,E,4,18,0.6,30.0,M,46.9,M,,*5B
$GNRMC,000052.80,A,3348.2766,S,15052.4887,E,112.8,010.8,010126,,*31
$GNGGA,000052.90,3348.2760,S,15052.4924,E,4,18,0.6,30.0,M,46.9,M,,*54
$GNRMC,000052.90,A,3348.2760,S,15052.4924,E,112.8,010.8,010126,,*3E
$GNGGA,000053.00,3348.2754,S,15052.4961,E,4,18,0.6,30.0,M,46.9,M,,*5A
$GNRMC,000053.00,A,3348.2754,S,15052.4961,E,112.7,012.7,010126,,*32
$GNGGA,000053.10,3348.2747,S,15052.4998,E,4,18,0.6,30.0,M,46.9,M,,*5F
$GNRMC,000053.10,A,3348.2747,S,15052.4998,E,112.7,012.7,010126,,*37
$GNGGA,000053.20,3348.2740,S,15052.5035,E,4,18,0.6,30.0,M,46.9,M,,*54
$GNRMC,000053.20,A,3348.2740,S,15052.5035,E,112.7,012.7,010126,,*3C
$GNGGA,000053.30,3348.2733,S,15052.5072,E,4,18,0.6,30.0,M,46.9,M,,*52
$GNRMC,000053.30,A,3348.2733,S,15052.5072,E,112.7,012.7,010126,,*3A
$GNGGA,000053.40,3348.2727,S,15052.5108,E,4,18,0.6,30.0,M,46.9,M,,*5C
$GNRMC,000053.40,A,3348.2727,S,15052.5108,E,112.7,012.7,010126,,*34
$GNGGA,000053.50,3348.2720,S,15052.5145,E,4,18,0.6,30.0,M,46.9,M,,*53
$GNRMC,000053.50,A,3348.2720,S,15052.5145,E,112.7,012.7,010126,,*3B
$GNGGA,000053.60,3348.2713,S,15052.5182,E,4,18,0.6,30.0,M,46.9,M,,*5B
$GNRMC,000053.60,A,3348.2713,S,15052.5182,E,112.6,012.7,010126,,*32
$GNGGA,000053.70,3348.2706,S,15052.5218,E,4,18,0.6,30.0,M,46.9,M,,*5E
$GNRMC,000053.70,A,3348.2706,S,15052.5218,E,112.6,012.7,010126,,*37
$GNGGA,000053.80,3348.2699,S,15052.5255,E,4,18,0.6,30.0,M,46.9,M,,*5F
$GNRMC,000053.80,A,3348.2699,S,15052.5255,E,112.6,012.7,010126,,*36
$GNGGA,000053.90,3348.2691,S,15052.5292,E,4,18,0.6,30.0,M,46.9,M,,*5D
$GNRMC,000053.90,A,3348.2691,S,15052.5292,E,112.6,014.7,010126,,*32
$GNGGA,000054.00,3348.2683,S,15052.5328,E,4,18,0.6,30.0,M,46.9,M,,*50
$GNRMC,000054.00,A,3348.2683,S,15052.5328,E,112.6,014.7,010126,,*3F
$GNGGA,000054.10,3348.2676,S,15052.5364,E,4,18,0.6,30.0,M,46.9,M,,*53
$GNRMC,000054.10,A,3348.2676,S,15052.5364,E,112.6,014.7,010126,,*3C
$GNGGA,000054.20,3348.2668,S,15052.5401,E,4,18,0.6,30.0,M,46.9,M,,*5B
$GNRMC,000054.20,A,3348.2668,S,15052.5401,E,112.6,014.7,010126,,*34
$GNGGA,000054.30,3348.2660,S,15052.5437,E,4,18,0.6,30.0,M,46.9,M,,*57
$GNRMC,000054.30,A,3348.2660,S,15052.5437,E,112.6,014.7,010126,,*38
$GNGGA,000054.40,3348.2652,S,15052.5474,E,4,18,0.6,30.0,M,46.9,M,,*56
$GNRMC,000054.40,A,3348.2652,S,15052.5474,E,112.6,014.7,010126,,*39
$GNGGA,000054.50,3348.2644,S,15052.5510,E,4,18,0.6,30.0,M,46.9,M,,*53
$GNRMC,000054.50,A,3348.2644,S,15052.5510,E,112.6,014.7,010126,,*3C
$GNGGA,000054.60,3348.2636,S,15052.5546,E,4,18,0.6,30.0,M,46.9,M,,*56
$GNRMC,000054.60,A,3348.2636,S,15052.5546,E,112.6,014.7,010126,,*39
$GNGGA,000054.70,3348.2627,S,15052.5582,E,4,18,0.6,30.0,M,46.9,M,,*5F
$GNRMC,000054.70,A,3348.2627,S,15052.5582,E,112.6,016.8,010126,,*3D
$GNGGA,000054.80,3348.2618,S,15052.5618,E,4,18,0.6,30.0,M,46.9,M,,*5C
$GNRMC,000054.80,A,3348.2618,S,15052.5618,E,112.5,016.8,010126,,*3D
$GNGGA,000054.90,3348.2609,S,15052.5654,E,4,18,0.6,30.0,M,46.9,M,,*55
$GNRMC,000054.90,A,3348.2609,S,15052.5654,E,112.5,016.8,010126,,*34
$GNGGA,000055.00,3348.2600,S,15052.5690,E,4,18,0.6,30.0,M,46.9,M,,*5C
$GNRMC,000055.00,A,3348.2600,S,15052.5690,E,112.5,016.8,010126,,*3D
$GNGGA,000055.10,3348.2591,S,15052.5726,E,4,18,0.6,30.0,M,46.9,M,,*5A
$GNRMC,000055.10,A,3348.2591,S,15052.5726,E,112.6,016.8,010126,,*38
$GNGGA,000055.20,3348.2582,S,15052.5762,E,4,18,0.6,30.0,M,46.9,M,,*5B
$GNRMC,000055.20,A,3348.2582,S,15052.5762,E,112.6,016.8,010126,,*39
$GNGGA,000055.30,3348.2573,S,15052.5798,E,4,18,0.6,30.0,M,46.9,M,,*51
$GNRMC,000055.30,A,3348.2573,S,15052.5798,E,112.6,016.8,010126,,*33
$GNGGA,000055.40,3348.2564,S,15052.5834,E,4,18,0.6,30.0,M,46.9,M,,*59
$GNRMC,000055.40,A,3348.2564,S,15052.5834,E,112.6,016.8,010126,,*3B
$GNGGA,000055.50,3348.2555,S,15052.5870,E,4,18,0.6,30.0,M,46.9,M,,*5A
$GNRMC,000055.50,A,3348.2555,S,15052.5870,E,112.6,019.1,010126,,*3E
$GNGGA,000055.60,3348.2544,S,15052.5906,E,4,18,0.6,30.0,M,46.9,M,,*59
$GNRMC,000055.60,A,3348.2544,S,15052.5906,E,112.6,019.1,010126,,*3D
$GNGGA,000055.70,3348.2534,S,15052.5941,E,4,18,0.6,30.0,M,46.9,M,,*5C
$GNRMC,000055.70,A,3348.2534,S,15052.5941,E,112.6,019.1,010126,,*38
$GNGGA,000055.80,3348.2524,S,15052.5977,E,4,18,0.6,30.0,M,46.9,M,,*57
$GNRMC,000055.80,A,3348.2524,S,15052.5977,E,112.6,019.1,010126,,*33
$GNGGA,000055.90,3348.2514,S,15052.6012,E,4,18,0.6,30.0,M,46.9,M,,*5C
$GNRMC,000055.90,A,3348.2514,S,15052.6012,E,112.6,019.1,010126,,*38
$GNGGA,000056.00,3348.2504,S,15052.6048,E,4,18,0.6,30.0,M,46.9,M,,*58
$GNRMC,000056.00,A,3348.2504,S,15052.6048,E,112.6,019.1,010126,,*3C
$GNGGA,000056.10,3348.2493,S,15052.6083,E,4,18,0.6,30.0,M,46.9,M,,*51
$GNRMC,000056.10,A,3348.2493,S,15052.6083,E,112.6,019.1,010126,,*35
$GNGGA,000056.20,3348.2483,S,15052.6119,E,4,18,0.6,30.0,M,46.9,M,,*51
$GNRMC,000056.20,A,3348.2483,S,15052.6119,E,112.6,019.1,010126,,*35
$GNGGA,000056.30,3348.2472,S,15052.6154,E,4,18,0.6,30.0,M,46.9,M,,*57
$GNRMC,000056.30,A,3348.2472,S,15052.6154,E,112.6,021.5,010126,,*3C
$GNGGA,000056.40,3348.2460,S,15052.6189,E,4,18,0.6,30.0,M,46.9,M,,*53
$GNRMC,000056.40,A,3348.2460,S,15052.6189,E,112.7,021.5,010126,,*39
$GNGGA,000056.50,3348.2449,S,15052.6224,E,4,18,0.6,30.0,M,46.9,M,,*5D
$GNRMC,000056.50,A,3348.2449,S,15052.6224,E,112.7,021.5,010126,,*37
$GNGGA,000056.60,3348.2438,S,15052.6259,E,4,18,0.6,30.0,M,46.9,M,,*52
$GNRMC,000056.60,A,3348.2438,S,15052.6259,E,112.7,021.5,010126,,*38
$GNGGA,000056.70,3348.2426,S,15052.6294,E,4,18,0.6,30.0,M,46.9,M,,*5D
$GNRMC,000056.70,A,3348.2426,S,15052.6294,E,112.7,021.5,010126,,*37
$GNGGA,000056.80,3348.2415,S,15052.6329,E,4,18,0.6,30.0,M,46.9,M,,*55
$GNRMC,000056.80,A,3348.2415,S,15052.6329,E,112.7,021.5,010126,,*3F
$GNGGA,000056.90,3348.2403,S,15052.6364,E,4,18,0.6,30.0,M,46.9,M,,*5A
$GNRMC,000056.90,A,3348.2403,S,15052.6364,E,112.7,021.5,010126,,*30
$GNGGA,000057.00,3348.2391,S,15052.6399,E,4,18,0.6,30.0,M,46.9,M,,*5C
$GNRMC,000057.00,A,3348.2391,S,15052.6399,E,112.8,024.2,010126,,*3B
$GNGGA,000057.10,3348.2378,S,15052.6433,E,4,18,0.6,30.0,M,46.9,M,,*5D
$GNRMC,000057.10,A,3348.2378,S,15052.6433,E,112.8,024.2,010126,,*3A
$GNGGA,000057.20,3348.2365,S,15052.6468,E,4,18,0.6,30.0,M,46.9,M,,*5C
$GNRMC,000057.20,A,3348.2365,S,15052.6468,E,112.8,024.2,010126,,*3B
$GNGGA,000057.30,3348.2353,S,15052.6502,E,4,18,0.6,30.0,M,46.9,M,,*55
$GNRMC,000057.30,A,3348.2353,S,15052.6502,E,112.8,024.2,010126,,*32
$GNGGA,000057.40,3348.2340,S,15052.6536,E,4,18,0.6,30.0,M,46.9,M,,*57
$GNRMC,000057.40,A,3348.2340,S,15052.6536,E,112.9,024.2,010126,,*31
$GNGGA,000057.50,3348.2327,S,15052.6571,E,4,18,0.6,30.0,M,46.9,M,,*54
$GNRMC,000057.50,A,3348.2327,S,15052.6571,E,112.9,024.2,010126,,*32
$GNGGA,000057.60,3348.2314,S,15052.6605,E,4,18,0.6,30.0,M,46.9,M,,*57
$GNRMC,000057.60,A,3348.2314,S,15052.6605,E,112.9,024.2,010126,,*31
$GNGGA,000057.70,3348.2301,S,15052.6639,E,4,18,0.6,30.0,M,46.9,M,,*5D
$GNRMC,000057.70,A,3348.2301,S,15052.6639,E,112.9,027.2,010126,,*38
$GNGGA,000057.80,3348.2286,S,15052.6673,E,4,18,0.6,30.0,M,46.9,M,,*52
$GNRMC,000057.80,A,3348.2286,S,15052.6673,E,113.0,027.2,010126,,*3F
$GNGGA,000057.90,3348.2272,S,15052.6707,E,4,18,0.6,30.0,M,46.9,M,,*5A
$GNRMC,000057.90,A,3348.2272,S,15052.6707,E,113.0,027.2,010126,,*37
$GNGGA,000058.00,3348.2258,S,15052.6740,E,4,18,0.6,30.0,M,46.9,M,,*57
$GNRMC,000058.00,A,3348.2258,S,15052.6740,E,113.0,027.2,010126,,*3A
$GNGGA,000058.10,3348.2244,S,15052.6774,E,4,18,0.6,30.0,M,46.9,M,,*5C
$GNRMC,000058.10,A,3348.2244,S,15052.6774,E,113.0,027.2,010126,,*31
$GNGGA,000058.20,3348.2229,S,15052.6807,E,4,18,0.6,30.0,M,46.9,M,,*5F
$GNRMC,000058.20,A,3348.2229,S,15052.6807,E,113.1,027.2,010126,,*33
$GNGGA,000058.30,3348.2215,S,15052.6841,E,4,18,0.6,30.0,M,46.9,M,,*53
$GNRMC,000058.30,A,3348.2215,S,15052.6841,E,113.1,027.2,010126,,*3F
$GNGGA,000058.40,3348.2200,S,15052.6874,E,4,18,0.6,30.0,M,46.9,M,,*56
$GNRMC,000058.40,A,3348.2200,S,15052.6874,E,113.1,030.4,010126,,*3A
$GNGGA,000058.50,3348.2184,S,15052.6907,E,4,18,0.6,30.0,M,46.9,M,,*5D
$GNRMC,000058.50,A,3348.2184,S,15052.6907,E,113.2,030.4,010126,,*32
$GNGGA,000058.60,3348.2168,S,15052.6939,E,4,18,0.6,30.0,M,46.9,M,,*51
$GNRMC,000058.60,A,3348.2168,S,15052.6939,E,113.2,030.4,010126,,*3E
$GNGGA,000058.70,3348.2152,S,15052.6972,E,4,18,0.6,30.0,M,46.9,M,,*56
$GNRMC,000058.70,A,3348.2152,S,15052.6972,E,113.2,030.4,010126,,*39
$GNGGA,000058.80,3348.2136,S,15052.7004,E,4,18,0.6,30.0,M,46.9,M,,*52
$GNRMC,000058.80,A,3348.2136,S,15052.7004,E,113.3,030.4,010126,,*3C
$GNGGA,000058.90,3348.2120,S,15052.7037,E,4,18,0.6,30.0,M,46.9,M,,*54
$GNRMC,000058.90,A,3348.2120,S,15052.7037,E,113.3,030.4,010126,,*3A
$GNGGA,000059.00,3348.2104,S,15052.7069,E,4,18,0.6,30.0,M,46.9,M,,*51
$GNRMC,000059.00,A,3348.2104,S,15052.7069,E,113.4,034.1,010126,,*39
$GNGGA,000059.10,3348.2086,S,15052.7101,E,4,18,0.6,30.0,M,46.9,M,,*54
$GNRMC,000059.10,A,3348.2086,S,15052.7101,E,113.4,034.1,010126,,*3C
$GNGGA,000059.20,3348.2068,S,15052.7132,E,4,18,0.6,30.0,M,46.9,M,,*57
$GNRMC,000059.20,A,3348.2068,S,15052.7132,E,113.4,034.1,010126,,*3F
$GNGGA,000059.30,3348.2051,S,15052.7163,E,4,18,0.6,30.0,M,46.9,M,,*58
$GNRMC,000059.30,A,3348.2051,S,15052.7163,E,113.5,034.1,010126,,*31
$GNGGA,000059.40,3348.2033,S,15052.7195,E,4,18,0.6,30.0,M,46.9,M,,*52
$GNRMC,000059.40,A,3348.2033,S,15052.7195,E,113.5,034.1,010126,,*3B
$GNGGA,000059.50,3348.2016,S,15052.7226,E,4,18,0.6,30.0,M,46.9,M,,*5F
$GNRMC,000059.50,A,3348.2016,S,15052.7226,E,113.6,034.1,010126,,*35
$GNGGA,000059.60,3348.1997,S,15052.7257,E,4,18,0.6,30.0,M,46.9,M,,*59
$GNRMC,000059.60,A,3348.1997,S,15052.7257,E,113.6,038.2,010126,,*3C
$GNGGA,000059.70,3348.1978,S,15052.7287,E,4,18,0.6,30.0,M,46.9,M,,*54
$GNRMC,000059.70,A,3348.1978,S,15052.7287,E,113.6,038.2,010126,,*31
$GNGGA,000059.80,3348.1958,S,15052.7317,E,4,18,0.6,30.0,M,46.9,M,,*51
$GNRMC,000059.80,A,3348.1958,S,15052.7317,E,113.7,038.2,010126,,*35
$GNGGA,000059.90,3348.1939,S,15052.7347,E,4,18,0.6,30.0,M,46.9,M,,*52
$GNRMC,000059.90,A,3348.1939,S,15052.7347,E,113.7,038.2,010126,,*36
