$GNGGA,000000.00,3348.0883,S,15052.7956,E,4,18,0.6,30.0,M,46.9,M,,*5C
$GNRMC,000000.00,A,3348.0883,S,15052.7956,E,094.2,103.2,010126,,*3A
$GNGGA,000000.10,3348.0858,S,15052.7949,E,4,18,0.6,30.0,M,46.9,M,,*55
$GNRMC,000000.10,A,3348.0858,S,15052.7949,E,094.3,103.2,010126,,*32
$GNGGA,000000.20,3348.0832,S,15052.7942,E,4,18,0.6,30.0,M,46.9,M,,*51
$GNRMC,000000.20,A,3348.0832,S,15052.7942,E,094.3,103.2,010126,,*36
$GNGGA,000000.30,3348.0807,S,15052.7935,E,4,18,0.6,30.0,M,46.9,M,,*56
$GNRMC,000000.30,A,3348.0807,S,15052.7935,E,094.4,103.2,010126,,*36
$GNGGA,000000.40,3348.0782,S,15052.7924,E,4,18,0.6,30.0,M,46.9,M,,*53
$GNRMC,000000.40,A,3348.0782,S,15052.7924,E,094.5,111.4,010126,,*37
$GNGGA,000000.50,3348.0758,S,15052.7913,E,4,18,0.6,30.0,M,46.9,M,,*51
$GNRMC,000000.50,A,3348.0758,S,15052.7913,E,094.6,111.4,010126,,*36
$GNGGA,000000.60,3348.0733,S,15052.7901,E,4,18,0.6,30.0,M,46.9,M,,*5C
$GNRMC,000000.60,A,3348.0733,S,15052.7901,E,094.6,111.4,010126,,*3B
$GNGGA,000000.70,3348.0709,S,15052.7889,E,4,18,0.6,30.0,M,46.9,M,,*55
$GNRMC,000000.70,A,3348.0709,S,15052.7889,E,094.7,111.4,010126,,*33
$GNGGA,000000.80,3348.0684,S,15052.7878,E,4,18,0.6,30.0,M,46.9,M,,*50
$GNRMC,000000.80,A,3348.0684,S,15052.7878,E,094.8,111.4,010126,,*39
$GNGGA,000000.90,3348.0661,S,15052.7863,E,4,18,0.6,30.0,M,46.9,M,,*50
$GNRMC,000000.90,A,3348.0661,S,15052.7863,E,094.9,119.0,010126,,*34
$GNGGA,000001.00,3348.0638,S,15052.7848,E,4,18,0.6,30.0,M,46.9,M,,*5D
$GNRMC,000001.00,A,3348.0638,S,15052.7848,E,094.9,119.0,010126,,*39
$GNGGA,000001.10,3348.0615,S,15052.7833,E,4,18,0.6,30.0,M,46.9,M,,*5F
$GNRMC,000001.10,A,3348.0615,S,15052.7833,E,095.0,119.0,010126,,*33
$GNGGA,000001.20,3348.0592,S,15052.7817,E,4,18,0.6,30.0,M,46.9,M,,*56
$GNRMC,000001.20,A,3348.0592,S,15052.7817,E,095.1,119.0,010126,,*3B
$GNGGA,000001.30,3348.0569,S,15052.7802,E,4,18,0.6,30.0,M,46.9,M,,*57
$GNRMC,000001.30,A,3348.0569,S,15052.7802,E,095.2,119.0,010126,,*39
$GNGGA,000001.40,3348.0547,S,15052.7785,E,4,18,0.6,30.0,M,46.9,M,,*5C
$GNRMC,000001.40,A,3348.0547,S,15052.7785,E,095.2,125.8,010126,,*35
$GNGGA,000001.50,3348.0525,S,15052.7766,E,4,18,0.6,30.0,M,46.9,M,,*54
$GNRMC,000001.50,A,3348.0525,S,15052.7766,E,095.3,125.8,010126,,*3C
$GNGGA,000001.60,3348.0504,S,15052.7748,E,4,18,0.6,30.0,M,46.9,M,,*58
$GNRMC,000001.60,A,3348.0504,S,15052.7748,E,095.4,125.8,010126,,*37
$GNGGA,000001.70,3348.0482,S,15052.7729,E,4,18,0.6,30.0,M,46.9,M,,*51
$GNRMC,000001.70,A,3348.0482,S,15052.7729,E,095.4,125.8,010126,,*3E
$GNGGA,000001.80,3348.0461,S,15052.7710,E,4,18,0.6,30.0,M,46.9,M,,*59
$GNRMC,000001.80,A,3348.0461,S,15052.7710,E,095.5,125.8,010126,,*37
$GNGGA,000001.90,3348.0439,S,15052.7692,E,4,18,0.6,30.0,M,46.9,M,,*5E
$GNRMC,000001.90,A,3348.0439,S,15052.7692,E,095.6,125.8,010126,,*33
$GNGGA,000002.00,3348.0419,S,15052.7671,E,4,18,0.6,30.0,M,46.9,M,,*5B
$GNRMC,000002.00,A,3348.0419,S,15052.7671,E,095.7,131.8,010126,,*32
$GNGGA,000002.10,3348.0400,S,15052.7649,E,4,18,0.6,30.0,M,46.9,M,,*59
$GNRMC,000002.10,A,3348.0400,S,15052.7649,E,095.7,131.8,010126,,*30
$GNGGA,000002.20,3348.0380,S,15052.7628,E,4,18,0.6,30.0,M,46.9,M,,*52
$GNRMC,000002.20,A,3348.0380,S,15052.7628,E,095.8,131.8,010126,,*34
$GNGGA,000002.30,3348.0360,S,15052.7607,E,4,18,0.6,30.0,M,46.9,M,,*50
$GNRMC,000002.30,A,3348.0360,S,15052.7607,E,095.9,131.8,010126,,*37
$GNGGA,000002.40,3348.0340,S,15052.7585,E,4,18,0.6,30.0,M,46.9,M,,*5C
$GNRMC,000002.40,A,3348.0340,S,15052.7585,E,095.9,131.8,010126,,*3B
$GNGGA,000002.50,3348.0320,S,15052.7564,E,4,18,0.6,30.0,M,46.9,M,,*54
$GNRMC,000002.50,A,3348.0320,S,15052.7564,E,096.0,137.1,010126,,*36
$GNGGA,000002.60,3348.0302,S,15052.7540,E,4,18,0.6,30.0,M,46.9,M,,*51
$GNRMC,000002.60,A,3348.0302,S,15052.7540,E,096.1,137.1,010126,,*32
$GNGGA,000002.70,3348.0284,S,15052.7517,E,4,18,0.6,30.0,M,46.9,M,,*5D
$GNRMC,000002.70,A,3348.0284,S,15052.7517,E,096.1,137.1,010126,,*3E
$GNGGA,000002.80,3348.0266,S,15052.7493,E,4,18,0.6,30.0,M,46.9,M,,*53
$GNRMC,000002.80,A,3348.0266,S,15052.7493,E,096.2,137.1,010126,,*33
$GNGGA,000002.90,3348.0248,S,15052.7470,E,4,18,0.6,30.0,M,46.9,M,,*53
$GNRMC,000002.90,A,3348.0248,S,15052.7470,E,096.3,137.1,010126,,*32
$GNGGA,000003.00,3348.0230,S,15052.7446,E,4,18,0.6,30.0,M,46.9,M,,*51
$GNRMC,000003.00,A,3348.0230,S,15052.7446,E,096.3,137.1,010126,,*30
$GNGGA,000003.10,3348.0211,S,15052.7423,E,4,18,0.6,30.0,M,46.9,M,,*50
$GNRMC,000003.10,A,3348.0211,S,15052.7423,E,096.4,137.1,010126,,*36
$GNGGA,000003.20,3348.0194,S,15052.7398,E,4,18,0.6,30.0,M,46.9,M,,*5A
$GNRMC,000003.20,A,3348.0194,S,15052.7398,E,096.5,141.8,010126,,*35
$GNGGA,000003.30,3348.0178,S,15052.7372,E,4,18,0.6,30.0,M,46.9,M,,*5D
$GNRMC,000003.30,A,3348.0178,S,15052.7372,E,096.5,141.8,010126,,*32
$GNGGA,000003.40,3348.0161,S,15052.7347,E,4,18,0.6,30.0,M,46.9,M,,*54
$GNRMC,000003.40,A,3348.0161,S,15052.7347,E,096.6,141.8,010126,,*38
$GNGGA,000003.50,3348.0145,S,15052.7322,E,4,18,0.6,30.0,M,46.9,M,,*50
$GNRMC,000003.50,A,3348.0145,S,15052.7322,E,096.7,141.8,010126,,*3D
$GNGGA,000003.60,3348.0128,S,15052.7296,E,4,18,0.6,30.0,M,46.9,M,,*56
$GNRMC,000003.60,A,3348.0128,S,15052.7296,E,096.7,141.8,010126,,*3B
$GNGGA,000003.70,3348.0112,S,15052.7271,E,4,18,0.6,30.0,M,46.9,M,,*57
$GNRMC,000003.70,A,3348.0112,S,15052.7271,E,096.8,141.8,010126,,*35
$GNGGA,000003.80,3348.0095,S,15052.7245,E,4,18,0.6,30.0,M,46.9,M,,*51
$GNRMC,000003.80,A,3348.0095,S,15052.7245,E,096.8,145.9,010126,,*36
$GNGGA,000003.90,3348.0080,S,15052.7218,E,4,18,0.6,30.0,M,46.9,M,,*5C
$GNRMC,000003.90,A,3348.0080,S,15052.7218,E,096.9,145.9,010126,,*3A
$GNGGA,000004.00,3348.0065,S,15052.7192,E,4,18,0.6,30.0,M,46.9,M,,*58
$GNRMC,000004.00,A,3348.0065,S,15052.7192,E,097.0,145.9,010126,,*36
$GNGGA,000004.10,3348.0050,S,15052.7165,E,4,18,0.6,30.0,M,46.9,M,,*57
$GNRMC,000004.10,A,3348.0050,S,15052.7165,E,097.0,145.9,010126,,*39
$GNGGA,000004.20,3348.0035,S,15052.7138,E,4,18,0.6,30.0,M,46.9,M,,*5F
$GNRMC,000004.20,A,3348.0035,S,15052.7138,E,097.1,145.9,010126,,*30
$GNGGA,000004.30,3348.0020,S,15052.7111,E,4,18,0.6,30.0,M,46.9,M,,*51
$GNRMC,000004.30,A,3348.0020,S,15052.7111,E,097.1,145.9,010126,,*3E
$GNGGA,000004.40,3348.0005,S,15052.7084,E,4,18,0.6,30.0,M,46.9,M,,*5C
$GNRMC,000004.40,A,3348.0005,S,15052.7084,E,097.2,145.9,010126,,*30
$GNGGA,000004.50,3347.9990,S,15052.7057,E,4,18,0.6,30.0,M,46.9,M,,*50
$GNRMC,000004.50,A,3347.9990,S,15052.7057,E,097.2,149.6,010126,,*3F
$GNGGA,000004.60,3347.9976,S,15052.7029,E,4,18,0.6,30.0,M,46.9,M,,*52
$GNRMC,000004.60,A,3347.9976,S,15052.7029,E,097.3,149.6,010126,,*3C
$GNGGA,000004.70,3347.9962,S,15052.7001,E,4,18,0.6,30.0,M,46.9,M,,*5C
$GNRMC,000004.70,A,3347.9962,S,15052.7001,E,097.3,149.6,010126,,*32
$GNGGA,000004.80,3347.9949,S,15052.6973,E,4,18,0.6,30.0,M,46.9,M,,*57
$GNRMC,000004.80,A,3347.9949,S,15052.6973,E,097.4,149.6,010126,,*3E
$GNGGA,000004.90,3347.9935,S,15052.6945,E,4,18,0.6,30.0,M,46.9,M,,*58
$GNRMC,000004.90,A,3347.9935,S,15052.6945,E,097.4,149.6,010126,,*31
$GNGGA,000005.00,3347.9921,S,15052.6917,E,4,18,0.6,30.0,M,46.9,M,,*52
$GNRMC,000005.00,A,3347.9921,S,15052.6917,E,097.5,149.6,010126,,*3A
$GNGGA,000005.10,3347.9908,S,15052.6889,E,4,18,0.6,30.0,M,46.9,M,,*5E
$GNRMC,000005.10,A,3347.9908,S,15052.6889,E,097.5,149.6,010126,,*36
$GNGGA,000005.20,3347.9894,S,15052.6861,E,4,18,0.6,30.0,M,46.9,M,,*5F
$GNRMC,000005.20,A,3347.9894,S,15052.6861,E,097.6,149.6,010126,,*34
$GNGGA,000005.30,3347.9881,S,15052.6832,E,4,18,0.6,30.0,M,46.9,M,,*5C
$GNRMC,000005.30,A,3347.9881,S,15052.6832,E,097.6,152.8,010126,,*33
$GNGGA,000005.40,3347.9869,S,15052.6803,E,4,18,0.6,30.0,M,46.9,M,,*5F
$GNRMC,000005.40,A,3347.9869,S,15052.6803,E,097.7,152.8,010126,,*31
$GNGGA,000005.50,3347.9857,S,15052.6774,E,4,18,0.6,30.0,M,46.9,M,,*5C
$GNRMC,000005.50,A,3347.9857,S,15052.6774,E,097.7,152.8,010126,,*32
$GNGGA,000005.60,3347.9844,S,15052.6745,E,4,18,0.6,30.0,M,46.9,M,,*5F
$GNRMC,000005.60,A,3347.9844,S,15052.6745,E,097.8,152.8,010126,,*3E
$GNGGA,000005.70,3347.9832,S,15052.6716,E,4,18,0.6,30.0,M,46.9,M,,*59
$GNRMC,000005.70,A,3347.9832,S,15052.6716,E,097.8,152.8,010126,,*38
$GNGGA,000005.80,3347.9819,S,15052.6687,E,4,18,0.6,30.0,M,46.9,M,,*56
$GNRMC,000005.80,A,3347.9819,S,15052.6687,E,097.8,152.8,010126,,*37
$GNGGA,000005.90,3347.9807,S,15052.6658,E,4,18,0.6,30.0,M,46.9,M,,*5A
$GNRMC,000005.90,A,3347.9807,S,15052.6658,E,097.9,152.8,010126,,*3A
$GNGGA,000006.00,3347.9795,S,15052.6629,E,4,18,0.6,30.0,M,46.9,M,,*52
$GNRMC,000006.00,A,3347.9795,S,15052.6629,E,097.9,155.8,010126,,*35
$GNGGA,000006.10,3347.9784,S,15052.6599,E,4,18,0.6,30.0,M,46.9,M,,*5B
$GNRMC,000006.10,A,3347.9784,S,15052.6599,E,098.0,155.8,010126,,*3A
$GNGGA,000006.20,3347.9772,S,15052.6569,E,4,18,0.6,30.0,M,46.9,M,,*5E
$GNRMC,000006.20,A,3347.9772,S,15052.6569,E,098.0,155.8,010126,,*3F
$GNGGA,000006.30,3347.9761,S,15052.6539,E,4,18,0.6,30.0,M,46.9,M,,*58
$GNRMC,000006.30,A,3347.9761,S,15052.6539,E,098.0,155.8,010126,,*39
$GNGGA,000006.40,3347.9750,S,15052.6509,E,4,18,0.6,30.0,M,46.9,M,,*5E
$GNRMC,000006.40,A,3347.9750,S,15052.6509,E,098.1,155.8,010126,,*3E
$GNGGA,000006.50,3347.9739,S,15052.6479,E,4,18,0.6,30.0,M,46.9,M,,*56
$GNRMC,000006.50,A,3347.9739,S,15052.6479,E,098.1,155.8,010126,,*36
$GNGGA,000006.60,3347.9728,S,15052.6449,E,4,18,0.6,30.0,M,46.9,M,,*56
$GNRMC,000006.60,A,3347.9728,S,15052.6449,E,098.1,155.8,010126,,*36
$GNGGA,000006.70,3347.9717,S,15052.6419,E,4,18,0.6,30.0,M,46.9,M,,*5E
$GNRMC,000006.70,A,3347.9717,S,15052.6419,E,098.2,155.8,010126,,*3D
$GNGGA,000006.80,3347.9705,S,15052.6390,E,4,18,0.6,30.0,M,46.9,M,,*54
$GNRMC,000006.80,A,3347.9705,S,15052.6390,E,098.2,155.8,010126,,*37
$GNGGA,000006.90,3347.9695,S,15052.6359,E,4,18,0.6,30.0,M,46.9,M,,*58
$GNRMC,000006.90,A,3347.9695,S,15052.6359,E,098.2,158.5,010126,,*3B
$GNGGA,000007.00,3347.9685,S,15052.6329,E,4,18,0.6,30.0,M,46.9,M,,*56
$GNRMC,000007.00,A,3347.9685,S,15052.6329,E,098.3,158.5,010126,,*34
$GNGGA,000007.10,3347.9675,S,15052.6298,E,4,18,0.6,30.0,M,46.9,M,,*53
$GNRMC,000007.10,A,3347.9675,S,15052.6298,E,098.3,158.5,010126,,*31
$GNGGA,000007.20,3347.9665,S,15052.6268,E,4,18,0.6,30.0,M,46.9,M,,*5E
$GNRMC,000007.20,A,3347.9665,S,15052.6268,E,098.3,158.5,010126,,*3C
$GNGGA,000007.30,3347.9655,S,15052.6237,E,4,18,0.6,30.0,M,46.9,M,,*56
$GNRMC,000007.30,A,3347.9655,S,15052.6237,E,098.3,158.5,010126,,*34
$GNGGA,000007.40,3347.9645,S,15052.6206,E,4,18,0.6,30.0,M,46.9,M,,*52
$GNRMC,000007.40,A,3347.9645,S,15052.6206,E,098.4,158.5,010126,,*37
$GNGGA,000007.50,3347.9635,S,15052.6176,E,4,18,0.6,30.0,M,46.9,M,,*50
$GNRMC,000007.50,A,3347.9635,S,15052.6176,E,098.4,158.5,010126,,*35
$GNGGA,000007.60,3347.9625,S,15052.6145,E,4,18,0.6,30.0,M,46.9,M,,*52
$GNRMC,000007.60,A,3347.9625,S,15052.6145,E,098.4,158.5,010126,,*37
$GNGGA,000007.70,3347.9616,S,15052.6114,E,4,18,0.6,30.0,M,46.9,M,,*57
$GNRMC,000007.70,A,3347.9616,S,15052.6114,E,098.4,160.9,010126,,*35
$GNGGA,000007.80,3347.9607,S,15052.6083,E,4,18,0.6,30.0,M,46.9,M,,*57
$GNRMC,000007.80,A,3347.9607,S,15052.6083,E,098.4,160.9,010126,,*35
$GNGGA,000007.90,3347.9598,S,15052.6052,E,4,18,0.6,30.0,M,46.9,M,,*5F
$GNRMC,000007.90,A,3347.9598,S,15052.6052,E,098.5,160.9,010126,,*3C
$GNGGA,000008.00,3347.9589,S,15052.6021,E,4,18,0.6,30.0,M,46.9,M,,*5D
$GNRMC,000008.00,A,3347.9589,S,15052.6021,E,098.5,160.9,010126,,*3E
$GNGGA,000008.10,3347.9580,S,15052.5990,E,4,18,0.6,30.0,M,46.9,M,,*55
$GNRMC,000008.10,A,3347.9580,S,15052.5990,E,098.5,160.9,010126,,*36
$GNGGA,000008.20,3347.9571,S,15052.5959,E,4,18,0.6,30.0,M,46.9,M,,*5D
$GNRMC,000008.20,A,3347.9571,S,15052.5959,E,098.5,160.9,010126,,*3E
$GNGGA,000008.30,3347.9562,S,15052.5928,E,4,18,0.6,30.0,M,46.9,M,,*58
$GNRMC,000008.30,A,3347.9562,S,15052.5928,E,098.5,160.9,010126,,*3B
$GNGGA,000008.40,3347.9553,S,15052.5897,E,4,18,0.6,30.0,M,46.9,M,,*58
$GNRMC,000008.40,A,3347.9553,S,15052.5897,E,098.5,160.9,010126,,*3B
$GNGGA,000008.50,3347.9544,S,15052.5866,E,4,18,0.6,30.0,M,46.9,M,,*51
$GNRMC,000008.50,A,3347.9544,S,15052.5866,E,098.5,160.9,010126,,*32
$GNGGA,000008.60,3347.9536,S,15052.5834,E,4,18,0.6,30.0,M,46.9,M,,*50
$GNRMC,000008.60,A,3347.9536,S,15052.5834,E,098.5,163.2,010126,,*3B
$GNGGA,000008.70,3347.9528,S,15052.5803,E,4,18,0.6,30.0,M,46.9,M,,*5A
$GNRMC,000008.70,A,3347.9528,S,15052.5803,E,098.5,163.2,010126,,*31
$GNGGA,000008.80,3347.9520,S,15052.5771,E,4,18,0.6,30.0,M,46.9,M,,*57
$GNRMC,000008.80,A,3347.9520,S,15052.5771,E,098.5,163.2,010126,,*3C
$GNGGA,000008.90,3347.9512,S,15052.5740,E,4,18,0.6,30.0,M,46.9,M,,*55
$GNRMC,000008.90,A,3347.9512,S,15052.5740,E,098.5,163.2,010126,,*3E
$GNGGA,000009.00,3347.9504,S,15052.5708,E,4,18,0.6,30.0,M,46.9,M,,*56
$GNRMC,000009.00,A,3347.9504,S,15052.5708,E,098.6,163.2,010126,,*3E
$GNGGA,000009.10,3347.9496,S,15052.5677,E,4,18,0.6,30.0,M,46.9,M,,*54
$GNRMC,000009.10,A,3347.9496,S,15052.5677,E,098.6,163.2,010126,,*3C
$GNGGA,000009.20,3347.9488,S,15052.5645,E,4,18,0.6,30.0,M,46.9,M,,*59
$GNRMC,000009.20,A,3347.9488,S,15052.5645,E,098.6,163.2,010126,,*31
$GNGGA,000009.30,3347.9480,S,15052.5614,E,4,18,0.6,30.0,M,46.9,M,,*54
$GNRMC,000009.30,A,3347.9480,S,15052.5614,E,098.6,163.2,010126,,*3C
$GNGGA,000009.40,3347.9473,S,15052.5582,E,4,18,0.6,30.0,M,46.9,M,,*53
$GNRMC,000009.40,A,3347.9473,S,15052.5582,E,098.5,163.2,010126,,*38
$GNGGA,000009.50,3347.9465,S,15052.5551,E,4,18,0.6,30.0,M,46.9,M,,*5B
$GNRMC,000009.50,A,3347.9465,S,15052.5551,E,098.5,165.3,010126,,*37
$GNGGA,000009.60,3347.9458,S,15052.5519,E,4,18,0.6,30.0,M,46.9,M,,*5A
$GNRMC,000009.60,A,3347.9458,S,15052.5519,E,098.5,165.3,010126,,*36
$GNGGA,000009.70,3347.9451,S,15052.5487,E,4,18,0.6,30.0,M,46.9,M,,*54
$GNRMC,000009.70,A,3347.9451,S,15052.5487,E,098.5,165.3,010126,,*38
$GNGGA,000009.80,3347.9444,S,15052.5455,E,4,18,0.6,30.0,M,46.9,M,,*50
$GNRMC,000009.80,A,3347.9444,S,15052.5455,E,098.5,165.3,010126,,*3C
$GNGGA,000009.90,3347.9437,S,15052.5423,E,4,18,0.6,30.0,M,46.9,M,,*54
$GNRMC,000009.90,A,3347.9437,S,15052.5423,E,098.5,165.3,010126,,*38
$GNGGA,000010.00,3347.9430,S,15052.5391,E,4,18,0.6,30.0,M,46.9,M,,*5C
$GNRMC,000010.00,A,3347.9430,S,15052.5391,E,098.5,165.3,010126,,*30
$GNGGA,000010.10,3347.9423,S,15052.5360,E,4,18,0.6,30.0,M,46.9,M,,*51
$GNRMC,000010.10,A,3347.9423,S,15052.5360,E,098.5,165.3,010126,,*3D
$GNGGA,000010.20,3347.9417,S,15052.5328,E,4,18,0.6,30.0,M,46.9,M,,*59
$GNRMC,000010.20,A,3347.9417,S,15052.5328,E,098.5,165.3,010126,,*35
$GNGGA,000010.30,3347.9410,S,15052.5296,E,4,18,0.6,30.0,M,46.9,M,,*5B
$GNRMC,000010.30,A,3347.9410,S,15052.5296,E,098.5,165.3,010126,,*37
$GNGGA,000010.40,3347.9403,S,15052.5264,E,4,18,0.6,30.0,M,46.9,M,,*53
$GNRMC,000010.40,A,3347.9403,S,15052.5264,E,098.5,165.3,010126,,*3F
$GNGGA,000010.50,3347.9397,S,15052.5232,E,4,18,0.6,30.0,M,46.9,M,,*5B
$GNRMC,000010.50,A,3347.9397,S,15052.5232,E,098.4,167.3,010126,,*34
$GNGGA,000010.60,3347.9391,S,15052.5200,E,4,18,0.6,30.0,M,46.9,M,,*5F
$GNRMC,000010.60,A,3347.9391,S,15052.5200,E,098.4,167.3,010126,,*30
$GNGGA,000010.70,3347.9385,S,15052.5168,E,4,18,0.6,30.0,M,46.9,M,,*56
$GNRMC,000010.70,A,3347.9385,S,15052.5168,E,098.4,167.3,010126,,*39
$GNGGA,000010.80,3347.9379,S,15052.5136,E,4,18,0.6,30.0,M,46.9,M,,*51
$GNRMC,000010.80,A,3347.9379,S,15052.5136,E,098.4,167.3,010126,,*3E
$GNGGA,000010.90,3347.9373,S,15052.5104,E,4,18,0.6,30.0,M,46.9,M,,*5B
$GNRMC,000010.90,A,3347.9373,S,15052.5104,E,098.4,167.3,010126,,*34
$GNGGA,000011.00,3347.9367,S,15052.5072,E,4,18,0.6,30.0,M,46.9,M,,*56
$GNRMC,000011.00,A,3347.9367,S,15052.5072,E,098.3,167.3,010126,,*3E
$GNGGA,000011.10,3347.9361,S,15052.5040,E,4,18,0.6,30.0,M,46.9,M,,*50
$GNRMC,000011.10,A,3347.9361,S,15052.5040,E,098.3,167.3,010126,,*38
$GNGGA,000011.20,3347.9355,S,15052.5008,E,4,18,0.6,30.0,M,46.9,M,,*58
$GNRMC,000011.20,A,3347.9355,S,15052.5008,E,098.3,167.3,010126,,*30
$GNGGA,000011.30,3347.9349,S,15052.4976,E,4,18,0.6,30.0,M,46.9,M,,*55
$GNRMC,000011.30,A,3347.9349,S,15052.4976,E,098.3,167.3,010126,,*3D
$GNGGA,000011.40,3347.9343,S,15052.4944,E,4,18,0.6,30.0,M,46.9,M,,*59
$GNRMC,000011.40,A,3347.9343,S,15052.4944,E,098.2,169.2,010126,,*3F
$GNGGA,000011.50,3347.9338,S,15052.4911,E,4,18,0.6,30.0,M,46.9,M,,*54
$GNRMC,000011.50,A,3347.9338,S,15052.4911,E,098.2,169.2,010126,,*32
$GNGGA,000011.60,3347.9332,S,15052.4879,E,4,18,0.6,30.0,M,46.9,M,,*52
$GNRMC,000011.60,A,3347.9332,S,15052.4879,E,098.2,169.2,010126,,*34
$GNGGA,000011.70,3347.9327,S,15052.4847,E,4,18,0.6,30.0,M,46.9,M,,*5A
$GNRMC,000011.70,A,3347.9327,S,15052.4847,E,098.1,169.2,010126,,*3F
$GNGGA,000011.80,3347.9322,S,15052.4815,E,4,18,0.6,30.0,M,46.9,M,,*57
$GNRMC,000011.80,A,3347.9322,S,15052.4815,E,098.1,169.2,010126,,*32
$GNGGA,000011.90,3347.9317,S,15052.4783,E,4,18,0.6,30.0,M,46.9,M,,*50
$GNRMC,000011.90,A,3347.9317,S,15052.4783,E,098.1,169.2,010126,,*35
$GNGGA,000012.00,3347.9312,S,15052.4750,E,4,18,0.6,30.0,M,46.9,M,,*51
$GNRMC,000012.00,A,3347.9312,S,15052.4750,E,098.0,169.2,010126,,*35
$GNGGA,000012.10,3347.9307,S,15052.4718,E,4,18,0.6,30.0,M,46.9,M,,*58
$GNRMC,000012.10,A,3347.9307,S,15052.4718,E,098.0,169.2,010126,,*3C
$GNGGA,000012.20,3347.9302,S,15052.4686,E,4,18,0.6,30.0,M,46.9,M,,*58
$GNRMC,000012.20,A,3347.9302,S,15052.4686,E,098.0,169.2,010126,,*3C
$GNGGA,000012.30,3347.9297,S,15052.4654,E,4,18,0.6,30.0,M,46.9,M,,*5B
$GNRMC,000012.30,A,3347.9297,S,15052.4654,E,097.9,169.2,010126,,*39
$GNGGA,000012.40,3347.9292,S,15052.4622,E,4,18,0.6,30.0,M,46.9,M,,*58
$GNRMC,000012.40,A,3347.9292,S,15052.4622,E,097.9,169.2,010126,,*3A
$GNGGA,000012.50,3347.9287,S,15052.4589,E,4,18,0.6,30.0,M,46.9,M,,*5F
$GNRMC,000012.50,A,3347.9287,S,15052.4589,E,097.8,171.0,010126,,*37
$GNGGA,000012.60,3347.9283,S,15052.4557,E,4,18,0.6,30.0,M,46.9,M,,*5B
$GNRMC,000012.60,A,3347.9283,S,15052.4557,E,097.8,171.0,010126,,*33
$GNGGA,000012.70,3347.9279,S,15052.4525,E,4,18,0.6,30.0,M,46.9,M,,*5A
$GNRMC,000012.70,A,3347.9279,S,15052.4525,E,097.8,171.0,010126,,*32
$GNGGA,000012.80,3347.9275,S,15052.4493,E,4,18,0.6,30.0,M,46.9,M,,*55
$GNRMC,000012.80,A,3347.9275,S,15052.4493,E,097.7,171.0,010126,,*32
$GNGGA,000012.90,3347.9270,S,15052.4460,E,4,18,0.6,30.0,M,46.9,M,,*5D
$GNRMC,000012.90,A,3347.9270,S,15052.4460,E,097.7,171.0,010126,,*3A
$GNGGA,000013.00,3347.9266,S,15052.4428,E,4,18,0.6,30.0,M,46.9,M,,*5E
$GNRMC,000013.00,A,3347.9266,S,15052.4428,E,097.6,171.0,010126,,*38
$GNGGA,000013.10,3347.9262,S,15052.4396,E,4,18,0.6,30.0,M,46.9,M,,*59
$GNRMC,000013.10,A,3347.9262,S,15052.4396,E,097.6,171.0,010126,,*3F
$GNGGA,000013.20,3347.9258,S,15052.4364,E,4,18,0.6,30.0,M,46.9,M,,*5E
$GNRMC,000013.20,A,3347.9258,S,15052.4364,E,097.5,171.0,010126,,*3B
$GNGGA,000013.30,3347.9253,S,15052.4332,E,4,18,0.6,30.0,M,46.9,M,,*57
$GNRMC,000013.30,A,3347.9253,S,15052.4332,E,097.5,171.0,010126,,*32
$GNGGA,000013.40,3347.9249,S,15052.4299,E,4,18,0.6,30.0,M,46.9,M,,*5B
$GNRMC,000013.40,A,3347.9249,S,15052.4299,E,097.4,171.0,010126,,*3F
$GNGGA,000013.50,3347.9246,S,15052.4267,E,4,18,0.6,30.0,M,46.9,M,,*54
$GNRMC,000013.50,A,3347.9246,S,15052.4267,E,097.4,172.7,010126,,*34
$GNGGA,000013.60,3347.9242,S,15052.4235,E,4,18,0.6,30.0,M,46.9,M,,*54
$GNRMC,000013.60,A,3347.9242,S,15052.4235,E,097.3,172.7,010126,,*33
$GNGGA,000013.70,3347.9239,S,15052.4203,E,4,18,0.6,30.0,M,46.9,M,,*5C
$GNRMC,000013.70,A,3347.9239,S,15052.4203,E,097.3,172.7,010126,,*3B
$GNGGA,000013.80,3347.9235,S,15052.4170,E,4,18,0.6,30.0,M,46.9,M,,*58
$GNRMC,000013.80,A,3347.9235,S,15052.4170,E,097.2,172.7,010126,,*3E
$GNGGA,000013.90,3347.9232,S,15052.4138,E,4,18,0.6,30.0,M,46.9,M,,*52
$GNRMC,000013.90,A,3347.9232,S,15052.4138,E,097.2,172.7,010126,,*34
$GNGGA,000014.00,3347.9228,S,15052.4106,E,4,18,0.6,30.0,M,46.9,M,,*5A
$GNRMC,000014.00,A,3347.9228,S,15052.4106,E,097.1,172.7,010126,,*3F
$GNGGA,000014.10,3347.9225,S,15052.4074,E,4,18,0.6,30.0,M,46.9,M,,*52
$GNRMC,000014.10,A,3347.9225,S,15052.4074,E,097.1,172.7,010126,,*37
$GNGGA,000014.20,3347.9222,S,15052.4042,E,4,18,0.6,30.0,M,46.9,M,,*53
$GNRMC,000014.20,A,3347.9222,S,15052.4042,E,097.0,172.7,010126,,*37
$GNGGA,000014.30,3347.9218,S,15052.4010,E,4,18,0.6,30.0,M,46.9,M,,*5C
$GNRMC,000014.30,A,3347.9218,S,15052.4010,E,096.9,172.7,010126,,*30
$GNGGA,000014.40,3347.9215,S,15052.3977,E,4,18,0.6,30.0,M,46.9,M,,*59
$GNRMC,000014.40,A,3347.9215,S,15052.3977,E,096.9,172.7,010126,,*35
$GNGGA,000014.50,3347.9211,S,15052.3945,E,4,18,0.6,30.0,M,46.9,M,,*5D
$GNRMC,000014.50,A,3347.9211,S,15052.3945,E,096.8,174.4,010126,,*35
$GNGGA,000014.60,3347.9209,S,15052.3913,E,4,18,0.6,30.0,M,46.9,M,,*54
$GNRMC,000014.60,A,3347.9209,S,15052.3913,E,096.8,174.4,010126,,*3C
$GNGGA,000014.70,3347.9206,S,15052.3881,E,4,18,0.6,30.0,M,46.9,M,,*50
$GNRMC,000014.70,A,3347.9206,S,15052.3881,E,096.7,174.4,010126,,*37
$GNGGA,000014.80,3347.9204,S,15052.3849,E,4,18,0.6,30.0,M,46.9,M,,*59
$GNRMC,000014.80,A,3347.9204,S,15052.3849,E,096.6,174.4,010126,,*3F
$GNGGA,000014.90,3347.9201,S,15052.3817,E,4,18,0.6,30.0,M,46.9,M,,*56
$GNRMC,000014.90,A,3347.9201,S,15052.3817,E,096.6,174.4,010126,,*30
$GNGGA,000015.00,3347.9198,S,15052.3785,E,4,18,0.6,30.0,M,46.9,M,,*59
$GNRMC,000015.00,A,3347.9198,S,15052.3785,E,096.5,174.4,010126,,*3C
$GNGGA,000015.10,3347.9196,S,15052.3753,E,4,18,0.6,30.0,M,46.9,M,,*5D
$GNRMC,000015.10,A,3347.9196,S,15052.3753,E,096.5,174.4,010126,,*38
$GNGGA,000015.20,3347.9193,S,15052.3720,E,4,18,0.6,30.0,M,46.9,M,,*5F
$GNRMC,000015.20,A,3347.9193,S,15052.3720,E,096.4,174.4,010126,,*3B
$GNGGA,000015.30,3347.9190,S,15052.3688,E,4,18,0.6,30.0,M,46.9,M,,*5E
$GNRMC,000015.30,A,3347.9190,S,15052.3688,E,096.3,174.4,010126,,*3D
$GNGGA,000015.40,3347.9188,S,15052.3656,E,4,18,0.6,30.0,M,46.9,M,,*53
$GNRMC,000015.40,A,3347.9188,S,15052.3656,E,096.3,174.4,010126,,*30
$GNGGA,000015.50,3347.9185,S,15052.3624,E,4,18,0.6,30.0,M,46.9,M,,*5A
$GNRMC,000015.50,A,3347.9185,S,15052.3624,E,096.2,174.4,010126,,*38
$GNGGA,000015.60,3347.9183,S,15052.3592,E,4,18,0.6,30.0,M,46.9,M,,*51
$GNRMC,000015.60,A,3347.9183,S,15052.3592,E,096.1,176.0,010126,,*36
$GNGGA,000015.70,3347.9181,S,15052.3560,E,4,18,0.6,30.0,M,46.9,M,,*5F
$GNRMC,000015.70,A,3347.9181,S,15052.3560,E,096.1,176.0,010126,,*38
$GNGGA,000015.80,3347.9179,S,15052.3528,E,4,18,0.6,30.0,M,46.9,M,,*5B
$GNRMC,000015.80,A,3347.9179,S,15052.3528,E,096.0,176.0,010126,,*3D
$GNGGA,000015.90,3347.9177,S,15052.3496,E,4,18,0.6,30.0,M,46.9,M,,*50
$GNRMC,000015.90,A,3347.9177,S,15052.3496,E,095.9,176.0,010126,,*3C
$GNGGA,000016.00,3347.9175,S,15052.3464,E,4,18,0.6,30.0,M,46.9,M,,*55
$GNRMC,000016.00,A,3347.9175,S,15052.3464,E,095.8,176.0,010126,,*38
$GNGGA,000016.10,3347.9174,S,15052.3432,E,4,18,0.6,30.0,M,46.9,M,,*56
$GNRMC,000016.10,A,3347.9174,S,15052.3432,E,095.8,176.0,010126,,*3B
$GNGGA,000016.20,3347.9172,S,15052.3401,E,4,18,0.6,30.0,M,46.9,M,,*53
$GNRMC,000016.20,A,3347.9172,S,15052.3401,E,095.7,176.0,010126,,*31
$GNGGA,000016.30,3347.9170,S,15052.3369,E,4,18,0.6,30.0,M,46.9,M,,*59
$GNRMC,000016.30,A,3347.9170,S,15052.3369,E,095.6,176.0,010126,,*3A
$GNGGA,000016.40,3347.9168,S,15052.3337,E,4,18,0.6,30.0,M,46.9,M,,*5C
$GNRMC,000016.40,A,3347.9168,S,15052.3337,E,095.6,176.0,010126,,*3F
$GNGGA,000016.50,3347.9166,S,15052.3305,E,4,18,0.6,30.0,M,46.9,M,,*52
$GNRMC,000016.50,A,3347.9166,S,15052.3305,E,095.5,176.0,010126,,*32
$GNGGA,000016.60,3347.9164,S,15052.3273,E,4,18,0.6,30.0,M,46.9,M,,*53
$GNRMC,000016.60,A,3347.9164,S,15052.3273,E,095.4,176.0,010126,,*32
$GNGGA,000016.70,3347.9163,S,15052.3241,E,4,18,0.6,30.0,M,46.9,M,,*54
$GNRMC,000016.70,A,3347.9163,S,15052.3241,E,095.4,177.6,010126,,*32
$GNGGA,000016.80,3347.9162,S,15052.3209,E,4,18,0.6,30.0,M,46.9,M,,*56
$GNRMC,000016.80,A,3347.9162,S,15052.3209,E,095.3,177.6,010126,,*37
$GNGGA,000016.90,3347.9161,S,15052.3178,E,4,18,0.6,30.0,M,46.9,M,,*51
$GNRMC,000016.90,A,3347.9161,S,15052.3178,E,095.2,177.6,010126,,*31
$GNGGA,000017.00,3347.9159,S,15052.3146,E,4,18,0.6,30.0,M,46.9,M,,*5F
$GNRMC,000017.00,A,3347.9159,S,15052.3146,E,095.1,177.6,010126,,*3C
$GNGGA,000017.10,3347.9158,S,15052.3114,E,4,18,0.6,30.0,M,46.9,M,,*58
$GNRMC,000017.10,A,3347.9158,S,15052.3114,E,095.1,177.6,010126,,*3B
$GNGGA,000017.20,3347.9157,S,15052.3082,E,4,18,0.6,30.0,M,46.9,M,,*5A
$GNRMC,000017.20,A,3347.9157,S,15052.3082,E,095.0,177.6,010126,,*38
$GNGGA,000017.30,3347.9156,S,15052.3051,E,4,18,0.6,30.0,M,46.9,M,,*54
$GNRMC,000017.30,A,3347.9156,S,15052.3051,E,094.9,177.6,010126,,*3E
$GNGGA,000017.40,3347.9155,S,15052.3019,E,4,18,0.6,30.0,M,46.9,M,,*5C
$GNRMC,000017.40,A,3347.9155,S,15052.3019,E,094.8,177.6,010126,,*37
$GNGGA,000017.50,3347.9154,S,15052.2987,E,4,18,0.6,30.0,M,46.9,M,,*53
$GNRMC,000017.50,A,3347.9154,S,15052.2987,E,094.8,177.6,010126,,*38
$GNGGA,000017.60,3347.9153,S,15052.2956,E,4,18,0.6,30.0,M,46.9,M,,*5B
$GNRMC,000017.60,A,3347.9153,S,15052.2956,E,094.7,177.6,010126,,*3F
$GNGGA,000017.70,3347.9152,S,15052.2924,E,4,18,0.6,30.0,M,46.9,M,,*5E
$GNRMC,000017.70,A,3347.9152,S,15052.2924,E,094.6,177.6,010126,,*3B
$GNGGA,000017.80,3347.9151,S,15052.2893,E,4,18,0.6,30.0,M,46.9,M,,*5F
$GNRMC,000017.80,A,3347.9151,S,15052.2893,E,094.5,179.2,010126,,*33
$GNGGA,000017.90,3347.9150,S,15052.2861,E,4,18,0.6,30.0,M,46.9,M,,*52
$GNRMC,000017.90,A,3347.9150,S,15052.2861,E,094.5,179.2,010126,,*3E
$GNGGA,000018.00,3347.9150,S,15052.2829,E,4,18,0.6,30.0,M,46.9,M,,*58
$GNRMC,000018.00,A,3347.9150,S,15052.2829,E,094.4,179.2,010126,,*35
$GNGGA,000018.10,3347.9150,S,15052.2798,E,4,18,0.6,30.0,M,46.9,M,,*5C
$GNRMC,000018.10,A,3347.9150,S,15052.2798,E,094.3,179.2,010126,,*36
$GNGGA,000018.20,3347.9149,S,15052.2766,E,4,18,0.6,30.0,M,46.9,M,,*56
$GNRMC,000018.20,A,3347.9149,S,15052.2766,E,094.2,179.2,010126,,*3D
$GNGGA,000018.30,3347.9149,S,15052.2735,E,4,18,0.6,30.0,M,46.9,M,,*51
$GNRMC,000018.30,A,3347.9149,S,15052.2735,E,094.2,179.2,010126,,*3A
$GNGGA,000018.40,3347.9149,S,15052.2703,E,4,18,0.6,30.0,M,46.9,M,,*53
$GNRMC,000018.40,A,3347.9149,S,15052.2703,E,094.1,179.2,010126,,*3B
$GNGGA,000018.50,3347.9148,S,15052.2672,E,4,18,0.6,30.0,M,46.9,M,,*54
$GNRMC,000018.50,A,3347.9148,S,15052.2672,E,094.0,179.2,010126,,*3D
$GNGGA,000018.60,3347.9148,S,15052.2641,E,4,18,0.6,30.0,M,46.9,M,,*57
$GNRMC,000018.60,A,3347.9148,S,15052.2641,E,093.9,179.2,010126,,*30
$GNGGA,000018.70,3347.9148,S,15052.2609,E,4,18,0.6,30.0,M,46.9,M,,*5A
$GNRMC,000018.70,A,3347.9148,S,15052.2609,E,093.9,179.2,010126,,*3D
$GNGGA,000018.80,3347.9147,S,15052.2578,E,4,18,0.6,30.0,M,46.9,M,,*5F
$GNRMC,000018.80,A,3347.9147,S,15052.2578,E,093.8,179.2,010126,,*39
$GNGGA,000018.90,3347.9147,S,15052.2547,E,4,18,0.6,30.0,M,46.9,M,,*52
$GNRMC,000018.90,A,3347.9147,S,15052.2547,E,093.7,179.2,010126,,*3B
$GNGGA,000019.00,3347.9147,S,15052.2515,E,4,18,0.6,30.0,M,46.9,M,,*5D
$GNRMC,000019.00,A,3347.9147,S,15052.2515,E,093.6,180.8,010126,,*39
$GNGGA,000019.10,3347.9147,S,15052.2484,E,4,18,0.6,30.0,M,46.9,M,,*55
$GNRMC,000019.10,A,3347.9147,S,15052.2484,E,093.6,180.8,010126,,*31
$GNGGA,000019.20,3347.9148,S,15052.2453,E,4,18,0.6,30.0,M,46.9,M,,*53
$GNRMC,000019.20,A,3347.9148,S,15052.2453,E,093.5,180.8,010126,,*34
$GNGGA,000019.30,3347.9148,S,15052.2422,E,4,18,0.6,30.0,M,46.9,M,,*54
$GNRMC,000019.30,A,3347.9148,S,15052.2422,E,093.4,180.8,010126,,*32
$GNGGA,000019.40,3347.9148,S,15052.2390,E,4,18,0.6,30.0,M,46.9,M,,*5D
$GNRMC,000019.40,A,3347.9148,S,15052.2390,E,093.3,180.8,010126,,*3C
$GNGGA,000019.50,3347.9149,S,15052.2359,E,4,18,0.6,30.0,M,46.9,M,,*58
$GNRMC,000019.50,A,3347.9149,S,15052.2359,E,093.3,180.8,010126,,*39
$GNGGA,000019.60,3347.9149,S,15052.2328,E,4,18,0.6,30.0,M,46.9,M,,*5D
$GNRMC,000019.60,A,3347.9149,S,15052.2328,E,093.2,180.8,010126,,*3D
$GNGGA,000019.70,3347.9150,S,15052.2297,E,4,18,0.6,30.0,M,46.9,M,,*51
$GNRMC,000019.70,A,3347.9150,S,15052.2297,E,093.1,180.8,010126,,*32
$GNGGA,000019.80,3347.9150,S,15052.2266,E,4,18,0.6,30.0,M,46.9,M,,*50
$GNRMC,000019.80,A,3347.9150,S,15052.2266,E,093.0,180.8,010126,,*32
$GNGGA,000019.90,3347.9150,S,15052.2235,E,4,18,0.6,30.0,M,46.9,M,,*57
$GNRMC,000019.90,A,3347.9150,S,15052.2235,E,093.0,180.8,010126,,*35
$GNGGA,000020.00,3347.9151,S,15052.2204,E,4,18,0.6,30.0,M,46.9,M,,*57
$GNRMC,000020.00,A,3347.9151,S,15052.2204,E,092.9,180.8,010126,,*3D
$GNGGA,000020.10,3347.9151,S,15052.2173,E,4,18,0.6,30.0,M,46.9,M,,*55
$GNRMC,000020.10,A,3347.9151,S,15052.2173,E,092.8,182.4,010126,,*30
$GNGGA,000020.20,3347.9152,S,15052.2142,E,4,18,0.6,30.0,M,46.9,M,,*57
$GNRMC,000020.20,A,3347.9152,S,15052.2142,E,092.7,182.4,010126,,*3D
$GNGGA,000020.30,3347.9153,S,15052.2111,E,4,18,0.6,30.0,M,46.9,M,,*51
$GNRMC,000020.30,A,3347.9153,S,15052.2111,E,092.7,182.4,010126,,*3B
$GNGGA,000020.40,3347.9154,S,15052.2080,E,4,18,0.6,30.0,M,46.9,M,,*58
$GNRMC,000020.40,A,3347.9154,S,15052.2080,E,092.6,182.4,010126,,*33
$GNGGA,000020.50,3347.9155,S,15052.2049,E,4,18,0.6,30.0,M,46.9,M,,*5D
$GNRMC,000020.50,A,3347.9155,S,15052.2049,E,092.5,182.4,010126,,*35
$GNGGA,000020.60,3347.9157,S,15052.2018,E,4,18,0.6,30.0,M,46.9,M,,*58
$GNRMC,000020.60,A,3347.9157,S,15052.2018,E,092.4,182.4,010126,,*31
$GNGGA,000020.70,3347.9158,S,15052.1987,E,4,18,0.6,30.0,M,46.9,M,,*5A
$GNRMC,000020.70,A,3347.9158,S,15052.1987,E,092.4,182.4,010126,,*33
$GNGGA,000020.80,3347.9159,S,15052.1956,E,4,18,0.6,30.0,M,46.9,M,,*58
$GNRMC,000020.80,A,3347.9159,S,15052.1956,E,092.3,182.4,010126,,*36
$GNGGA,000020.90,3347.9160,S,15052.1926,E,4,18,0.6,30.0,M,46.9,M,,*54
$GNRMC,000020.90,A,3347.9160,S,15052.1926,E,092.2,182.4,010126,,*3B
$GNGGA,000021.00,3347.9161,S,15052.1895,E,4,18,0.6,30.0,M,46.9,M,,*54
$GNRMC,000021.00,A,3347.9161,S,15052.1895,E,092.2,182.4,010126,,*3B
$GNGGA,000021.10,3347.9162,S,15052.1864,E,4,18,0.6,30.0,M,46.9,M,,*58
$GNRMC,000021.10,A,3347.9162,S,15052.1864,E,092.1,182.4,010126,,*34
$GNGGA,000021.20,3347.9163,S,15052.1833,E,4,18,0.6,30.0,M,46.9,M,,*58
$GNRMC,000021.20,A,3347.9163,S,15052.1833,E,092.0,182.4,010126,,*35
$GNGGA,000021.30,3347.9165,S,15052.1803,E,4,18,0.6,30.0,M,46.9,M,,*5C
$GNRMC,000021.30,A,3347.9165,S,15052.1803,E,092.0,184.0,010126,,*33
$GNGGA,000021.40,3347.9166,S,15052.1772,E,4,18,0.6,30.0,M,46.9,M,,*51
$GNRMC,000021.40,A,3347.9166,S,15052.1772,E,091.9,184.0,010126,,*34
$GNGGA,000021.50,3347.9168,S,15052.1741,E,4,18,0.6,30.0,M,46.9,M,,*5E
$GNRMC,000021.50,A,3347.9168,S,15052.1741,E,091.8,184.0,010126,,*3A
$GNGGA,000021.60,3347.9170,S,15052.1711,E,4,18,0.6,30.0,M,46.9,M,,*51
$GNRMC,000021.60,A,3347.9170,S,15052.1711,E,091.7,184.0,010126,,*3A
$GNGGA,000021.70,3347.9172,S,15052.1680,E,4,18,0.6,30.0,M,46.9,M,,*5B
$GNRMC,000021.70,A,3347.9172,S,15052.1680,E,091.7,184.0,010126,,*30
$GNGGA,000021.80,3347.9173,S,15052.1650,E,4,18,0.6,30.0,M,46.9,M,,*58
$GNRMC,000021.80,A,3347.9173,S,15052.1650,E,091.6,184.0,010126,,*32
$GNGGA,000021.90,3347.9175,S,15052.1619,E,4,18,0.6,30.0,M,46.9,M,,*52
$GNRMC,000021.90,A,3347.9175,S,15052.1619,E,091.5,184.0,010126,,*3B
$GNGGA,000022.00,3347.9177,S,15052.1589,E,4,18,0.6,30.0,M,46.9,M,,*50
$GNRMC,000022.00,A,3347.9177,S,15052.1589,E,091.5,184.0,010126,,*39
$GNGGA,000022.10,3347.9179,S,15052.1558,E,4,18,0.6,30.0,M,46.9,M,,*53
$GNRMC,000022.10,A,3347.9179,S,15052.1558,E,091.4,184.0,010126,,*3B
$GNGGA,000022.20,3347.9181,S,15052.1528,E,4,18,0.6,30.0,M,46.9,M,,*50
$GNRMC,000022.20,A,3347.9181,S,15052.1528,E,091.3,184.0,010126,,*3F
$GNGGA,000022.30,3347.9182,S,15052.1497,E,4,18,0.6,30.0,M,46.9,M,,*57
$GNRMC,000022.30,A,3347.9182,S,15052.1497,E,091.3,184.0,010126,,*38
$GNGGA,000022.40,3347.9184,S,15052.1467,E,4,18,0.6,30.0,M,46.9,M,,*59
$GNRMC,000022.40,A,3347.9184,S,15052.1467,E,091.2,185.6,010126,,*30
$GNGGA,000022.50,3347.9187,S,15052.1436,E,4,18,0.6,30.0,M,46.9,M,,*5F
$GNRMC,000022.50,A,3347.9187,S,15052.1436,E,091.2,185.6,010126,,*36
$GNGGA,000022.60,3347.9189,S,15052.1406,E,4,18,0.6,30.0,M,46.9,M,,*51
$GNRMC,000022.60,A,3347.9189,S,15052.1406,E,091.1,185.6,010126,,*3B
$GNGGA,000022.70,3347.9192,S,15052.1376,E,4,18,0.6,30.0,M,46.9,M,,*5A
$GNRMC,000022.70,A,3347.9192,S,15052.1376,E,091.0,185.6,010126,,*31
$GNGGA,000022.80,3347.9194,S,15052.1346,E,4,18,0.6,30.0,M,46.9,M,,*50
$GNRMC,000022.80,A,3347.9194,S,15052.1346,E,091.0,185.6,010126,,*3B
$GNGGA,000022.90,3347.9197,S,15052.1315,E,4,18,0.6,30.0,M,46.9,M,,*54
$GNRMC,000022.90,A,3347.9197,S,15052.1315,E,090.9,185.6,010126,,*37
$GNGGA,000023.00,3347.9199,S,15052.1285,E,4,18,0.6,30.0,M,46.9,M,,*5A
$GNRMC,000023.00,A,3347.9199,S,15052.1285,E,090.9,185.6,010126,,*39
$GNGGA,000023.10,3347.9202,S,15052.1255,E,4,18,0.6,30.0,M,46.9,M,,*57
$GNRMC,000023.10,A,3347.9202,S,15052.1255,E,090.8,185.6,010126,,*35
$GNGGA,000023.20,3347.9204,S,15052.1225,E,4,18,0.6,30.0,M,46.9,M,,*55
$GNRMC,000023.20,A,3347.9204,S,15052.1225,E,090.7,185.6,010126,,*38
$GNGGA,000023.30,3347.9207,S,15052.1195,E,4,18,0.6,30.0,M,46.9,M,,*5F
$GNRMC,000023.30,A,3347.9207,S,15052.1195,E,090.7,185.6,010126,,*32
$GNGGA,000023.40,3347.9209,S,15052.1164,E,4,18,0.6,30.0,M,46.9,M,,*58
$GNRMC,000023.40,A,3347.9209,S,15052.1164,E,090.6,185.6,010126,,*34
$GNGGA,000023.50,3347.9211,S,15052.1134,E,4,18,0.6,30.0,M,46.9,M,,*55
$GNRMC,000023.50,A,3347.9211,S,15052.1134,E,090.6,185.6,010126,,*39
$GNGGA,000023.60,3347.9215,S,15052.1104,E,4,18,0.6,30.0,M,46.9,M,,*51
$GNRMC,000023.60,A,3347.9215,S,15052.1104,E,090.5,187.3,010126,,*39
$GNGGA,000023.70,3347.9218,S,15052.1074,E,4,18,0.6,30.0,M,46.9,M,,*5B
$GNRMC,000023.70,A,3347.9218,S,15052.1074,E,090.5,187.3,010126,,*33
$GNGGA,000023.80,3347.9221,S,15052.1044,E,4,18,0.6,30.0,M,46.9,M,,*5D
$GNRMC,000023.80,A,3347.9221,S,15052.1044,E,090.4,187.3,010126,,*34
$GNGGA,000023.90,3347.9224,S,15052.1014,E,4,18,0.6,30.0,M,46.9,M,,*5C
$GNRMC,000023.90,A,3347.9224,S,15052.1014,E,090.3,187.3,010126,,*32
$GNGGA,000024.00,3347.9227,S,15052.0984,E,4,18,0.6,30.0,M,46.9,M,,*50
$GNRMC,000024.00,A,3347.9227,S,15052.0984,E,090.3,187.3,010126,,*3E
$GNGGA,000024.10,3347.9230,S,15052.0954,E,4,18,0.6,30.0,M,46.9,M,,*5A
$GNRMC,000024.10,A,3347.9230,S,15052.0954,E,090.2,187.3,010126,,*35
$GNGGA,000024.20,3347.9234,S,15052.0925,E,4,18,0.6,30.0,M,46.9,M,,*5B
$GNRMC,000024.20,A,3347.9234,S,15052.0925,E,090.2,187.3,010126,,*34
$GNGGA,000024.30,3347.9237,S,15052.0895,E,4,18,0.6,30.0,M,46.9,M,,*53
$GNRMC,000024.30,A,3347.9237,S,15052.0895,E,090.1,187.3,010126,,*3F
$GNGGA,000024.40,3347.9240,S,15052.0865,E,4,18,0.6,30.0,M,46.9,M,,*5B
$GNRMC,000024.40,A,3347.9240,S,15052.0865,E,090.1,187.3,010126,,*37
$GNGGA,000024.50,3347.9243,S,15052.0835,E,4,18,0.6,30.0,M,46.9,M,,*5C
$GNRMC,000024.50,A,3347.9243,S,15052.0835,E,090.0,187.3,010126,,*31
$GNGGA,000024.60,3347.9246,S,15052.0805,E,4,18,0.6,30.0,M,46.9,M,,*59
$GNRMC,000024.60,A,3347.9246,S,15052.0805,E,090.0,187.3,010126,,*34
$GNGGA,000024.70,3347.9250,S,15052.0775,E,4,18,0.6,30.0,M,46.9,M,,*57
$GNRMC,000024.70,A,3347.9250,S,15052.0775,E,089.9,189.0,010126,,*36
$GNGGA,000024.80,3347.9254,S,15052.0746,E,4,18,0.6,30.0,M,46.9,M,,*5C
$GNRMC,000024.80,A,3347.9254,S,15052.0746,E,089.9,189.0,010126,,*3D
$GNGGA,000024.90,3347.9258,S,15052.0716,E,4,18,0.6,30.0,M,46.9,M,,*54
$GNRMC,000024.90,A,3347.9258,S,15052.0716,E,089.9,189.0,010126,,*35
$GNGGA,000025.00,3347.9262,S,15052.0686,E,4,18,0.6,30.0,M,46.9,M,,*5D
$GNRMC,000025.00,A,3347.9262,S,15052.0686,E,089.8,189.0,010126,,*3D
$GNGGA,000025.10,3347.9266,S,15052.0657,E,4,18,0.6,30.0,M,46.9,M,,*54
$GNRMC,000025.10,A,3347.9266,S,15052.0657,E,089.8,189.0,010126,,*34
$GNGGA,000025.20,3347.9269,S,15052.0627,E,4,18,0.6,30.0,M,46.9,M,,*5F
$GNRMC,000025.20,A,3347.9269,S,15052.0627,E,089.7,189.0,010126,,*30
$GNGGA,000025.30,3347.9273,S,15052.0598,E,4,18,0.6,30.0,M,46.9,M,,*52
$GNRMC,000025.30,A,3347.9273,S,15052.0598,E,089.7,189.0,010126,,*3D
$GNGGA,000025.40,3347.9277,S,15052.0568,E,4,18,0.6,30.0,M,46.9,M,,*5E
$GNRMC,000025.40,A,3347.9277,S,15052.0568,E,089.6,189.0,010126,,*30
$GNGGA,000025.50,3347.9281,S,15052.0538,E,4,18,0.6,30.0,M,46.9,M,,*53
$GNRMC,000025.50,A,3347.9281,S,15052.0538,E,089.6,189.0,010126,,*3D
$GNGGA,000025.60,3347.9285,S,15052.0509,E,4,18,0.6,30.0,M,46.9,M,,*56
$GNRMC,000025.60,A,3347.9285,S,15052.0509,E,089.6,189.0,010126,,*38
$GNGGA,000025.70,3347.9289,S,15052.0479,E,4,18,0.6,30.0,M,46.9,M,,*5D
$GNRMC,000025.70,A,3347.9289,S,15052.0479,E,089.5,189.0,010126,,*30
$GNGGA,000025.80,3347.9293,S,15052.0450,E,4,18,0.6,30.0,M,46.9,M,,*52
$GNRMC,000025.80,A,3347.9293,S,15052.0450,E,089.5,190.8,010126,,*3F
$GNGGA,000025.90,3347.9298,S,15052.0420,E,4,18,0.6,30.0,M,46.9,M,,*5F
$GNRMC,000025.90,A,3347.9298,S,15052.0420,E,089.5,190.8,010126,,*32
$GNGGA,000026.00,3347.9302,S,15052.0391,E,4,18,0.6,30.0,M,46.9,M,,*5A
$GNRMC,000026.00,A,3347.9302,S,15052.0391,E,089.4,190.8,010126,,*36
$GNGGA,000026.10,3347.9307,S,15052.0362,E,4,18,0.6,30.0,M,46.9,M,,*52
$GNRMC,000026.10,A,3347.9307,S,15052.0362,E,089.4,190.8,010126,,*3E
$GNGGA,000026.20,3347.9312,S,15052.0332,E,4,18,0.6,30.0,M,46.9,M,,*50
$GNRMC,000026.20,A,3347.9312,S,15052.0332,E,089.4,190.8,010126,,*3C
$GNGGA,000026.30,3347.9316,S,15052.0303,E,4,18,0.6,30.0,M,46.9,M,,*57
$GNRMC,000026.30,A,3347.9316,S,15052.0303,E,089.3,190.8,010126,,*3C
$GNGGA,000026.40,3347.9321,S,15052.0274,E,4,18,0.6,30.0,M,46.9,M,,*55
$GNRMC,000026.40,A,3347.9321,S,15052.0274,E,089.3,190.8,010126,,*3E
$GNGGA,000026.50,3347.9326,S,15052.0244,E,4,18,0.6,30.0,M,46.9,M,,*50
$GNRMC,000026.50,A,3347.9326,S,15052.0244,E,089.3,190.8,010126,,*3B
$GNGGA,000026.60,3347.9330,S,15052.0215,E,4,18,0.6,30.0,M,46.9,M,,*50
$GNRMC,000026.60,A,3347.9330,S,15052.0215,E,089.2,190.8,010126,,*3A
$GNGGA,000026.70,3347.9335,S,15052.0186,E,4,18,0.6,30.0,M,46.9,M,,*5D
$GNRMC,000026.70,A,3347.9335,S,15052.0186,E,089.2,190.8,010126,,*37
$GNGGA,000026.80,3347.9339,S,15052.0157,E,4,18,0.6,30.0,M,46.9,M,,*52
$GNRMC,000026.80,A,3347.9339,S,15052.0157,E,089.2,190.8,010126,,*38
$GNGGA,000026.90,3347.9344,S,15052.0127,E,4,18,0.6,30.0,M,46.9,M,,*5E
$GNRMC,000026.90,A,3347.9344,S,15052.0127,E,089.2,192.7,010126,,*39
$GNGGA,000027.00,3347.9350,S,15052.0098,E,4,18,0.6,30.0,M,46.9,M,,*56
$GNRMC,000027.00,A,3347.9350,S,15052.0098,E,089.1,192.7,010126,,*32
$GNGGA,000027.10,3347.9355,S,15052.0069,E,4,18,0.6,30.0,M,46.9,M,,*5C
$GNRMC,000027.10,A,3347.9355,S,15052.0069,E,089.1,192.7,010126,,*38
$GNGGA,000027.20,3347.9361,S,15052.0040,E,4,18,0.6,30.0,M,46.9,M,,*53
$GNRMC,000027.20,A,3347.9361,S,15052.0040,E,089.1,192.7,010126,,*37
$GNGGA,000027.30,3347.9366,S,15052.0011,E,4,18,0.6,30.0,M,46.9,M,,*51
$GNRMC,000027.30,A,3347.9366,S,15052.0011,E,089.1,192.7,010126,,*35
$GNGGA,000027.40,3347.9371,S,15051.9982,E,4,18,0.6,30.0,M,46.9,M,,*59
$GNRMC,000027.40,A,3347.9371,S,15051.9982,E,089.0,192.7,010126,,*3C
$GNGGA,000027.50,3347.9377,S,15051.9953,E,4,18,0.6,30.0,M,46.9,M,,*52
$GNRMC,000027.50,A,3347.9377,S,15051.9953,E,089.0,192.7,010126,,*37
$GNGGA,000027.60,3347.9382,S,15051.9924,E,4,18,0.6,30.0,M,46.9,M,,*5B
$GNRMC,000027.60,A,3347.9382,S,15051.9924,E,089.0,192.7,010126,,*3E
$GNGGA,000027.70,3347.9388,S,15051.9895,E,4,18,0.6,30.0,M,46.9,M,,*5B
$GNRMC,000027.70,A,3347.9388,S,15051.9895,E,089.0,192.7,010126,,*3E
$GNGGA,000027.80,3347.9393,S,15051.9866,E,4,18,0.6,30.0,M,46.9,M,,*52
$GNRMC,000027.80,A,3347.9393,S,15051.9866,E,089.0,192.7,010126,,*37
$GNGGA,000027.90,3347.9399,S,15051.9837,E,4,18,0.6,30.0,M,46.9,M,,*5D
$GNRMC,000027.90,A,3347.9399,S,15051.9837,E,088.9,192.7,010126,,*30
$GNGGA,000028.00,3347.9404,S,15051.9808,E,4,18,0.6,30.0,M,46.9,M,,*54
$GNRMC,000028.00,A,3347.9404,S,15051.9808,E,088.9,194.7,010126,,*3F
$GNGGA,000028.10,3347.9411,S,15051.9780,E,4,18,0.6,30.0,M,46.9,M,,*5E
$GNRMC,000028.10,A,3347.9411,S,15051.9780,E,088.9,194.7,010126,,*35
$GNGGA,000028.20,3347.9417,S,15051.9751,E,4,18,0.6,30.0,M,46.9,M,,*57
$GNRMC,000028.20,A,3347.9417,S,15051.9751,E,088.9,194.7,010126,,*3C
$GNGGA,000028.30,3347.9423,S,15051.9722,E,4,18,0.6,30.0,M,46.9,M,,*55
$GNRMC,000028.30,A,3347.9423,S,15051.9722,E,088.9,194.7,010126,,*3E
$GNGGA,000028.40,3347.9429,S,15051.9693,E,4,18,0.6,30.0,M,46.9,M,,*53
$GNRMC,000028.40,A,3347.9429,S,15051.9693,E,088.9,194.7,010126,,*38
$GNGGA,000028.50,3347.9436,S,15051.9665,E,4,18,0.6,30.0,M,46.9,M,,*55
$GNRMC,000028.50,A,3347.9436,S,15051.9665,E,088.9,194.7,010126,,*3E
$GNGGA,000028.60,3347.9442,S,15051.9636,E,4,18,0.6,30.0,M,46.9,M,,*53
$GNRMC,000028.60,A,3347.9442,S,15051.9636,E,088.9,194.7,010126,,*38
$GNGGA,000028.70,3347.9448,S,15051.9607,E,4,18,0.6,30.0,M,46.9,M,,*5A
$GNRMC,000028.70,A,3347.9448,S,15051.9607,E,088.9,194.7,010126,,*31
$GNGGA,000028.80,3347.9454,S,15051.9578,E,4,18,0.6,30.0,M,46.9,M,,*53
$GNRMC,000028.80,A,3347.9454,S,15051.9578,E,088.9,194.7,010126,,*38
$GNGGA,000028.90,3347.9461,S,15051.9550,E,4,18,0.6,30.0,M,46.9,M,,*5E
$GNRMC,000028.90,A,3347.9461,S,15051.9550,E,088.8,194.7,010126,,*34
$GNGGA,000029.00,3347.9467,S,15051.9521,E,4,18,0.6,30.0,M,46.9,M,,*56
$GNRMC,000029.00,A,3347.9467,S,15051.9521,E,088.8,194.7,010126,,*3C
$GNGGA,000029.10,3347.9474,S,15051.9493,E,4,18,0.6,30.0,M,46.9,M,,*5D
$GNRMC,000029.10,A,3347.9474,S,15051.9493,E,088.8,196.8,010126,,*3A
$GNGGA,000029.20,3347.9481,S,15051.9464,E,4,18,0.6,30.0,M,46.9,M,,*5C
$GNRMC,000029.20,A,3347.9481,S,15051.9464,E,088.8,196.8,010126,,*3B
$GNGGA,000029.30,3347.9488,S,15051.9436,E,4,18,0.6,30.0,M,46.9,M,,*53
$GNRMC,000029.30,A,3347.9488,S,15051.9436,E,088.8,196.8,010126,,*34
$GNGGA,000029.40,3347.9495,S,15051.9407,E,4,18,0.6,30.0,M,46.9,M,,*5A
$GNRMC,000029.40,A,3347.9495,S,15051.9407,E,088.8,196.8,010126,,*3D
$GNGGA,000029.50,3347.9502,S,15051.9379,E,4,18,0.6,30.0,M,46.9,M,,*5A
$GNRMC,000029.50,A,3347.9502,S,15051.9379,E,088.8,196.8,010126,,*3D
$GNGGA,000029.60,3347.9509,S,15051.9351,E,4,18,0.6,30.0,M,46.9,M,,*58
$GNRMC,000029.60,A,3347.9509,S,15051.9351,E,088.8,196.8,010126,,*3F
$GNGGA,000029.70,3347.9517,S,15051.9322,E,4,18,0.6,30.0,M,46.9,M,,*52
$GNRMC,000029.70,A,3347.9517,S,15051.9322,E,088.8,196.8,010126,,*35
$GNGGA,000029.80,3347.9524,S,15051.9294,E,4,18,0.6,30.0,M,46.9,M,,*51
$GNRMC,000029.80,A,3347.9524,S,15051.9294,E,088.8,196.8,010126,,*36
$GNGGA,000029.90,3347.9531,S,15051.9265,E,4,18,0.6,30.0,M,46.9,M,,*5A
$GNRMC,000029.90,A,3347.9531,S,15051.9265,E,088.8,196.8,010126,,*3D
$GNGGA,000030.00,3347.9538,S,15051.9237,E,4,18,0.6,30.0,M,46.9,M,,*55
$GNRMC,000030.00,A,3347.9538,S,15051.9237,E,088.9,196.8,010126,,*33
$GNGGA,000030.10,3347.9546,S,15051.9209,E,4,18,0.6,30.0,M,46.9,M,,*50
$GNRMC,000030.10,A,3347.9546,S,15051.9209,E,088.9,199.1,010126,,*30
$GNGGA,000030.20,3347.9554,S,15051.9181,E,4,18,0.6,30.0,M,46.9,M,,*53
$GNRMC,000030.20,A,3347.9554,S,15051.9181,E,088.9,199.1,010126,,*33
$GNGGA,000030.30,3347.9562,S,15051.9153,E,4,18,0.6,30.0,M,46.9,M,,*58
$GNRMC,000030.30,A,3347.9562,S,15051.9153,E,088.9,199.1,010126,,*38
$GNGGA,000030.40,3347.9570,S,15051.9125,E,4,18,0.6,30.0,M,46.9,M,,*5D
$GNRMC,000030.40,A,3347.9570,S,15051.9125,E,088.9,199.1,010126,,*3D
$GNGGA,000030.50,3347.9578,S,15051.9096,E,4,18,0.6,30.0,M,46.9,M,,*5D
$GNRMC,000030.50,A,3347.9578,S,15051.9096,E,088.9,199.1,010126,,*3D
$GNGGA,000030.60,3347.9586,S,15051.9068,E,4,18,0.6,30.0,M,46.9,M,,*5E
$GNRMC,000030.60,A,3347.9586,S,15051.9068,E,088.9,199.1,010126,,*3E
$GNGGA,000030.70,3347.9594,S,15051.9040,E,4,18,0.6,30.0,M,46.9,M,,*56
$GNRMC,000030.70,A,3347.9594,S,15051.9040,E,088.9,199.1,010126,,*36
$GNGGA,000030.80,3347.9602,S,15051.9012,E,4,18,0.6,30.0,M,46.9,M,,*52
$GNRMC,000030.80,A,3347.9602,S,15051.9012,E,088.9,199.1,010126,,*32
$GNGGA,000030.90,3347.9610,S,15051.8984,E,4,18,0.6,30.0,M,46.9,M,,*57
$GNRMC,000030.90,A,3347.9610,S,15051.8984,E,089.0,199.1,010126,,*3F
$GNGGA,000031.00,3347.9618,S,15051.8956,E,4,18,0.6,30.0,M,46.9,M,,*58
$GNRMC,000031.00,A,3347.9618,S,15051.8956,E,089.0,199.1,010126,,*30
$GNGGA,000031.10,3347.9627,S,15051.8928,E,4,18,0.6,30.0,M,46.9,M,,*5C
$GNRMC,000031.10,A,3347.9627,S,15051.8928,E,089.0,201.5,010126,,*32
$GNGGA,000031.20,3347.9636,S,15051.8901,E,4,18,0.6,30.0,M,46.9,M,,*54
$GNRMC,000031.20,A,3347.9636,S,15051.8901,E,089.0,201.5,010126,,*3A
$GNGGA,000031.30,3347.9645,S,15051.8873,E,4,18,0.6,30.0,M,46.9,M,,*55
$GNRMC,000031.30,A,3347.9645,S,15051.8873,E,089.0,201.5,010126,,*3B
$GNGGA,000031.40,3347.9654,S,15051.8845,E,4,18,0.6,30.0,M,46.9,M,,*57
$GNRMC,000031.40,A,3347.9654,S,15051.8845,E,089.1,201.5,010126,,*38
$GNGGA,000031.50,3347.9664,S,15051.8818,E,4,18,0.6,30.0,M,46.9,M,,*5D
$GNRMC,000031.50,A,3347.9664,S,15051.8818,E,089.1,201.5,010126,,*32
$GNGGA,000031.60,3347.9673,S,15051.8790,E,4,18,0.6,30.0,M,46.9,M,,*57
$GNRMC,000031.60,A,3347.9673,S,15051.8790,E,089.1,201.5,010126,,*38
$GNGGA,000031.70,3347.9682,S,15051.8762,E,4,18,0.6,30.0,M,46.9,M,,*55
$GNRMC,000031.70,A,3347.9682,S,15051.8762,E,089.1,201.5,010126,,*3A
$GNGGA,000031.80,3347.9691,S,15051.8735,E,4,18,0.6,30.0,M,46.9,M,,*5A
$GNRMC,000031.80,A,3347.9691,S,15051.8735,E,089.1,201.5,010126,,*35
$GNGGA,000031.90,3347.9700,S,15051.8707,E,4,18,0.6,30.0,M,46.9,M,,*53
$GNRMC,000031.90,A,3347.9700,S,15051.8707,E,089.2,201.5,010126,,*3F
$GNGGA,000032.00,3347.9709,S,15051.8680,E,4,18,0.6,30.0,M,46.9,M,,*5E
$GNRMC,000032.00,A,3347.9709,S,15051.8680,E,089.2,204.2,010126,,*30
$GNGGA,000032.10,3347.9720,S,15051.8652,E,4,18,0.6,30.0,M,46.9,M,,*5B
$GNRMC,000032.10,A,3347.9720,S,15051.8652,E,089.2,204.2,010126,,*35
$GNGGA,000032.20,3347.9730,S,15051.8625,E,4,18,0.6,30.0,M,46.9,M,,*59
$GNRMC,000032.20,A,3347.9730,S,15051.8625,E,089.3,204.2,010126,,*36
$GNGGA,000032.30,3347.9740,S,15051.8598,E,4,18,0.6,30.0,M,46.9,M,,*5A
$GNRMC,000032.30,A,3347.9740,S,15051.8598,E,089.3,204.2,010126,,*35
$GNGGA,000032.40,3347.9750,S,15051.8571,E,4,18,0.6,30.0,M,46.9,M,,*5B
$GNRMC,000032.40,A,3347.9750,S,15051.8571,E,089.3,204.2,010126,,*34
$GNGGA,000032.50,3347.9760,S,15051.8544,E,4,18,0.6,30.0,M,46.9,M,,*5F
$GNRMC,000032.50,A,3347.9760,S,15051.8544,E,089.3,204.2,010126,,*30
$GNGGA,000032.60,3347.9770,S,15051.8516,E,4,18,0.6,30.0,M,46.9,M,,*5A
$GNRMC,000032.60,A,3347.9770,S,15051.8516,E,089.4,204.2,010126,,*32
$GNGGA,000032.70,3347.9781,S,15051.8489,E,4,18,0.6,30.0,M,46.9,M,,*52
$GNRMC,000032.70,A,3347.9781,S,15051.8489,E,089.4,204.2,010126,,*3A
$GNGGA,000032.80,3347.9791,S,15051.8462,E,4,18,0.6,30.0,M,46.9,M,,*59
$GNRMC,000032.80,A,3347.9791,S,15051.8462,E,089.4,204.2,010126,,*31
$GNGGA,000032.90,3347.9802,S,15051.8435,E,4,18,0.6,30.0,M,46.9,M,,*5F
$GNRMC,000032.90,A,3347.9802,S,15051.8435,E,089.5,207.2,010126,,*35
$GNGGA,000033.00,3347.9813,S,15051.8408,E,4,18,0.6,30.0,M,46.9,M,,*59
$GNRMC,000033.00,A,3347.9813,S,15051.8408,E,089.5,207.2,010126,,*33
$GNGGA,000033.10,3347.9824,S,15051.8382,E,4,18,0.6,30.0,M,46.9,M,,*59
$GNRMC,000033.10,A,3347.9824,S,15051.8382,E,089.6,207.2,010126,,*30
$GNGGA,000033.20,3347.9836,S,15051.8355,E,4,18,0.6,30.0,M,46.9,M,,*53
$GNRMC,000033.20,A,3347.9836,S,15051.8355,E,089.6,207.2,010126,,*3A
$GNGGA,000033.30,3347.9847,S,15051.8329,E,4,18,0.6,30.0,M,46.9,M,,*5F
$GNRMC,000033.30,A,3347.9847,S,15051.8329,E,089.6,207.2,010126,,*36
$GNGGA,000033.40,3347.9858,S,15051.8302,E,4,18,0.6,30.0,M,46.9,M,,*5F
$GNRMC,000033.40,A,3347.9858,S,15051.8302,E,089.7,207.2,010126,,*37
$GNGGA,000033.50,3347.9870,S,15051.8275,E,4,18,0.6,30.0,M,46.9,M,,*55
$GNRMC,000033.50,A,3347.9870,S,15051.8275,E,089.7,207.2,010126,,*3D
$GNGGA,000033.60,3347.9881,S,15051.8249,E,4,18,0.6,30.0,M,46.9,M,,*57
$GNRMC,000033.60,A,3347.9881,S,15051.8249,E,089.8,207.2,010126,,*30
$GNGGA,000033.70,3347.9893,S,15051.8222,E,4,18,0.6,30.0,M,46.9,M,,*58
$GNRMC,000033.70,A,3347.9893,S,15051.8222,E,089.8,210.4,010126,,*3F
$GNGGA,000033.80,3347.9905,S,15051.8196,E,4,18,0.6,30.0,M,46.9,M,,*55
$GNRMC,000033.80,A,3347.9905,S,15051.8196,E,089.8,210.4,010126,,*32
$GNGGA,000033.90,3347.9918,S,15051.8170,E,4,18,0.6,30.0,M,46.9,M,,*50
$GNRMC,000033.90,A,3347.9918,S,15051.8170,E,089.9,210.4,010126,,*36
$GNGGA,000034.00,3347.9930,S,15051.8144,E,4,18,0.6,30.0,M,46.9,M,,*53
$GNRMC,000034.00,A,3347.9930,S,15051.8144,E,089.9,210.4,010126,,*35
$GNGGA,000034.10,3347.9943,S,15051.8118,E,4,18,0.6,30.0,M,46.9,M,,*5F
$GNRMC,000034.10,A,3347.9943,S,15051.8118,E,090.0,210.4,010126,,*38
$GNGGA,000034.20,3347.9956,S,15051.8093,E,4,18,0.6,30.0,M,46.9,M,,*5A
$GNRMC,000034.20,A,3347.9956,S,15051.8093,E,090.0,210.4,010126,,*3D
$GNGGA,000034.30,3347.9968,S,15051.8067,E,4,18,0.6,30.0,M,46.9,M,,*5D
$GNRMC,000034.30,A,3347.9968,S,15051.8067,E,090.1,210.4,010126,,*3B
$GNGGA,000034.40,3347.9981,S,15051.8041,E,4,18,0.6,30.0,M,46.9,M,,*59
$GNRMC,000034.40,A,3347.9981,S,15051.8041,E,090.1,210.4,010126,,*3F
$GNGGA,000034.50,3347.9994,S,15051.8015,E,4,18,0.6,30.0,M,46.9,M,,*5D
$GNRMC,000034.50,A,3347.9994,S,15051.8015,E,090.2,214.1,010126,,*39
$GNGGA,000034.60,3348.0008,S,15051.7990,E,4,18,0.6,30.0,M,46.9,M,,*5F
$GNRMC,000034.60,A,3348.0008,S,15051.7990,E,090.2,214.1,010126,,*3B
$GNGGA,000034.70,3348.0022,S,15051.7965,E,4,18,0.6,30.0,M,46.9,M,,*5C
$GNRMC,000034.70,A,3348.0022,S,15051.7965,E,090.3,214.1,010126,,*39
$GNGGA,000034.80,3348.0036,S,15051.7940,E,4,18,0.6,30.0,M,46.9,M,,*51
$GNRMC,000034.80,A,3348.0036,S,15051.7940,E,090.3,214.1,010126,,*34
$GNGGA,000034.90,3348.0050,S,15051.7915,E,4,18,0.6,30.0,M,46.9,M,,*50
$GNRMC,000034.90,A,3348.0050,S,15051.7915,E,090.4,214.1,010126,,*32
$GNGGA,000035.00,3348.0064,S,15051.7890,E,4,18,0.6,30.0,M,46.9,M,,*53
$GNRMC,000035.00,A,3348.0064,S,15051.7890,E,090.4,214.1,010126,,*31
$GNGGA,000035.10,3348.0078,S,15051.7865,E,4,18,0.6,30.0,M,46.9,M,,*55
$GNRMC,000035.10,A,3348.0078,S,15051.7865,E,090.5,214.1,010126,,*36
$GNGGA,000035.20,3348.0092,S,15051.7840,E,4,18,0.6,30.0,M,46.9,M,,*55
$GNRMC,000035.20,A,3348.0092,S,15051.7840,E,090.5,214.1,010126,,*36
$GNGGA,000035.30,3348.0107,S,15051.7816,E,4,18,0.6,30.0,M,46.9,M,,*5A
$GNRMC,000035.30,A,3348.0107,S,15051.7816,E,090.6,218.2,010126,,*35
$GNGGA,000035.40,3348.0123,S,15051.7792,E,4,18,0.6,30.0,M,46.9,M,,*58
$GNRMC,000035.40,A,3348.0123,S,15051.7792,E,090.7,218.2,010126,,*36
$GNGGA,000035.50,3348.0138,S,15051.7768,E,4,18,0.6,30.0,M,46.9,M,,*56
$GNRMC,000035.50,A,3348.0138,S,15051.7768,E,090.7,218.2,010126,,*38
$GNGGA,000035.60,3348.0154,S,15051.7744,E,4,18,0.6,30.0,M,46.9,M,,*51
$GNRMC,000035.60,A,3348.0154,S,15051.7744,E,090.8,218.2,010126,,*30
$GNGGA,000035.70,3348.0170,S,15051.7720,E,4,18,0.6,30.0,M,46.9,M,,*54
$GNRMC,000035.70,A,3348.0170,S,15051.7720,E,090.8,218.2,010126,,*35
$GNGGA,000035.80,3348.0185,S,15051.7697,E,4,18,0.6,30.0,M,46.9,M,,*5C
$GNRMC,000035.80,A,3348.0185,S,15051.7697,E,090.9,218.2,010126,,*3C
$GNGGA,000035.90,3348.0201,S,15051.7673,E,4,18,0.6,30.0,M,46.9,M,,*58
$GNRMC,000035.90,A,3348.0201,S,15051.7673,E,090.9,218.2,010126,,*38
$GNGGA,000036.00,3348.0217,S,15051.7650,E,4,18,0.6,30.0,M,46.9,M,,*54
$GNRMC,000036.00,A,3348.0217,S,15051.7650,E,091.0,222.9,010126,,*3E
$GNGGA,000036.10,3348.0234,S,15051.7627,E,4,18,0.6,30.0,M,46.9,M,,*54
$GNRMC,000036.10,A,3348.0234,S,15051.7627,E,091.1,222.9,010126,,*3F
$GNGGA,000036.20,3348.0252,S,15051.7605,E,4,18,0.6,30.0,M,46.9,M,,*57
$GNRMC,000036.20,A,3348.0252,S,15051.7605,E,091.1,222.9,010126,,*3C
$GNGGA,000036.30,3348.0269,S,15051.7583,E,4,18,0.6,30.0,M,46.9,M,,*53
$GNRMC,000036.30,A,3348.0269,S,15051.7583,E,091.2,222.9,010126,,*3B
$GNGGA,000036.40,3348.0286,S,15051.7561,E,4,18,0.6,30.0,M,46.9,M,,*59
$GNRMC,000036.40,A,3348.0286,S,15051.7561,E,091.3,222.9,010126,,*30
$GNGGA,000036.50,3348.0303,S,15051.7538,E,4,18,0.6,30.0,M,46.9,M,,*58
$GNRMC,000036.50,A,3348.0303,S,15051.7538,E,091.3,222.9,010126,,*31
$GNGGA,000036.60,3348.0321,S,15051.7516,E,4,18,0.6,30.0,M,46.9,M,,*57
$GNRMC,000036.60,A,3348.0321,S,15051.7516,E,091.4,222.9,010126,,*39
$GNGGA,000036.70,3348.0339,S,15051.7495,E,4,18,0.6,30.0,M,46.9,M,,*55
$GNRMC,000036.70,A,3348.0339,S,15051.7495,E,091.5,228.2,010126,,*3B
$GNGGA,000036.80,3348.0358,S,15051.7475,E,4,18,0.6,30.0,M,46.9,M,,*53
$GNRMC,000036.80,A,3348.0358,S,15051.7475,E,091.5,228.2,010126,,*3D
$GNGGA,000036.90,3348.0377,S,15051.7455,E,4,18,0.6,30.0,M,46.9,M,,*5D
$GNRMC,000036.90,A,3348.0377,S,15051.7455,E,091.6,228.2,010126,,*30
$GNGGA,000037.00,3348.0396,S,15051.7434,E,4,18,0.6,30.0,M,46.9,M,,*5D
$GNRMC,000037.00,A,3348.0396,S,15051.7434,E,091.6,228.2,010126,,*30
$GNGGA,000037.10,3348.0415,S,15051.7414,E,4,18,0.6,30.0,M,46.9,M,,*52
$GNRMC,000037.10,A,3348.0415,S,15051.7414,E,091.7,228.2,010126,,*3E
$GNGGA,000037.20,3348.0434,S,15051.7393,E,4,18,0.6,30.0,M,46.9,M,,*5A
$GNRMC,000037.20,A,3348.0434,S,15051.7393,E,091.8,228.2,010126,,*39
$GNGGA,000037.30,3348.0454,S,15051.7375,E,4,18,0.6,30.0,M,46.9,M,,*55
$GNRMC,000037.30,A,3348.0454,S,15051.7375,E,091.9,234.2,010126,,*3A
$GNGGA,000037.40,3348.0475,S,15051.7357,E,4,18,0.6,30.0,M,46.9,M,,*51
$GNRMC,000037.40,A,3348.0475,S,15051.7357,E,091.9,234.2,010126,,*3E
$GNGGA,000037.50,3348.0496,S,15051.7339,E,4,18,0.6,30.0,M,46.9,M,,*55
$GNRMC,000037.50,A,3348.0496,S,15051.7339,E,092.0,234.2,010126,,*30
$GNGGA,000037.60,3348.0517,S,15051.7321,E,4,18,0.6,30.0,M,46.9,M,,*57
$GNRMC,000037.60,A,3348.0517,S,15051.7321,E,092.1,234.2,010126,,*33
$GNGGA,000037.70,3348.0537,S,15051.7303,E,4,18,0.6,30.0,M,46.9,M,,*54
$GNRMC,000037.70,A,3348.0537,S,15051.7303,E,092.1,234.2,010126,,*30
$GNGGA,000037.80,3348.0558,S,15051.7285,E,4,18,0.6,30.0,M,46.9,M,,*5D
$GNRMC,000037.80,A,3348.0558,S,15051.7285,E,092.2,241.0,010126,,*3A
$GNGGA,000037.90,3348.0580,S,15051.7270,E,4,18,0.6,30.0,M,46.9,M,,*53
$GNRMC,000037.90,A,3348.0580,S,15051.7270,E,092.3,241.0,010126,,*35
$GNGGA,000038.00,3348.0603,S,15051.7255,E,4,18,0.6,30.0,M,46.9,M,,*5A
$GNRMC,000038.00,A,3348.0603,S,15051.7255,E,092.3,241.0,010126,,*3C
$GNGGA,000038.10,3348.0625,S,15051.7240,E,4,18,0.6,30.0,M,46.9,M,,*5B
$GNRMC,000038.10,A,3348.0625,S,15051.7240,E,092.4,241.0,010126,,*3A
$GNGGA,000038.20,3348.0648,S,15051.7225,E,4,18,0.6,30.0,M,46.9,M,,*50
$GNRMC,000038.20,A,3348.0648,S,15051.7225,E,092.5,241.0,010126,,*30
$GNGGA,000038.30,3348.0670,S,15051.7211,E,4,18,0.6,30.0,M,46.9,M,,*5D
$GNRMC,000038.30,A,3348.0670,S,15051.7211,E,092.6,241.0,010126,,*3E
$GNGGA,000038.40,3348.0694,S,15051.7198,E,4,18,0.6,30.0,M,46.9,M,,*52
$GNRMC,000038.40,A,3348.0694,S,15051.7198,E,092.6,248.6,010126,,*3E
$GNGGA,000038.50,3348.0718,S,15051.7187,E,4,18,0.6,30.0,M,46.9,M,,*58
$GNRMC,000038.50,A,3348.0718,S,15051.7187,E,092.7,248.6,010126,,*35
$GNGGA,000038.60,3348.0741,S,15051.7175,E,4,18,0.6,30.0,M,46.9,M,,*5A
$GNRMC,000038.60,A,3348.0741,S,15051.7175,E,092.8,248.6,010126,,*38
$GNGGA,000038.70,3348.0765,S,15051.7164,E,4,18,0.6,30.0,M,46.9,M,,*5D
$GNRMC,000038.70,A,3348.0765,S,15051.7164,E,092.9,248.6,010126,,*3E
$GNGGA,000038.80,3348.0789,S,15051.7153,E,4,18,0.6,30.0,M,46.9,M,,*54
$GNRMC,000038.80,A,3348.0789,S,15051.7153,E,092.9,248.6,010126,,*37
$GNGGA,000038.90,3348.0814,S,15051.7143,E,4,18,0.6,30.0,M,46.9,M,,*5F
$GNRMC,000038.90,A,3348.0814,S,15051.7143,E,093.0,256.8,010126,,*35
$GNGGA,000039.00,3348.0839,S,15051.7136,E,4,18,0.6,30.0,M,46.9,M,,*5A
$GNRMC,000039.00,A,3348.0839,S,15051.7136,E,093.1,256.8,010126,,*31
$GNGGA,000039.10,3348.0864,S,15051.7129,E,4,18,0.6,30.0,M,46.9,M,,*5D
$GNRMC,000039.10,A,3348.0864,S,15051.7129,E,093.1,256.8,010126,,*36
$GNGGA,000039.20,3348.0889,S,15051.7122,E,4,18,0.6,30.0,M,46.9,M,,*56
$GNRMC,000039.20,A,3348.0889,S,15051.7122,E,093.2,256.8,010126,,*3E
$GNGGA,000039.30,3348.0915,S,15051.7115,E,4,18,0.6,30.0,M,46.9,M,,*57
$GNRMC,000039.30,A,3348.0915,S,15051.7115,E,093.3,256.8,010126,,*3E
$GNGGA,000039.40,3348.0940,S,15051.7111,E,4,18,0.6,30.0,M,46.9,M,,*54
$GNRMC,000039.40,A,3348.0940,S,15051.7111,E,093.4,265.6,010126,,*34
$GNGGA,000039.50,3348.0966,S,15051.7108,E,4,18,0.6,30.0,M,46.9,M,,*59
$GNRMC,000039.50,A,3348.0966,S,15051.7108,E,093.4,265.6,010126,,*39
$GNGGA,000039.60,3348.0992,S,15051.7106,E,4,18,0.6,30.0,M,46.9,M,,*5F
$GNRMC,000039.60,A,3348.0992,S,15051.7106,E,093.5,265.6,010126,,*3E
$GNGGA,000039.70,3348.1018,S,15051.7103,E,4,18,0.6,30.0,M,46.9,M,,*51
$GNRMC,000039.70,A,3348.1018,S,15051.7103,E,093.6,265.6,010126,,*33
$GNGGA,000039.80,3348.1044,S,15051.7101,E,4,18,0.6,30.0,M,46.9,M,,*55
$GNRMC,000039.80,A,3348.1044,S,15051.7101,E,093.7,265.6,010126,,*36
$GNGGA,000039.90,3348.1070,S,15051.7102,E,4,18,0.6,30.0,M,46.9,M,,*50
$GNRMC,000039.90,A,3348.1070,S,15051.7102,E,093.8,274.4,010126,,*3E
$GNGGA,000040.00,3348.1096,S,15051.7105,E,4,18,0.6,30.0,M,46.9,M,,*58
$GNRMC,000040.00,A,3348.1096,S,15051.7105,E,093.8,274.4,010126,,*36
$GNGGA,000040.10,3348.1122,S,15051.7107,E,4,18,0.6,30.0,M,46.9,M,,*55
$GNRMC,000040.10,A,3348.1122,S,15051.7107,E,093.9,274.4,010126,,*3A
$GNGGA,000040.20,3348.1148,S,15051.7109,E,4,18,0.6,30.0,M,46.9,M,,*54
$GNRMC,000040.20,A,3348.1148,S,15051.7109,E,094.0,274.4,010126,,*35
$GNGGA,000040.30,3348.1174,S,15051.7112,E,4,18,0.6,30.0,M,46.9,M,,*50
$GNRMC,000040.30,A,3348.1174,S,15051.7112,E,094.1,274.4,010126,,*30
$GNGGA,000040.40,3348.1199,S,15051.7119,E,4,18,0.6,30.0,M,46.9,M,,*5F
$GNRMC,000040.40,A,3348.1199,S,15051.7119,E,094.1,283.2,010126,,*31
$GNGGA,000040.50,3348.1224,S,15051.7126,E,4,18,0.6,30.0,M,46.9,M,,*57
$GNRMC,000040.50,A,3348.1224,S,15051.7126,E,094.2,283.2,010126,,*3A
$GNGGA,000040.60,3348.1250,S,15051.7133,E,4,18,0.6,30.0,M,46.9,M,,*53
$GNRMC,000040.60,A,3348.1250,S,15051.7133,E,094.3,283.2,010126,,*3F
$GNGGA,000040.70,3348.1275,S,15051.7140,E,4,18,0.6,30.0,M,46.9,M,,*51
$GNRMC,000040.70,A,3348.1275,S,15051.7140,E,094.4,283.2,010126,,*3A
$GNGGA,000040.80,3348.1301,S,15051.7148,E,4,18,0.6,30.0,M,46.9,M,,*54
$GNRMC,000040.80,A,3348.1301,S,15051.7148,E,094.4,291.4,010126,,*3A
$GNGGA,000040.90,3348.1325,S,15051.7159,E,4,18,0.6,30.0,M,46.9,M,,*53
$GNRMC,000040.90,A,3348.1325,S,15051.7159,E,094.5,291.4,010126,,*3C
$GNGGA,000041.00,3348.1350,S,15051.7171,E,4,18,0.6,30.0,M,46.9,M,,*53
$GNRMC,000041.00,A,3348.1350,S,15051.7171,E,094.6,291.4,010126,,*3F
$GNGGA,000041.10,3348.1374,S,15051.7183,E,4,18,0.6,30.0,M,46.9,M,,*59
$GNRMC,000041.10,A,3348.1374,S,15051.7183,E,094.7,291.4,010126,,*34
$GNGGA,000041.20,3348.1399,S,15051.7194,E,4,18,0.6,30.0,M,46.9,M,,*5F
$GNRMC,000041.20,A,3348.1399,S,15051.7194,E,094.7,291.4,010126,,*32
$GNGGA,000041.30,3348.1423,S,15051.7206,E,4,18,0.6,30.0,M,46.9,M,,*50
$GNRMC,000041.30,A,3348.1423,S,15051.7206,E,094.8,299.0,010126,,*3E
$GNGGA,000041.40,3348.1446,S,15051.7221,E,4,18,0.6,30.0,M,46.9,M,,*51
$GNRMC,000041.40,A,3348.1446,S,15051.7221,E,094.9,299.0,010126,,*3E
$GNGGA,000041.50,3348.1469,S,15051.7237,E,4,18,0.6,30.0,M,46.9,M,,*5A
$GNRMC,000041.50,A,3348.1469,S,15051.7237,E,095.0,299.0,010126,,*3D
$GNGGA,000041.60,3348.1492,S,15051.7252,E,4,18,0.6,30.0,M,46.9,M,,*5E
$GNRMC,000041.60,A,3348.1492,S,15051.7252,E,095.0,299.0,010126,,*39
$GNGGA,000041.70,3348.1515,S,15051.7267,E,4,18,0.6,30.0,M,46.9,M,,*57
$GNRMC,000041.70,A,3348.1515,S,15051.7267,E,095.1,299.0,010126,,*31
$GNGGA,000041.80,3348.1538,S,15051.7283,E,4,18,0.6,30.0,M,46.9,M,,*5D
$GNRMC,000041.80,A,3348.1538,S,15051.7283,E,095.2,299.0,010126,,*38
$GNGGA,000041.90,3348.1560,S,15051.7301,E,4,18,0.6,30.0,M,46.9,M,,*5A
$GNRMC,000041.90,A,3348.1560,S,15051.7301,E,095.2,305.8,010126,,*33
$GNGGA,000042.00,3348.1581,S,15051.7319,E,4,18,0.6,30.0,M,46.9,M,,*56
$GNRMC,000042.00,A,3348.1581,S,15051.7319,E,095.3,305.8,010126,,*3E
$GNGGA,000042.10,3348.1603,S,15051.7338,E,4,18,0.6,30.0,M,46.9,M,,*5D
$GNRMC,000042.10,A,3348.1603,S,15051.7338,E,095.4,305.8,010126,,*32
$GNGGA,000042.20,3348.1624,S,15051.7357,E,4,18,0.6,30.0,M,46.9,M,,*52
$GNRMC,000042.20,A,3348.1624,S,15051.7357,E,095.5,305.8,010126,,*3C
$GNGGA,000042.30,3348.1646,S,15051.7375,E,4,18,0.6,30.0,M,46.9,M,,*57
$GNRMC,000042.30,A,3348.1646,S,15051.7375,E,095.5,305.8,010126,,*39
$GNGGA,000042.40,3348.1667,S,15051.7394,E,4,18,0.6,30.0,M,46.9,M,,*5C
$GNRMC,000042.40,A,3348.1667,S,15051.7394,E,095.6,311.8,010126,,*34
$GNGGA,000042.50,3348.1687,S,15051.7416,E,4,18,0.6,30.0,M,46.9,M,,*5E
$GNRMC,000042.50,A,3348.1687,S,15051.7416,E,095.7,311.8,010126,,*37
$GNGGA,000042.60,3348.1707,S,15051.7437,E,4,18,0.6,30.0,M,46.9,M,,*57
$GNRMC,000042.60,A,3348.1707,S,15051.7437,E,095.7,311.8,010126,,*3E
$GNGGA,000042.70,3348.1726,S,15051.7458,E,4,18,0.6,30.0,M,46.9,M,,*5C
$GNRMC,000042.70,A,3348.1726,S,15051.7458,E,095.8,311.8,010126,,*3A
$GNGGA,000042.80,3348.1746,S,15051.7480,E,4,18,0.6,30.0,M,46.9,M,,*50
$GNRMC,000042.80,A,3348.1746,S,15051.7480,E,095.9,311.8,010126,,*37
$GNGGA,000042.90,3348.1766,S,15051.7501,E,4,18,0.6,30.0,M,46.9,M,,*5B
$GNRMC,000042.90,A,3348.1766,S,15051.7501,E,096.0,311.8,010126,,*36
$GNGGA,000043.00,3348.1785,S,15051.7523,E,4,18,0.6,30.0,M,46.9,M,,*5E
$GNRMC,000043.00,A,3348.1785,S,15051.7523,E,096.0,317.1,010126,,*3C
$GNGGA,000043.10,3348.1803,S,15051.7547,E,4,18,0.6,30.0,M,46.9,M,,*5C
$GNRMC,000043.10,A,3348.1803,S,15051.7547,E,096.1,317.1,010126,,*3F
$GNGGA,000043.20,3348.1822,S,15051.7570,E,4,18,0.6,30.0,M,46.9,M,,*58
$GNRMC,000043.20,A,3348.1822,S,15051.7570,E,096.2,317.1,010126,,*38
$GNGGA,000043.30,3348.1840,S,15051.7594,E,4,18,0.6,30.0,M,46.9,M,,*57
$GNRMC,000043.30,A,3348.1840,S,15051.7594,E,096.2,317.1,010126,,*37
$GNGGA,000043.40,3348.1858,S,15051.7617,E,4,18,0.6,30.0,M,46.9,M,,*51
$GNRMC,000043.40,A,3348.1858,S,15051.7617,E,096.3,317.1,010126,,*30
$GNGGA,000043.50,3348.1876,S,15051.7641,E,4,18,0.6,30.0,M,46.9,M,,*5F
$GNRMC,000043.50,A,3348.1876,S,15051.7641,E,096.4,317.1,010126,,*39
$GNGGA,000043.60,3348.1894,S,15051.7665,E,4,18,0.6,30.0,M,46.9,M,,*56
$GNRMC,000043.60,A,3348.1894,S,15051.7665,E,096.4,321.8,010126,,*3C
$GNGGA,000043.70,3348.1911,S,15051.7690,E,4,18,0.6,30.0,M,46.9,M,,*51
$GNRMC,000043.70,A,3348.1911,S,15051.7690,E,096.5,321.8,010126,,*3A
$GNGGA,000043.80,3348.1927,S,15051.7715,E,4,18,0.6,30.0,M,46.9,M,,*57
$GNRMC,000043.80,A,3348.1927,S,15051.7715,E,096.5,321.8,010126,,*3C
$GNGGA,000043.90,3348.1944,S,15051.7741,E,4,18,0.6,30.0,M,46.9,M,,*52
$GNRMC,000043.90,A,3348.1944,S,15051.7741,E,096.6,321.8,010126,,*3A
$GNGGA,000044.00,3348.1960,S,15051.7766,E,4,18,0.6,30.0,M,46.9,M,,*5F
$GNRMC,000044.00,A,3348.1960,S,15051.7766,E,096.7,321.8,010126,,*36
$GNGGA,000044.10,3348.1977,S,15051.7791,E,4,18,0.6,30.0,M,46.9,M,,*50
$GNRMC,000044.10,A,3348.1977,S,15051.7791,E,096.7,321.8,010126,,*39
$GNGGA,000044.20,3348.1994,S,15051.7817,E,4,18,0.6,30.0,M,46.9,M,,*5F
$GNRMC,000044.20,A,3348.1994,S,15051.7817,E,096.8,321.8,010126,,*39
$GNGGA,000044.30,3348.2009,S,15051.7843,E,4,18,0.6,30.0,M,46.9,M,,*51
$GNRMC,000044.30,A,3348.2009,S,15051.7843,E,096.9,325.9,010126,,*33
$GNGGA,000044.40,3348.2024,S,15051.7870,E,4,18,0.6,30.0,M,46.9,M,,*59
$GNRMC,000044.40,A,3348.2024,S,15051.7870,E,096.9,325.9,010126,,*3B
$GNGGA,000044.50,3348.2040,S,15051.7896,E,4,18,0.6,30.0,M,46.9,M,,*52
$GNRMC,000044.50,A,3348.2040,S,15051.7896,E,097.0,325.9,010126,,*38
$GNGGA,000044.60,3348.2055,S,15051.7923,E,4,18,0.6,30.0,M,46.9,M,,*5A
$GNRMC,000044.60,A,3348.2055,S,15051.7923,E,097.0,325.9,010126,,*30
$GNGGA,000044.70,3348.2070,S,15051.7950,E,4,18,0.6,30.0,M,46.9,M,,*58
$GNRMC,000044.70,A,3348.2070,S,15051.7950,E,097.1,325.9,010126,,*33
$GNGGA,000044.80,3348.2085,S,15051.7977,E,4,18,0.6,30.0,M,46.9,M,,*58
$GNRMC,000044.80,A,3348.2085,S,15051.7977,E,097.1,325.9,010126,,*33
$GNGGA,000044.90,3348.2100,S,15051.8004,E,4,18,0.6,30.0,M,46.9,M,,*57
$GNRMC,000044.90,A,3348.2100,S,15051.8004,E,097.2,325.9,010126,,*3F
$GNGGA,000045.00,3348.2114,S,15051.8031,E,4,18,0.6,30.0,M,46.9,M,,*5C
$GNRMC,000045.00,A,3348.2114,S,15051.8031,E,097.2,329.6,010126,,*37
$GNGGA,000045.10,3348.2128,S,15051.8059,E,4,18,0.6,30.0,M,46.9,M,,*5C
$GNRMC,000045.10,A,3348.2128,S,15051.8059,E,097.3,329.6,010126,,*36
$GNGGA,000045.20,3348.2142,S,15051.8087,E,4,18,0.6,30.0,M,46.9,M,,*50
$GNRMC,000045.20,A,3348.2142,S,15051.8087,E,097.4,329.6,010126,,*3D
$GNGGA,000045.30,3348.2155,S,15051.8115,E,4,18,0.6,30.0,M,46.9,M,,*5D
$GNRMC,000045.30,A,3348.2155,S,15051.8115,E,097.4,329.6,010126,,*30
$GNGGA,000045.40,3348.2169,S,15051.8143,E,4,18,0.6,30.0,M,46.9,M,,*56
$GNRMC,000045.40,A,3348.2169,S,15051.8143,E,097.5,329.6,010126,,*3A
$GNGGA,000045.50,3348.2183,S,15051.8171,E,4,18,0.6,30.0,M,46.9,M,,*52
$GNRMC,000045.50,A,3348.2183,S,15051.8171,E,097.5,329.6,010126,,*3E
$GNGGA,000045.60,3348.2197,S,15051.8200,E,4,18,0.6,30.0,M,46.9,M,,*51
$GNRMC,000045.60,A,3348.2197,S,15051.8200,E,097.6,329.6,010126,,*3E
$GNGGA,000045.70,3348.2210,S,15051.8228,E,4,18,0.6,30.0,M,46.9,M,,*56
$GNRMC,000045.70,A,3348.2210,S,15051.8228,E,097.6,332.8,010126,,*3D
$GNGGA,000045.80,3348.2222,S,15051.8257,E,4,18,0.6,30.0,M,46.9,M,,*50
$GNRMC,000045.80,A,3348.2222,S,15051.8257,E,097.6,332.8,010126,,*3B
$GNGGA,000045.90,3348.2235,S,15051.8286,E,4,18,0.6,30.0,M,46.9,M,,*5B
$GNRMC,000045.90,A,3348.2235,S,15051.8286,E,097.7,332.8,010126,,*31
$GNGGA,000046.00,3348.2247,S,15051.8315,E,4,18,0.6,30.0,M,46.9,M,,*5F
$GNRMC,000046.00,A,3348.2247,S,15051.8315,E,097.7,332.8,010126,,*35
$GNGGA,000046.10,3348.2260,S,15051.8344,E,4,18,0.6,30.0,M,46.9,M,,*5F
$GNRMC,000046.10,A,3348.2260,S,15051.8344,E,097.8,332.8,010126,,*3A
$GNGGA,000046.20,3348.2272,S,15051.8373,E,4,18,0.6,30.0,M,46.9,M,,*5B
$GNRMC,000046.20,A,3348.2272,S,15051.8373,E,097.8,332.8,010126,,*3E
$GNGGA,000046.30,3348.2284,S,15051.8402,E,4,18,0.6,30.0,M,46.9,M,,*52
$GNRMC,000046.30,A,3348.2284,S,15051.8402,E,097.9,332.8,010126,,*36
$GNGGA,000046.40,3348.2297,S,15051.8431,E,4,18,0.6,30.0,M,46.9,M,,*57
$GNRMC,000046.40,A,3348.2297,S,15051.8431,E,097.9,332.8,010126,,*33
$GNGGA,000046.50,3348.2309,S,15051.8460,E,4,18,0.6,30.0,M,46.9,M,,*54
$GNRMC,000046.50,A,3348.2309,S,15051.8460,E,097.9,335.8,010126,,*37
$GNGGA,000046.60,3348.2320,S,15051.8490,E,4,18,0.6,30.0,M,46.9,M,,*53
$GNRMC,000046.60,A,3348.2320,S,15051.8490,E,098.0,335.8,010126,,*36
$GNGGA,000046.70,3348.2331,S,15051.8520,E,4,18,0.6,30.0,M,46.9,M,,*58
$GNRMC,000046.70,A,3348.2331,S,15051.8520,E,098.0,335.8,010126,,*3D
$GNGGA,000046.80,3348.2342,S,15051.8550,E,4,18,0.6,30.0,M,46.9,M,,*54
$GNRMC,000046.80,A,3348.2342,S,15051.8550,E,098.1,335.8,010126,,*30
$GNGGA,000046.90,3348.2353,S,15051.8580,E,4,18,0.6,30.0,M,46.9,M,,*58
$GNRMC,000046.90,A,3348.2353,S,15051.8580,E,098.1,335.8,010126,,*3C
$GNGGA,000047.00,3348.2365,S,15051.8610,E,4,18,0.6,30.0,M,46.9,M,,*5F
$GNRMC,000047.00,A,3348.2365,S,15051.8610,E,098.1,335.8,010126,,*3B
$GNGGA,000047.10,3348.2376,S,15051.8640,E,4,18,0.6,30.0,M,46.9,M,,*59
$GNRMC,000047.10,A,3348.2376,S,15051.8640,E,098.2,335.8,010126,,*3E
$GNGGA,000047.20,3348.2387,S,15051.8670,E,4,18,0.6,30.0,M,46.9,M,,*57
$GNRMC,000047.20,A,3348.2387,S,15051.8670,E,098.2,335.8,010126,,*30
$GNGGA,000047.30,3348.2398,S,15051.8700,E,4,18,0.6,30.0,M,46.9,M,,*5E
$GNRMC,000047.30,A,3348.2398,S,15051.8700,E,098.2,338.5,010126,,*39
$GNGGA,000047.40,3348.2408,S,15051.8730,E,4,18,0.6,30.0,M,46.9,M,,*54
$GNRMC,000047.40,A,3348.2408,S,15051.8730,E,098.2,338.5,010126,,*33
$GNGGA,000047.50,3348.2418,S,15051.8761,E,4,18,0.6,30.0,M,46.9,M,,*50
$GNRMC,000047.50,A,3348.2418,S,15051.8761,E,098.3,338.5,010126,,*36
$GNGGA,000047.60,3348.2428,S,15051.8791,E,4,18,0.6,30.0,M,46.9,M,,*5F
$GNRMC,000047.60,A,3348.2428,S,15051.8791,E,098.3,338.5,010126,,*39
$GNGGA,000047.70,3348.2438,S,15051.8822,E,4,18,0.6,30.0,M,46.9,M,,*58
$GNRMC,000047.70,A,3348.2438,S,15051.8822,E,098.3,338.5,010126,,*3E
$GNGGA,000047.80,3348.2448,S,15051.8852,E,4,18,0.6,30.0,M,46.9,M,,*57
$GNRMC,000047.80,A,3348.2448,S,15051.8852,E,098.3,338.5,010126,,*31
$GNGGA,000047.90,3348.2458,S,15051.8883,E,4,18,0.6,30.0,M,46.9,M,,*5B
$GNRMC,000047.90,A,3348.2458,S,15051.8883,E,098.4,338.5,010126,,*3A
$GNGGA,000048.00,3348.2468,S,15051.8913,E,4,18,0.6,30.0,M,46.9,M,,*56
$GNRMC,000048.00,A,3348.2468,S,15051.8913,E,098.4,338.5,010126,,*37
$GNGGA,000048.10,3348.2478,S,15051.8944,E,4,18,0.6,30.0,M,46.9,M,,*54
$GNRMC,000048.10,A,3348.2478,S,15051.8944,E,098.4,338.5,010126,,*35
$GNGGA,000048.20,3348.2487,S,15051.8975,E,4,18,0.6,30.0,M,46.9,M,,*55
$GNRMC,000048.20,A,3348.2487,S,15051.8975,E,098.4,340.9,010126,,*37
$GNGGA,000048.30,3348.2496,S,15051.9006,E,4,18,0.6,30.0,M,46.9,M,,*58
$GNRMC,000048.30,A,3348.2496,S,15051.9006,E,098.4,340.9,010126,,*3A
$GNGGA,000048.40,3348.2505,S,15051.9037,E,4,18,0.6,30.0,M,46.9,M,,*56
$GNRMC,000048.40,A,3348.2505,S,15051.9037,E,098.5,340.9,010126,,*35
$GNGGA,000048.50,3348.2514,S,15051.9068,E,4,18,0.6,30.0,M,46.9,M,,*5D
$GNRMC,000048.50,A,3348.2514,S,15051.9068,E,098.5,340.9,010126,,*3E
$GNGGA,000048.60,3348.2523,S,15051.9099,E,4,18,0.6,30.0,M,46.9,M,,*54
$GNRMC,000048.60,A,3348.2523,S,15051.9099,E,098.5,340.9,010126,,*37
$GNGGA,000048.70,3348.2532,S,15051.9130,E,4,18,0.6,30.0,M,46.9,M,,*57
$GNRMC,000048.70,A,3348.2532,S,15051.9130,E,098.5,340.9,010126,,*34
$GNGGA,000048.80,3348.2541,S,15051.9161,E,4,18,0.6,30.0,M,46.9,M,,*58
$GNRMC,000048.80,A,3348.2541,S,15051.9161,E,098.5,340.9,010126,,*3B
$GNGGA,000048.90,3348.2550,S,15051.9193,E,4,18,0.6,30.0,M,46.9,M,,*54
$GNRMC,000048.90,A,3348.2550,S,15051.9193,E,098.5,340.9,010126,,*37
$GNGGA,000049.00,3348.2559,S,15051.9224,E,4,18,0.6,30.0,M,46.9,M,,*5A
$GNRMC,000049.00,A,3348.2559,S,15051.9224,E,098.5,340.9,010126,,*39
$GNGGA,000049.10,3348.2567,S,15051.9255,E,4,18,0.6,30.0,M,46.9,M,,*50
$GNRMC,000049.10,A,3348.2567,S,15051.9255,E,098.5,343.2,010126,,*3B
$GNGGA,000049.20,3348.2575,S,15051.9287,E,4,18,0.6,30.0,M,46.9,M,,*5F
$GNRMC,000049.20,A,3348.2575,S,15051.9287,E,098.5,343.2,010126,,*34
$GNGGA,000049.30,3348.2582,S,15051.9318,E,4,18,0.6,30.0,M,46.9,M,,*51
$GNRMC,000049.30,A,3348.2582,S,15051.9318,E,098.5,343.2,010126,,*3A
$GNGGA,000049.40,3348.2590,S,15051.9350,E,4,18,0.6,30.0,M,46.9,M,,*59
$GNRMC,000049.40,A,3348.2590,S,15051.9350,E,098.6,343.2,010126,,*31
$GNGGA,000049.50,3348.2598,S,15051.9381,E,4,18,0.6,30.0,M,46.9,M,,*5C
$GNRMC,000049.50,A,3348.2598,S,15051.9381,E,098.6,343.2,010126,,*34
$GNGGA,000049.60,3348.2606,S,15051.9413,E,4,18,0.6,30.0,M,46.9,M,,*57
$GNRMC,000049.60,A,3348.2606,S,15051.9413,E,098.6,343.2,010126,,*3F
$GNGGA,000049.70,3348.2614,S,15051.9444,E,4,18,0.6,30.0,M,46.9,M,,*57
$GNRMC,000049.70,A,3348.2614,S,15051.9444,E,098.6,343.2,010126,,*3F
$GNGGA,000049.80,3348.2622,S,15051.9476,E,4,18,0.6,30.0,M,46.9,M,,*5C
$GNRMC,000049.80,A,3348.2622,S,15051.9476,E,098.6,343.2,010126,,*34
$GNGGA,000049.90,3348.2630,S,15051.9507,E,4,18,0.6,30.0,M,46.9,M,,*59
$GNRMC,000049.90,A,3348.2630,S,15051.9507,E,098.5,343.2,010126,,*32
$GNGGA,000050.00,3348.2637,S,15051.9539,E,4,18,0.6,30.0,M,46.9,M,,*52
$GNRMC,000050.00,A,3348.2637,S,15051.9539,E,098.5,345.3,010126,,*3E
$GNGGA,000050.10,3348.2644,S,15051.9571,E,4,18,0.6,30.0,M,46.9,M,,*5B
$GNRMC,000050.10,A,3348.2644,S,15051.9571,E,098.5,345.3,010126,,*37
$GNGGA,000050.20,3348.2651,S,15051.9603,E,4,18,0.6,30.0,M,46.9,M,,*5A
$GNRMC,000050.20,A,3348.2651,S,15051.9603,E,098.5,345.3,010126,,*36
$GNGGA,000050.30,3348.2658,S,15051.9635,E,4,18,0.6,30.0,M,46.9,M,,*57
$GNRMC,000050.30,A,3348.2658,S,15051.9635,E,098.5,345.3,010126,,*3B
$GNGGA,000050.40,3348.2665,S,15051.9666,E,4,18,0.6,30.0,M,46.9,M,,*58
$GNRMC,000050.40,A,3348.2665,S,15051.9666,E,098.5,345.3,010126,,*34
$GNGGA,000050.50,3348.2672,S,15051.9698,E,4,18,0.6,30.0,M,46.9,M,,*5E
$GNRMC,000050.50,A,3348.2672,S,15051.9698,E,098.5,345.3,010126,,*32
$GNGGA,000050.60,3348.2679,S,15051.9730,E,4,18,0.6,30.0,M,46.9,M,,*55
$GNRMC,000050.60,A,3348.2679,S,15051.9730,E,098.5,345.3,010126,,*39
$GNGGA,000050.70,3348.2686,S,15051.9762,E,4,18,0.6,30.0,M,46.9,M,,*53
$GNRMC,000050.70,A,3348.2686,S,15051.9762,E,098.5,345.3,010126,,*3F
$GNGGA,000050.80,3348.2693,S,15051.9794,E,4,18,0.6,30.0,M,46.9,M,,*51
$GNRMC,000050.80,A,3348.2693,S,15051.9794,E,098.5,345.3,010126,,*3D
$GNGGA,000050.90,3348.2699,S,15051.9826,E,4,18,0.6,30.0,M,46.9,M,,*5C
$GNRMC,000050.90,A,3348.2699,S,15051.9826,E,098.4,347.3,010126,,*33
$GNGGA,000051.00,3348.2705,S,15051.9858,E,4,18,0.6,30.0,M,46.9,M,,*59
$GNRMC,000051.00,A,3348.2705,S,15051.9858,E,098.4,347.3,010126,,*36
$GNGGA,000051.10,3348.2711,S,15051.9890,E,4,18,0.6,30.0,M,46.9,M,,*59
$GNRMC,000051.10,A,3348.2711,S,15051.9890,E,098.4,347.3,010126,,*36
$GNGGA,000051.20,3348.2717,S,15051.9922,E,4,18,0.6,30.0,M,46.9,M,,*54
$GNRMC,000051.20,A,3348.2717,S,15051.9922,E,098.4,347.3,010126,,*3B
$GNGGA,000051.30,3348.2723,S,15051.9954,E,4,18,0.6,30.0,M,46.9,M,,*53
$GNRMC,000051.30,A,3348.2723,S,15051.9954,E,098.4,347.3,010126,,*3C
$GNGGA,000051.40,3348.2729,S,15051.9986,E,4,18,0.6,30.0,M,46.9,M,,*51
$GNRMC,000051.40,A,3348.2729,S,15051.9986,E,098.3,347.3,010126,,*39
$GNGGA,000051.50,3348.2735,S,15052.0018,E,4,18,0.6,30.0,M,46.9,M,,*59
$GNRMC,000051.50,A,3348.2735,S,15052.0018,E,098.3,347.3,010126,,*31
$GNGGA,000051.60,3348.2741,S,15052.0050,E,4,18,0.6,30.0,M,46.9,M,,*55
$GNRMC,000051.60,A,3348.2741,S,15052.0050,E,098.3,347.3,010126,,*3D
$GNGGA,000051.70,3348.2747,S,15052.0082,E,4,18,0.6,30.0,M,46.9,M,,*5D
$GNRMC,000051.70,A,3348.2747,S,15052.0082,E,098.3,347.3,010126,,*35
$GNGGA,000051.80,3348.2753,S,15052.0114,E,4,18,0.6,30.0,M,46.9,M,,*59
$GNRMC,000051.80,A,3348.2753,S,15052.0114,E,098.2,347.3,010126,,*30
$GNGGA,000051.90,3348.2759,S,15052.0146,E,4,18,0.6,30.0,M,46.9,M,,*55
$GNRMC,000051.90,A,3348.2759,S,15052.0146,E,098.2,349.2,010126,,*33
$GNGGA,000052.00,3348.2764,S,15052.0178,E,4,18,0.6,30.0,M,46.9,M,,*5C
$GNRMC,000052.00,A,3348.2764,S,15052.0178,E,098.2,349.2,010126,,*3A
$GNGGA,000052.10,3348.2769,S,15052.0211,E,4,18,0.6,30.0,M,46.9,M,,*5C
$GNRMC,000052.10,A,3348.2769,S,15052.0211,E,098.2,349.2,010126,,*3A
$GNGGA,000052.20,3348.2774,S,15052.0243,E,4,18,0.6,30.0,M,46.9,M,,*54
$GNRMC,000052.20,A,3348.2774,S,15052.0243,E,098.1,349.2,010126,,*31
$GNGGA,000052.30,3348.2779,S,15052.0275,E,4,18,0.6,30.0,M,46.9,M,,*5D
$GNRMC,000052.30,A,3348.2779,S,15052.0275,E,098.1,349.2,010126,,*38
$GNGGA,000052.40,3348.2784,S,15052.0307,E,4,18,0.6,30.0,M,46.9,M,,*5C
$GNRMC,000052.40,A,3348.2784,S,15052.0307,E,098.1,349.2,010126,,*39
$GNGGA,000052.50,3348.2790,S,15052.0339,E,4,18,0.6,30.0,M,46.9,M,,*55
$GNRMC,000052.50,A,3348.2790,S,15052.0339,E,098.0,349.2,010126,,*31
$GNGGA,000052.60,3348.2795,S,15052.0372,E,4,18,0.6,30.0,M,46.9,M,,*5C
$GNRMC,000052.60,A,3348.2795,S,15052.0372,E,098.0,349.2,010126,,*38
$GNGGA,000052.70,3348.2800,S,15052.0404,E,4,18,0.6,30.0,M,46.9,M,,*58
$GNRMC,000052.70,A,3348.2800,S,15052.0404,E,097.9,349.2,010126,,*3A
$GNGGA,000052.80,3348.2805,S,15052.0436,E,4,18,0.6,30.0,M,46.9,M,,*53
$GNRMC,000052.80,A,3348.2805,S,15052.0436,E,097.9,349.2,010126,,*31
$GNGGA,000052.90,3348.2810,S,15052.0468,E,4,18,0.6,30.0,M,46.9,M,,*5D
$GNRMC,000052.90,A,3348.2810,S,15052.0468,E,097.9,351.0,010126,,*34
$GNGGA,000053.00,3348.2814,S,15052.0500,E,4,18,0.6,30.0,M,46.9,M,,*5E
$GNRMC,000053.00,A,3348.2814,S,15052.0500,E,097.8,351.0,010126,,*36
$GNGGA,000053.10,3348.2818,S,15052.0533,E,4,18,0.6,30.0,M,46.9,M,,*53
$GNRMC,000053.10,A,3348.2818,S,15052.0533,E,097.8,351.0,010126,,*3B
$GNGGA,000053.20,3348.2822,S,15052.0565,E,4,18,0.6,30.0,M,46.9,M,,*5A
$GNRMC,000053.20,A,3348.2822,S,15052.0565,E,097.7,351.0,010126,,*3D
$GNGGA,000053.30,3348.2827,S,15052.0597,E,4,18,0.6,30.0,M,46.9,M,,*53
$GNRMC,000053.30,A,3348.2827,S,15052.0597,E,097.7,351.0,010126,,*34
$GNGGA,000053.40,3348.2831,S,15052.0629,E,4,18,0.6,30.0,M,46.9,M,,*55
$GNRMC,000053.40,A,3348.2831,S,15052.0629,E,097.7,351.0,010126,,*32
$GNGGA,000053.50,3348.2835,S,15052.0662,E,4,18,0.6,30.0,M,46.9,M,,*5F
$GNRMC,000053.50,A,3348.2835,S,15052.0662,E,097.6,351.0,010126,,*39
$GNGGA,000053.60,3348.2839,S,15052.0694,E,4,18,0.6,30.0,M,46.9,M,,*59
$GNRMC,000053.60,A,3348.2839,S,15052.0694,E,097.6,351.0,010126,,*3F
$GNGGA,000053.70,3348.2844,S,15052.0726,E,4,18,0.6,30.0,M,46.9,M,,*5A
$GNRMC,000053.70,A,3348.2844,S,15052.0726,E,097.5,351.0,010126,,*3F
$GNGGA,000053.80,3348.2848,S,15052.0758,E,4,18,0.6,30.0,M,46.9,M,,*50
$GNRMC,000053.80,A,3348.2848,S,15052.0758,E,097.5,351.0,010126,,*35
$GNGGA,000053.90,3348.2852,S,15052.0790,E,4,18,0.6,30.0,M,46.9,M,,*5E
$GNRMC,000053.90,A,3348.2852,S,15052.0790,E,097.4,351.0,010126,,*3A
$GNGGA,000054.00,3348.2856,S,15052.0823,E,4,18,0.6,30.0,M,46.9,M,,*53
$GNRMC,000054.00,A,3348.2856,S,15052.0823,E,097.4,352.7,010126,,*33
$GNGGA,000054.10,3348.2859,S,15052.0855,E,4,18,0.6,30.0,M,46.9,M,,*5C
$GNRMC,000054.10,A,3348.2859,S,15052.0855,E,097.3,352.7,010126,,*3B
$GNGGA,000054.20,3348.2862,S,15052.0887,E,4,18,0.6,30.0,M,46.9,M,,*58
$GNRMC,000054.20,A,3348.2862,S,15052.0887,E,097.3,352.7,010126,,*3F
$GNGGA,000054.30,3348.2866,S,15052.0919,E,4,18,0.6,30.0,M,46.9,M,,*5B
$GNRMC,000054.30,A,3348.2866,S,15052.0919,E,097.2,352.7,010126,,*3D
$GNGGA,000054.40,3348.2869,S,15052.0952,E,4,18,0.6,30.0,M,46.9,M,,*5C
$GNRMC,000054.40,A,3348.2869,S,15052.0952,E,097.1,352.7,010126,,*39
$GNGGA,000054.50,3348.2873,S,15052.0984,E,4,18,0.6,30.0,M,46.9,M,,*5D
$GNRMC,000054.50,A,3348.2873,S,15052.0984,E,097.1,352.7,010126,,*38
$GNGGA,000054.60,3348.2876,S,15052.1016,E,4,18,0.6,30.0,M,46.9,M,,*58
$GNRMC,000054.60,A,3348.2876,S,15052.1016,E,097.0,352.7,010126,,*3C
$GNGGA,000054.70,3348.2879,S,15052.1048,E,4,18,0.6,30.0,M,46.9,M,,*5D
$GNRMC,000054.70,A,3348.2879,S,15052.1048,E,097.0,352.7,010126,,*39
$GNGGA,000054.80,3348.2883,S,15052.1080,E,4,18,0.6,30.0,M,46.9,M,,*53
$GNRMC,000054.80,A,3348.2883,S,15052.1080,E,096.9,352.7,010126,,*3F
$GNGGA,000054.90,3348.2886,S,15052.1112,E,4,18,0.6,30.0,M,46.9,M,,*5D
$GNRMC,000054.90,A,3348.2886,S,15052.1112,E,096.9,352.7,010126,,*31
$GNGGA,000055.00,3348.2889,S,15052.1144,E,4,18,0.6,30.0,M,46.9,M,,*59
$GNRMC,000055.00,A,3348.2889,S,15052.1144,E,096.8,354.4,010126,,*31
$GNGGA,000055.10,3348.2892,S,15052.1177,E,4,18,0.6,30.0,M,46.9,M,,*52
$GNRMC,000055.10,A,3348.2892,S,15052.1177,E,096.7,354.4,010126,,*35
$GNGGA,000055.20,3348.2895,S,15052.1209,E,4,18,0.6,30.0,M,46.9,M,,*5C
$GNRMC,000055.20,A,3348.2895,S,15052.1209,E,096.7,354.4,010126,,*3B
$GNGGA,000055.30,3348.2897,S,15052.1241,E,4,18,0.6,30.0,M,46.9,M,,*53
$GNRMC,000055.30,A,3348.2897,S,15052.1241,E,096.6,354.4,010126,,*35
$GNGGA,000055.40,3348.2900,S,15052.1273,E,4,18,0.6,30.0,M,46.9,M,,*5A
$GNRMC,000055.40,A,3348.2900,S,15052.1273,E,096.6,354.4,010126,,*3C
$GNGGA,000055.50,3348.2903,S,15052.1305,E,4,18,0.6,30.0,M,46.9,M,,*58
$GNRMC,000055.50,A,3348.2903,S,15052.1305,E,096.5,354.4,010126,,*3D
$GNGGA,000055.60,3348.2905,S,15052.1337,E,4,18,0.6,30.0,M,46.9,M,,*5C
$GNRMC,000055.60,A,3348.2905,S,15052.1337,E,096.4,354.4,010126,,*38
$GNGGA,000055.70,3348.2908,S,15052.1369,E,4,18,0.6,30.0,M,46.9,M,,*5B
$GNRMC,000055.70,A,3348.2908,S,15052.1369,E,096.4,354.4,010126,,*3F
$GNGGA,000055.80,3348.2910,S,15052.1401,E,4,18,0.6,30.0,M,46.9,M,,*54
$GNRMC,000055.80,A,3348.2910,S,15052.1401,E,096.3,354.4,010126,,*37
$GNGGA,000055.90,3348.2913,S,15052.1433,E,4,18,0.6,30.0,M,46.9,M,,*57
$GNRMC,000055.90,A,3348.2913,S,15052.1433,E,096.2,354.4,010126,,*35
$GNGGA,000056.00,3348.2916,S,15052.1465,E,4,18,0.6,30.0,M,46.9,M,,*5B
$GNRMC,000056.00,A,3348.2916,S,15052.1465,E,096.2,354.4,010126,,*39
$GNGGA,000056.10,3348.2918,S,15052.1497,E,4,18,0.6,30.0,M,46.9,M,,*59
$GNRMC,000056.10,A,3348.2918,S,15052.1497,E,096.1,356.0,010126,,*3E
$GNGGA,000056.20,3348.2920,S,15052.1529,E,4,18,0.6,30.0,M,46.9,M,,*55
$GNRMC,000056.20,A,3348.2920,S,15052.1529,E,096.0,356.0,010126,,*33
$GNGGA,000056.30,3348.2921,S,15052.1561,E,4,18,0.6,30.0,M,46.9,M,,*59
$GNRMC,000056.30,A,3348.2921,S,15052.1561,E,096.0,356.0,010126,,*3F
$GNGGA,000056.40,3348.2923,S,15052.1593,E,4,18,0.6,30.0,M,46.9,M,,*51
$GNRMC,000056.40,A,3348.2923,S,15052.1593,E,095.9,356.0,010126,,*3D
$GNGGA,000056.50,3348.2925,S,15052.1625,E,4,18,0.6,30.0,M,46.9,M,,*58
$GNRMC,000056.50,A,3348.2925,S,15052.1625,E,095.8,356.0,010126,,*35
$GNGGA,000056.60,3348.2927,S,15052.1657,E,4,18,0.6,30.0,M,46.9,M,,*5C
$GNRMC,000056.60,A,3348.2927,S,15052.1657,E,095.8,356.0,010126,,*31
$GNGGA,000056.70,3348.2929,S,15052.1689,E,4,18,0.6,30.0,M,46.9,M,,*50
$GNRMC,000056.70,A,3348.2929,S,15052.1689,E,095.7,356.0,010126,,*32
$GNGGA,000056.80,3348.2931,S,15052.1721,E,4,18,0.6,30.0,M,46.9,M,,*55
$GNRMC,000056.80,A,3348.2931,S,15052.1721,E,095.6,356.0,010126,,*36
$GNGGA,000056.90,3348.2933,S,15052.1753,E,4,18,0.6,30.0,M,46.9,M,,*53
$GNRMC,000056.90,A,3348.2933,S,15052.1753,E,095.5,356.0,010126,,*33
$GNGGA,000057.00,3348.2934,S,15052.1785,E,4,18,0.6,30.0,M,46.9,M,,*57
$GNRMC,000057.00,A,3348.2934,S,15052.1785,E,095.5,356.0,010126,,*37
$GNGGA,000057.10,3348.2936,S,15052.1817,E,4,18,0.6,30.0,M,46.9,M,,*50
$GNRMC,000057.10,A,3348.2936,S,15052.1817,E,095.4,356.0,010126,,*31
$GNGGA,000057.20,3348.2938,S,15052.1848,E,4,18,0.6,30.0,M,46.9,M,,*57
$GNRMC,000057.20,A,3348.2938,S,15052.1848,E,095.3,357.6,010126,,*36
$GNGGA,000057.30,3348.2939,S,15052.1880,E,4,18,0.6,30.0,M,46.9,M,,*53
$GNRMC,000057.30,A,3348.2939,S,15052.1880,E,095.3,357.6,010126,,*32
$GNGGA,000057.40,3348.2940,S,15052.1912,E,4,18,0.6,30.0,M,46.9,M,,*50
$GNRMC,000057.40,A,3348.2940,S,15052.1912,E,095.2,357.6,010126,,*30
$GNGGA,000057.50,3348.2941,S,15052.1944,E,4,18,0.6,30.0,M,46.9,M,,*53
$GNRMC,000057.50,A,3348.2941,S,15052.1944,E,095.1,357.6,010126,,*30
$GNGGA,000057.60,3348.2942,S,15052.1976,E,4,18,0.6,30.0,M,46.9,M,,*52
$GNRMC,000057.60,A,3348.2942,S,15052.1976,E,095.0,357.6,010126,,*30
$GNGGA,000057.70,3348.2943,S,15052.2007,E,4,18,0.6,30.0,M,46.9,M,,*5E
$GNRMC,000057.70,A,3348.2943,S,15052.2007,E,095.0,357.6,010126,,*3C
$GNGGA,000057.80,3348.2944,S,15052.2039,E,4,18,0.6,30.0,M,46.9,M,,*5B
$GNRMC,000057.80,A,3348.2944,S,15052.2039,E,094.9,357.6,010126,,*31
$GNGGA,000057.90,3348.2945,S,15052.2071,E,4,18,0.6,30.0,M,46.9,M,,*57
$GNRMC,000057.90,A,3348.2945,S,15052.2071,E,094.8,357.6,010126,,*3C
$GNGGA,000058.00,3348.2946,S,15052.2102,E,4,18,0.6,30.0,M,46.9,M,,*57
$GNRMC,000058.00,A,3348.2946,S,15052.2102,E,094.7,357.6,010126,,*33
$GNGGA,000058.10,3348.2947,S,15052.2134,E,4,18,0.6,30.0,M,46.9,M,,*52
$GNRMC,000058.10,A,3348.2947,S,15052.2134,E,094.7,357.6,010126,,*36
$GNGGA,000058.20,3348.2949,S,15052.2166,E,4,18,0.6,30.0,M,46.9,M,,*58
$GNRMC,000058.20,A,3348.2949,S,15052.2166,E,094.6,357.6,010126,,*3D
$GNGGA,000058.30,3348.2949,S,15052.2197,E,4,18,0.6,30.0,M,46.9,M,,*57
$GNRMC,000058.30,A,3348.2949,S,15052.2197,E,094.5,359.2,010126,,*3B
$GNGGA,000058.40,3348.2950,S,15052.2229,E,4,18,0.6,30.0,M,46.9,M,,*5E
$GNRMC,000058.40,A,3348.2950,S,15052.2229,E,094.4,359.2,010126,,*33
$GNGGA,000058.50,3348.2950,S,15052.2260,E,4,18,0.6,30.0,M,46.9,M,,*52
$GNRMC,000058.50,A,3348.2950,S,15052.2260,E,094.4,359.2,010126,,*3F
$GNGGA,000058.60,3348.2950,S,15052.2292,E,4,18,0.6,30.0,M,46.9,M,,*5C
$GNRMC,000058.60,A,3348.2950,S,15052.2292,E,094.3,359.2,010126,,*36
$GNGGA,000058.70,3348.2951,S,15052.2323,E,4,18,0.6,30.0,M,46.9,M,,*57
$GNRMC,000058.70,A,3348.2951,S,15052.2323,E,094.2,359.2,010126,,*3C
$GNGGA,000058.80,3348.2951,S,15052.2355,E,4,18,0.6,30.0,M,46.9,M,,*59
$GNRMC,000058.80,A,3348.2951,S,15052.2355,E,094.1,359.2,010126,,*31
$GNGGA,000058.90,3348.2951,S,15052.2386,E,4,18,0.6,30.0,M,46.9,M,,*56
$GNRMC,000058.90,A,3348.2951,S,15052.2386,E,094.1,359.2,010126,,*3E
$GNGGA,000059.00,3348.2952,S,15052.2418,E,4,18,0.6,30.0,M,46.9,M,,*5D
$GNRMC,000059.00,A,3348.2952,S,15052.2418,E,094.0,359.2,010126,,*34
$GNGGA,000059.10,3348.2952,S,15052.2449,E,4,18,0.6,30.0,M,46.9,M,,*58
$GNRMC,000059.10,A,3348.2952,S,15052.2449,E,093.9,359.2,010126,,*3F
$GNGGA,000059.20,3348.2953,S,15052.2480,E,4,18,0.6,30.0,M,46.9,M,,*5F
$GNRMC,000059.20,A,3348.2953,S,15052.2480,E,093.8,359.2,010126,,*39
$GNGGA,000059.30,3348.2953,S,15052.2512,E,4,18,0.6,30.0,M,46.9,M,,*54
$GNRMC,000059.30,A,3348.2953,S,15052.2512,E,093.8,359.2,010126,,*32
$GNGGA,000059.40,3348.2953,S,15052.2543,E,4,18,0.6,30.0,M,46.9,M,,*57
$GNRMC,000059.40,A,3348.2953,S,15052.2543,E,093.7,000.8,010126,,*3B
$GNGGA,000059.50,3348.2953,S,15052.2574,E,4,18,0.6,30.0,M,46.9,M,,*52
$GNRMC,000059.50,A,3348.2953,S,15052.2574,E,093.6,000.8,010126,,*3F
$GNGGA,000059.60,3348.2952,S,15052.2606,E,4,18,0.6,30.0,M,46.9,M,,*56
$GNRMC,000059.60,A,3348.2952,S,15052.2606,E,093.5,000.8,010126,,*38
$GNGGA,000059.70,3348.2952,S,15052.2637,E,4,18,0.6,30.0,M,46.9,M,,*55
$GNRMC,000059.70,A,3348.2952,S,15052.2637,E,093.5,000.8,010126,,*3B
$GNGGA,000059.80,3348.2952,S,15052.2668,E,4,18,0.6,30.0,M,46.9,M,,*50
$GNRMC,000059.80,A,3348.2952,S,15052.2668,E,093.4,000.8,010126,,*3F
$GNGGA,000059.90,3348.2951,S,15052.2699,E,4,18,0.6,30.0,M,46.9,M,,*5C
$GNRMC,000059.90,A,3348.2951,S,15052.2699,E,093.3,000.8,010126,,*34
